{
  "type": "FeatureCollection",
  "features": [
    {
      "type": "Feature",
      "properties": {
        "node": "n_geo_alto_adige_uga_buchholz",
        "name": "Buchholz",
        "point_role": "Pochi settlement; alternate name Buchholz; not Salurn-Pfatten and not the unit boundary",
        "geonames_id": "8953183",
        "source_url": "https://www.geonames.org/8953183",
        "retrieved_on": "2026-09-27",
        "license": "CC BY 4.0"
      },
      "geometry": {
        "type": "Point",
        "coordinates": [
          11.2424,
          46.24623
        ]
      }
    },
    {
      "type": "Feature",
      "properties": {
        "node": "n_geo_alto_adige_uga_girlan",
        "name": "Girlan",
        "point_role": "Cornaiano settlement; alternate name Girlan; not Girlan-Gschleier and not the unit boundary",
        "geonames_id": "3178078",
        "source_url": "https://www.geonames.org/3178078",
        "retrieved_on": "2026-09-27",
        "license": "CC BY 4.0"
      },
      "geometry": {
        "type": "Point",
        "coordinates": [
          11.28115,
          46.46329
        ]
      }
    },
    {
      "type": "Feature",
      "properties": {
        "node": "n_geo_alto_adige_uga_gries",
        "name": "Gries",
        "point_role": "Gries settlement in Bolzano; not Gries-Moritzing and not the unit boundary",
        "geonames_id": "3175824",
        "source_url": "https://www.geonames.org/3175824",
        "retrieved_on": "2026-09-27",
        "license": "CC BY 4.0"
      },
      "geometry": {
        "type": "Point",
        "coordinates": [
          11.33333,
          46.51667
        ]
      }
    },
    {
      "type": "Feature",
      "properties": {
        "node": "n_geo_alto_adige_uga_penon",
        "name": "Penon",
        "point_role": "Penone settlement; alternate name Penon; not Penon-Kofl or Penon-Hofstatt",
        "geonames_id": "3171238",
        "source_url": "https://www.geonames.org/3171238",
        "retrieved_on": "2026-09-27",
        "license": "CC BY 4.0"
      },
      "geometry": {
        "type": "Point",
        "coordinates": [
          11.20115,
          46.30188
        ]
      }
    },
    {
      "type": "Feature",
      "properties": {
        "node": "n_geo_alto_adige_uga_rain",
        "name": "Rain",
        "point_role": "Rain settlement in Cortaccia; not Goldrain and not the unit boundary",
        "geonames_id": "8953584",
        "source_url": "https://www.geonames.org/8953584",
        "retrieved_on": "2026-09-27",
        "license": "CC BY 4.0"
      },
      "geometry": {
        "type": "Point",
        "coordinates": [
          11.21286,
          46.30889
        ]
      }
    }
  ]
}
