{
  "type": "FeatureCollection",
  "features": [
    {
      "type": "Feature",
      "properties": {
        "key": "CAN",
        "name": "Canada",
        "source_adm0_a3": "CAN",
        "source_name_en": "Canada",
        "source_polygon_index": 129,
        "source_country_polygon_parts": 412,
        "source_country_geometry_sha256": "361fce683cfb937997124dae27da914286d940834ed493d81bec09b9e5428902",
        "source_archive_sha256": "ce1ac7036499a0edd641fbc093cd209a98f96a49d2eca8480aaacad35138a7f6",
        "source_url": "https://naciscdn.org/naturalearth/10m/cultural/ne_10m_admin_0_countries.zip",
        "source_version": "5.1.1",
        "retrieved_on": "2026-09-26",
        "selected_by_node": "n_geo_gulf_islands_wine",
        "selected_by_exact_point": [
          -123.49061,
          48.81852
        ],
        "island_reference_name": "Salt Spring Island",
        "derivation": "Complete original Natural Earth polygon part containing the exact licensed marker; all exterior and hole vertices preserved, no clipping, buffering, tracing or coordinate changes.",
        "license": "Public domain",
        "attribution": "Made with Natural Earth."
      },
      "geometry": {
        "type": "Polygon",
        "coordinates": [
          [
            [
              -123.36900794199994,
              48.77423737200007
            ],
            [
              -123.47203528599994,
              48.82827383000006
            ],
            [
              -123.49600175699993,
              48.84552643400008
            ],
            [
              -123.49998938699991,
              48.84935130400004
            ],
            [
              -123.49876868399991,
              48.85626862200007
            ],
            [
              -123.49453691299993,
              48.860988674000055
            ],
            [
              -123.48863684799994,
              48.86229075700004
            ],
            [
              -123.48228919199994,
              48.85932038000004
            ],
            [
              -123.47134355399993,
              48.85106028900009
            ],
            [
              -123.45881100199995,
              48.844916083000044
            ],
            [
              -123.44517981699994,
              48.84170156500005
            ],
            [
              -123.43106035099993,
              48.84194570500006
            ],
            [
              -123.50308183499993,
              48.89166901200008
            ],
            [
              -123.58189856699994,
              48.931301174000055
            ],
            [
              -123.58649654899995,
              48.942572333000044
            ],
            [
              -123.59007727799991,
              48.94741445500006
            ],
            [
              -123.59557044199994,
              48.95180898600006
            ],
            [
              -123.59373938699991,
              48.91909414300005
            ],
            [
              -123.58665930899991,
              48.89801666900007
            ],
            [
              -123.57192949099993,
              48.88149648600006
            ],
            [
              -123.5471899079999,
              48.86237213700008
            ],
            [
              -123.57152258999992,
              48.84975820500006
            ],
            [
              -123.56981360599991,
              48.83242422100005
            ],
            [
              -123.55337480399993,
              48.81468333500004
            ],
            [
              -123.5335180329999,
              48.80097077000005
            ],
            [
              -123.5335180329999,
              48.794134833000044
            ],
            [
              -123.54678300699993,
              48.78392161700003
            ],
            [
              -123.54971269399994,
              48.770738023000035
            ],
            [
              -123.54637610599991,
              48.75726959800005
            ],
            [
              -123.54092363199993,
              48.74632396000004
            ],
            [
              -123.53111731699994,
              48.734361070000034
            ],
            [
              -123.52041581899994,
              48.72866445500006
            ],
            [
              -123.50885982999989,
              48.72406647300005
            ],
            [
              -123.49624589799993,
              48.71556224200003
            ],
            [
              -123.48208574099993,
              48.712225653000075
            ],
            [
              -123.4610082669999,
              48.71539948100008
            ],
            [
              -123.44041907499991,
              48.72211334800005
            ],
            [
              -123.42764238199993,
              48.72955963700008
            ],
            [
              -123.4285375639999,
              48.738348700000074
            ],
            [
              -123.4514867829999,
              48.759466864000046
            ],
            [
              -123.45840410099993,
              48.76740143400008
            ],
            [
              -123.40758216099994,
              48.75405508000006
            ],
            [
              -123.38231360599991,
              48.75617096600007
            ],
            [
              -123.36900794199994,
              48.77423737200007
            ]
          ]
        ]
      }
    },
    {
      "type": "Feature",
      "properties": {
        "key": "CHL",
        "name": "Chile",
        "source_adm0_a3": "CHL",
        "source_name_en": "Chile",
        "source_polygon_index": 4,
        "source_country_polygon_parts": 163,
        "source_country_geometry_sha256": "9da93c8374bef64885cc16b4b8c0efb084efadf665160485c2f65b86506d96ed",
        "source_archive_sha256": "ce1ac7036499a0edd641fbc093cd209a98f96a49d2eca8480aaacad35138a7f6",
        "source_url": "https://naciscdn.org/naturalearth/10m/cultural/ne_10m_admin_0_countries.zip",
        "source_version": "5.1.1",
        "retrieved_on": "2026-09-26",
        "selected_by_node": "n_geo_rapa_nui_wine",
        "selected_by_exact_point": [
          -109.35,
          -27.12
        ],
        "island_reference_name": "Rapa Nui / Easter Island",
        "derivation": "Complete original Natural Earth polygon part containing the exact licensed marker; all exterior and hole vertices preserved, no clipping, buffering, tracing or coordinate changes.",
        "license": "Public domain",
        "attribution": "Made with Natural Earth."
      },
      "geometry": {
        "type": "Polygon",
        "coordinates": [
          [
            [
              -109.23159745999993,
              -27.092461846999925
            ],
            [
              -109.24185136599993,
              -27.09075286299992
            ],
            [
              -109.25194251199991,
              -27.09343840899993
            ],
            [
              -109.26134192599994,
              -27.09734465899993
            ],
            [
              -109.26943925699993,
              -27.09929778399993
            ],
            [
              -109.27916419199994,
              -27.097100518999923
            ],
            [
              -109.30134029899995,
              -27.087823174999926
            ],
            [
              -109.31102454299992,
              -27.08562590899993
            ],
            [
              -109.36632239499994,
              -27.06178150799991
            ],
            [
              -109.37962805899991,
              -27.05950286299992
            ],
            [
              -109.39688066299993,
              -27.06926848799992
            ],
            [
              -109.41319739499994,
              -27.084730726999908
            ],
            [
              -109.4234106109999,
              -27.09929778399993
            ],
            [
              -109.44676673099991,
              -27.17115650799991
            ],
            [
              -109.45103919199994,
              -27.179294528999947
            ],
            [
              -109.45372473899994,
              -27.187758070999905
            ],
            [
              -109.45132402299993,
              -27.195489190999922
            ],
            [
              -109.44066321499992,
              -27.201429945999905
            ],
            [
              -109.4292699859999,
              -27.199395440999922
            ],
            [
              -109.41856848899994,
              -27.19198984199994
            ],
            [
              -109.41030839799993,
              -27.181898695999905
            ],
            [
              -109.3958227199999,
              -27.176853122999944
            ],
            [
              -109.3887426419999,
              -27.17546965899993
            ],
            [
              -109.37930253799993,
              -27.17506275799991
            ],
            [
              -109.36778723899994,
              -27.172621351999908
            ],
            [
              -109.35924231699994,
              -27.166761976999908
            ],
            [
              -109.35130774599992,
              -27.15984465899993
            ],
            [
              -109.34146074099993,
              -27.15398528399993
            ],
            [
              -109.33238684799994,
              -27.15081145599993
            ],
            [
              -109.32384192599994,
              -27.14902109199994
            ],
            [
              -109.3042699859999,
              -27.14771900799991
            ],
            [
              -109.29222571499992,
              -27.145603122999944
            ],
            [
              -109.27391516799992,
              -27.13567473799992
            ],
            [
              -109.24356035099993,
              -27.129164320999905
            ],
            [
              -109.22655188699991,
              -27.118747653999947
            ],
            [
              -109.2200414699999,
              -27.105238539999903
            ],
            [
              -109.23159745999993,
              -27.092461846999925
            ]
          ]
        ]
      }
    }
  ]
}
