{
  "type": "FeatureCollection",
  "features": [
    {
      "type": "Feature",
      "properties": {
        "node": "n_geo_england",
        "node_id": "n_geo_england",
        "name": "England",
        "parent_node_id": "n_geo_united_kingdom",
        "country_node_id": "n_geo_united_kingdom",
        "point_role": "gazetteer_reference_point",
        "point_place_name": "England",
        "point_description": "country in north-west Europe, part of the United Kingdom",
        "source_url": "https://www.wikidata.org/wiki/Q21",
        "source_coordinate_url": "https://www.wikidata.org/wiki/Special:EntityData/Q21.json",
        "wikidata_id": "Q21",
        "wikidata_coordinate_claim": "q21$FA3302F7-E5E8-49D8-A1E2-00D3177D6DD2",
        "source_entity_sha256": "28f461efce36d0ed7461ea302a857bf6408166b72c4751fa441e91ea3ab63594",
        "coordinate_precision": 1,
        "retrieved_on": "2026-09-26",
        "license": "CC0-1.0",
        "label_note": "Reference point for England. This point does not represent a wine-area boundary or an official centroid."
      },
      "geometry": {
        "type": "Point",
        "coordinates": [
          -1,
          53
        ]
      }
    },
    {
      "type": "Feature",
      "properties": {
        "node": "n_geo_wales",
        "node_id": "n_geo_wales",
        "name": "Wales",
        "parent_node_id": "n_geo_united_kingdom",
        "country_node_id": "n_geo_united_kingdom",
        "point_role": "gazetteer_reference_point",
        "point_place_name": "Wales",
        "point_description": "constituent nation of the sovereign country of the United Kingdom, in north-west Europe",
        "source_url": "https://www.wikidata.org/wiki/Q25",
        "source_coordinate_url": "https://www.wikidata.org/wiki/Special:EntityData/Q25.json",
        "wikidata_id": "Q25",
        "wikidata_coordinate_claim": "q25$A9BB9487-23AE-41EF-ACD7-ED6B89C5A084",
        "source_entity_sha256": "d379e570d22983a8eb74bb53071d7bd9f38caac127a02304ed43078bc5b0d2fe",
        "coordinate_precision": 0.016666666666667,
        "retrieved_on": "2026-09-26",
        "license": "CC0-1.0",
        "label_note": "Reference point for Wales. This point does not represent a wine-area boundary or an official centroid."
      },
      "geometry": {
        "type": "Point",
        "coordinates": [
          -3.6333333333333,
          52.35
        ]
      }
    },
    {
      "type": "Feature",
      "properties": {
        "node": "n_geo_kent",
        "node_id": "n_geo_kent",
        "name": "Kent",
        "parent_node_id": "n_geo_england",
        "country_node_id": "n_geo_united_kingdom",
        "point_role": "gazetteer_reference_point",
        "point_place_name": "Kent",
        "point_description": "ceremonial county of England, United Kingdom",
        "source_url": "https://www.wikidata.org/wiki/Q23298",
        "source_coordinate_url": "https://www.wikidata.org/wiki/Special:EntityData/Q23298.json",
        "wikidata_id": "Q23298",
        "wikidata_coordinate_claim": "q23298$69C013DA-475D-4435-A998-58A43839B3FC",
        "source_entity_sha256": "524c7abe9cde986ac764444645ddd7b35e81cbb2a13cf1d9f9502454eb5516e0",
        "coordinate_precision": null,
        "retrieved_on": "2026-09-26",
        "license": "CC0-1.0",
        "label_note": "Reference point for Kent. This point does not represent a wine-area boundary or an official centroid."
      },
      "geometry": {
        "type": "Point",
        "coordinates": [
          0.73,
          51.19
        ]
      }
    },
    {
      "type": "Feature",
      "properties": {
        "node": "n_geo_essex",
        "node_id": "n_geo_essex",
        "name": "Essex",
        "parent_node_id": "n_geo_england",
        "country_node_id": "n_geo_united_kingdom",
        "point_role": "gazetteer_reference_point",
        "point_place_name": "Essex",
        "point_description": "ceremonial county in England (use Q21272241 for administrative non-metropolitan county)",
        "source_url": "https://www.wikidata.org/wiki/Q23240",
        "source_coordinate_url": "https://www.wikidata.org/wiki/Special:EntityData/Q23240.json",
        "wikidata_id": "Q23240",
        "wikidata_coordinate_claim": "q23240$2099D39C-273C-4DBF-9A0E-DAD022582266",
        "source_entity_sha256": "5885b198d047787d1a4eb5c176d8d896f4358a49182fd1eb666f80e55c66af43",
        "coordinate_precision": null,
        "retrieved_on": "2026-09-26",
        "license": "CC0-1.0",
        "label_note": "Reference point for Essex. This point does not represent a wine-area boundary or an official centroid."
      },
      "geometry": {
        "type": "Point",
        "coordinates": [
          0.58333333333333,
          51.75
        ]
      }
    },
    {
      "type": "Feature",
      "properties": {
        "node": "n_geo_hampshire",
        "node_id": "n_geo_hampshire",
        "name": "Hampshire",
        "parent_node_id": "n_geo_england",
        "country_node_id": "n_geo_united_kingdom",
        "point_role": "gazetteer_reference_point",
        "point_place_name": "Hampshire",
        "point_description": "ceremonial county of England",
        "source_url": "https://www.wikidata.org/wiki/Q23204",
        "source_coordinate_url": "https://www.wikidata.org/wiki/Special:EntityData/Q23204.json",
        "wikidata_id": "Q23204",
        "wikidata_coordinate_claim": "q23204$38809CC3-D88A-4053-A938-0AF5D52A8628",
        "source_entity_sha256": "42924f125956a1dda2b81a9ed998d631a0ed2be63abf08305fd0a2455bf134d4",
        "coordinate_precision": 0.0002777777777777778,
        "retrieved_on": "2026-09-26",
        "license": "CC0-1.0",
        "label_note": "Reference point for Hampshire. This point does not represent a wine-area boundary or an official centroid."
      },
      "geometry": {
        "type": "Point",
        "coordinates": [
          -1.3075,
          51.0575
        ]
      }
    },
    {
      "type": "Feature",
      "properties": {
        "node": "n_geo_surrey",
        "node_id": "n_geo_surrey",
        "name": "Surrey",
        "parent_node_id": "n_geo_england",
        "country_node_id": "n_geo_united_kingdom",
        "point_role": "gazetteer_reference_point",
        "point_place_name": "Surrey",
        "point_description": "county of England",
        "source_url": "https://www.wikidata.org/wiki/Q23276",
        "source_coordinate_url": "https://www.wikidata.org/wiki/Special:EntityData/Q23276.json",
        "wikidata_id": "Q23276",
        "wikidata_coordinate_claim": "q23276$EAD5C311-433B-4FAB-B69F-608F270C6E46",
        "source_entity_sha256": "09525465aadee627d271428f43f468adfa2026b5a898853579ce7afc22b4b4b6",
        "coordinate_precision": 0.016666666666666666,
        "retrieved_on": "2026-09-26",
        "license": "CC0-1.0",
        "label_note": "Reference point for Surrey. This point does not represent a wine-area boundary or an official centroid."
      },
      "geometry": {
        "type": "Point",
        "coordinates": [
          -0.45,
          51.25
        ]
      }
    },
    {
      "type": "Feature",
      "properties": {
        "node": "n_geo_dorset",
        "node_id": "n_geo_dorset",
        "name": "Dorset",
        "parent_node_id": "n_geo_england",
        "country_node_id": "n_geo_united_kingdom",
        "point_role": "gazetteer_reference_point",
        "point_place_name": "Dorset",
        "point_description": "ceremonial county in South West England, UK",
        "source_url": "https://www.wikidata.org/wiki/Q23159",
        "source_coordinate_url": "https://www.wikidata.org/wiki/Special:EntityData/Q23159.json",
        "wikidata_id": "Q23159",
        "wikidata_coordinate_claim": "q23159$EE80EAF2-E1E6-4671-9373-89A29DD506A5",
        "source_entity_sha256": "97db1b50703e13695877f75032ccabcf4d1739451a6bb5c6a7f26dc71b1e7e70",
        "coordinate_precision": null,
        "retrieved_on": "2026-09-26",
        "license": "CC0-1.0",
        "label_note": "Reference point for Dorset. This point does not represent a wine-area boundary or an official centroid."
      },
      "geometry": {
        "type": "Point",
        "coordinates": [
          -2.3333333333333,
          50.833333333333
        ]
      }
    },
    {
      "type": "Feature",
      "properties": {
        "node": "n_geo_wiltshire",
        "node_id": "n_geo_wiltshire",
        "name": "Wiltshire",
        "parent_node_id": "n_geo_england",
        "country_node_id": "n_geo_united_kingdom",
        "point_role": "gazetteer_reference_point",
        "point_place_name": "Wiltshire",
        "point_description": "ceremonial county of England (use Q21694746 for administrative unitary authority)",
        "source_url": "https://www.wikidata.org/wiki/Q23183",
        "source_coordinate_url": "https://www.wikidata.org/wiki/Special:EntityData/Q23183.json",
        "wikidata_id": "Q23183",
        "wikidata_coordinate_claim": "q23183$3C9E1528-ED45-4270-9748-DA456569F245",
        "source_entity_sha256": "6f7a963a0ffaeaf6fd445d2e277daa502821bf881e589b56840734820491716e",
        "coordinate_precision": 0.016666666666666666,
        "retrieved_on": "2026-09-26",
        "license": "CC0-1.0",
        "label_note": "Reference point for Wiltshire. This point does not represent a wine-area boundary or an official centroid."
      },
      "geometry": {
        "type": "Point",
        "coordinates": [
          -1.9,
          51.3
        ]
      }
    },
    {
      "type": "Feature",
      "properties": {
        "node": "n_geo_isle_of_wight",
        "node_id": "n_geo_isle_of_wight",
        "name": "Isle of Wight",
        "parent_node_id": "n_geo_england",
        "country_node_id": "n_geo_united_kingdom",
        "point_role": "gazetteer_reference_point",
        "point_place_name": "Isle of Wight",
        "point_description": "island, county and unitary authority area of England, United Kingdom",
        "source_url": "https://www.wikidata.org/wiki/Q9679",
        "source_coordinate_url": "https://www.wikidata.org/wiki/Special:EntityData/Q9679.json",
        "wikidata_id": "Q9679",
        "wikidata_coordinate_claim": "q9679$2D3CD12E-9C78-4DAD-B5BE-42033DA696B2",
        "source_entity_sha256": "ac13fbf80083f9914a7bf9e9c53f9c6529ca963062fc5e1867bce02d58211e66",
        "coordinate_precision": 0.016666666666666666,
        "retrieved_on": "2026-09-26",
        "license": "CC0-1.0",
        "label_note": "Reference point for Isle of Wight. This point does not represent a wine-area boundary or an official centroid."
      },
      "geometry": {
        "type": "Point",
        "coordinates": [
          -1.3,
          50.7
        ]
      }
    },
    {
      "type": "Feature",
      "properties": {
        "node": "n_geo_cornwall",
        "node_id": "n_geo_cornwall",
        "name": "Cornwall",
        "parent_node_id": "n_geo_england",
        "country_node_id": "n_geo_united_kingdom",
        "point_role": "gazetteer_reference_point",
        "point_place_name": "Cornwall",
        "point_description": "historic county of England and Celtic nation",
        "source_url": "https://www.wikidata.org/wiki/Q23148",
        "source_coordinate_url": "https://www.wikidata.org/wiki/Special:EntityData/Q23148.json",
        "wikidata_id": "Q23148",
        "wikidata_coordinate_claim": "Q23148$af7f89bb-49a1-b182-0167-bbc396993980",
        "source_entity_sha256": "8e312cc6a4445b224a1f7c60007dabf9ceca090fa4e1ab771a3e48af30390c17",
        "coordinate_precision": 0.016666666666667,
        "retrieved_on": "2026-09-26",
        "license": "CC0-1.0",
        "label_note": "Reference point for Cornwall. This point does not represent a wine-area boundary or an official centroid."
      },
      "geometry": {
        "type": "Point",
        "coordinates": [
          -4.9,
          50.3
        ]
      }
    },
    {
      "type": "Feature",
      "properties": {
        "node": "n_geo_devon",
        "node_id": "n_geo_devon",
        "name": "Devon",
        "parent_node_id": "n_geo_england",
        "country_node_id": "n_geo_united_kingdom",
        "point_role": "gazetteer_reference_point",
        "point_place_name": "Devon",
        "point_description": "ceremonial county of England",
        "source_url": "https://www.wikidata.org/wiki/Q23156",
        "source_coordinate_url": "https://www.wikidata.org/wiki/Special:EntityData/Q23156.json",
        "wikidata_id": "Q23156",
        "wikidata_coordinate_claim": "q23156$DDB48785-8976-4F39-8F89-96B83750BB4C",
        "source_entity_sha256": "d1e5af351e0778f153606695fb8cd338ef36870700c8bfc6d033e894daf172a3",
        "coordinate_precision": 0.1,
        "retrieved_on": "2026-09-26",
        "license": "CC0-1.0",
        "label_note": "Reference point for Devon. This point does not represent a wine-area boundary or an official centroid."
      },
      "geometry": {
        "type": "Point",
        "coordinates": [
          -3.8,
          50.7
        ]
      }
    },
    {
      "type": "Feature",
      "properties": {
        "node": "n_geo_somerset",
        "node_id": "n_geo_somerset",
        "name": "Somerset",
        "parent_node_id": "n_geo_england",
        "country_node_id": "n_geo_united_kingdom",
        "point_role": "qualified_locality_reference_point",
        "point_place_name": "Taunton",
        "point_description": "town and civil parish in Somerset, England",
        "source_url": "https://www.wikidata.org/wiki/Q845619",
        "source_coordinate_url": "https://www.wikidata.org/wiki/Special:EntityData/Q845619.json",
        "wikidata_id": "Q845619",
        "wikidata_coordinate_claim": "q845619$2EAE736E-086B-4A3D-8B1F-AE5C4EA71CA0",
        "source_entity_sha256": "363e9081a90238c41afc3fe90ec740ffcdf85da8a36bc4f45bd3b6f6b9ac8a30",
        "coordinate_precision": 0.00027777777777778,
        "retrieved_on": "2026-09-26",
        "license": "CC0-1.0",
        "label_note": "Taunton, the county town of Somerset, is a qualified inland reference location for the county; this is not the county centroid. This point does not represent a wine-area boundary or an official centroid."
      },
      "geometry": {
        "type": "Point",
        "coordinates": [
          -3.1,
          51.019166666667
        ]
      }
    },
    {
      "type": "Feature",
      "properties": {
        "node": "n_geo_herefordshire",
        "node_id": "n_geo_herefordshire",
        "name": "Herefordshire",
        "parent_node_id": "n_geo_england",
        "country_node_id": "n_geo_united_kingdom",
        "point_role": "gazetteer_reference_point",
        "point_place_name": "Herefordshire",
        "point_description": "ceremonial county, and unitary non-metropolitan county and district, in England",
        "source_url": "https://www.wikidata.org/wiki/Q23129",
        "source_coordinate_url": "https://www.wikidata.org/wiki/Special:EntityData/Q23129.json",
        "wikidata_id": "Q23129",
        "wikidata_coordinate_claim": "q23129$826D5083-BB7E-46DF-AB0C-D8516BE946CF",
        "source_entity_sha256": "489f73f0145a74a60fe8489d399bad96e930a5a4b3a6aa83d580fbf33949e3f7",
        "coordinate_precision": 0.016666666666667,
        "retrieved_on": "2026-09-26",
        "license": "CC0-1.0",
        "label_note": "Reference point for Herefordshire. This point does not represent a wine-area boundary or an official centroid."
      },
      "geometry": {
        "type": "Point",
        "coordinates": [
          -2.75,
          52.083333333333
        ]
      }
    },
    {
      "type": "Feature",
      "properties": {
        "node": "n_geo_gloucestershire",
        "node_id": "n_geo_gloucestershire",
        "name": "Gloucestershire",
        "parent_node_id": "n_geo_england",
        "country_node_id": "n_geo_united_kingdom",
        "point_role": "gazetteer_reference_point",
        "point_place_name": "Gloucestershire",
        "point_description": "ceremonial county in England (use Q21694733 for administrative non-metropolitan county)",
        "source_url": "https://www.wikidata.org/wiki/Q23165",
        "source_coordinate_url": "https://www.wikidata.org/wiki/Special:EntityData/Q23165.json",
        "wikidata_id": "Q23165",
        "wikidata_coordinate_claim": "q23165$6F05265F-8E4C-4431-BEDB-8C862EC408A8",
        "source_entity_sha256": "703c929659b50af76e31dca4037b3bd0181ebd5a17b96ed3d68130c94826804d",
        "coordinate_precision": 0.016666666666666666,
        "retrieved_on": "2026-09-26",
        "license": "CC0-1.0",
        "label_note": "Reference point for Gloucestershire. This point does not represent a wine-area boundary or an official centroid."
      },
      "geometry": {
        "type": "Point",
        "coordinates": [
          -2.2,
          51.8
        ]
      }
    },
    {
      "type": "Feature",
      "properties": {
        "node": "n_geo_norfolk",
        "node_id": "n_geo_norfolk",
        "name": "Norfolk",
        "parent_node_id": "n_geo_england",
        "country_node_id": "n_geo_united_kingdom",
        "point_role": "gazetteer_reference_point",
        "point_place_name": "Norfolk",
        "point_description": "county in East Anglia, England, UK",
        "source_url": "https://www.wikidata.org/wiki/Q23109",
        "source_coordinate_url": "https://www.wikidata.org/wiki/Special:EntityData/Q23109.json",
        "wikidata_id": "Q23109",
        "wikidata_coordinate_claim": "q23109$995ACB2E-B94D-4A4D-87BE-04CA2ECE46F3",
        "source_entity_sha256": "c51e48f1d4601c6589ed0338042c37f38681264c502945293e7e3dbf24e38b2d",
        "coordinate_precision": 0.0002777777777777778,
        "retrieved_on": "2026-09-26",
        "license": "CC0-1.0",
        "label_note": "Reference point for Norfolk. This point does not represent a wine-area boundary or an official centroid."
      },
      "geometry": {
        "type": "Point",
        "coordinates": [
          0.95,
          52.6725
        ]
      }
    },
    {
      "type": "Feature",
      "properties": {
        "node": "n_geo_suffolk",
        "node_id": "n_geo_suffolk",
        "name": "Suffolk",
        "parent_node_id": "n_geo_england",
        "country_node_id": "n_geo_united_kingdom",
        "point_role": "gazetteer_reference_point",
        "point_place_name": "Suffolk",
        "point_description": "county of England",
        "source_url": "https://www.wikidata.org/wiki/Q23111",
        "source_coordinate_url": "https://www.wikidata.org/wiki/Special:EntityData/Q23111.json",
        "wikidata_id": "Q23111",
        "wikidata_coordinate_claim": "q23111$E785C1D3-5927-4C1D-8ED7-71C82B927091",
        "source_entity_sha256": "091343378c2c91e7b19187426dd956f81a69ce32b79b3b95c0f43802087aaed2",
        "coordinate_precision": 0.016666666666666666,
        "retrieved_on": "2026-09-26",
        "license": "CC0-1.0",
        "label_note": "Reference point for Suffolk. This point does not represent a wine-area boundary or an official centroid."
      },
      "geometry": {
        "type": "Point",
        "coordinates": [
          1,
          52.2
        ]
      }
    },
    {
      "type": "Feature",
      "properties": {
        "node": "n_geo_sussex",
        "node_id": "n_geo_sussex",
        "name": "Sussex",
        "parent_node_id": "n_geo_england",
        "country_node_id": "n_geo_united_kingdom",
        "point_role": "gazetteer_reference_point",
        "point_place_name": "Sussex",
        "point_description": "historic county of England, United Kingdom",
        "source_url": "https://www.wikidata.org/wiki/Q23346",
        "source_coordinate_url": "https://www.wikidata.org/wiki/Special:EntityData/Q23346.json",
        "wikidata_id": "Q23346",
        "wikidata_coordinate_claim": "q23346$0F2FC463-48B1-40A1-B8CE-D5DC8037BD74",
        "source_entity_sha256": "655bf2bace575b71efcd1f7880be37b7b31ac89541aa4bae5eb6addd60ff5fbd",
        "coordinate_precision": 1e-8,
        "retrieved_on": "2026-09-26",
        "license": "CC0-1.0",
        "label_note": "Reference point for the historical Sussex area; this marker does not represent the Sussex PDO. This point does not represent a wine-area boundary or an official centroid."
      },
      "geometry": {
        "type": "Point",
        "coordinates": [
          -0.141372694746,
          50.9471026998
        ]
      }
    },
    {
      "type": "Feature",
      "properties": {
        "node": "n_geo_wessex_wine",
        "node_id": "n_geo_wessex_wine",
        "name": "Wessex (WineGB region)",
        "parent_node_id": "n_geo_england",
        "country_node_id": "n_geo_united_kingdom",
        "point_role": "qualified_locality_reference_point",
        "point_place_name": "Dorchester",
        "point_description": "town in Dorset, England, UK",
        "source_url": "https://www.wikidata.org/wiki/Q503331",
        "source_coordinate_url": "https://www.wikidata.org/wiki/Special:EntityData/Q503331.json",
        "wikidata_id": "Q503331",
        "wikidata_coordinate_claim": "q503331$73001DF7-FBF8-4330-B849-DC4506C35432",
        "source_entity_sha256": "40126982229c009c5c5ea609e1b7d53ad3d4f7c85dfcfd37eddfcd8cfe280fdf",
        "coordinate_precision": 0.00027777777777778,
        "retrieved_on": "2026-09-26",
        "license": "CC0-1.0",
        "label_note": "Dorchester in Dorset is a qualified inland reference location for the WineGB Wessex area; this is not the extent of the historic kingdom of Wessex. This point does not represent a wine-area boundary or an official centroid."
      },
      "geometry": {
        "type": "Point",
        "coordinates": [
          -2.4397222222222,
          50.710833333333
        ]
      }
    },
    {
      "type": "Feature",
      "properties": {
        "node": "n_geo_monmouthshire",
        "node_id": "n_geo_monmouthshire",
        "name": "Monmouthshire",
        "parent_node_id": "n_geo_wales",
        "country_node_id": "n_geo_united_kingdom",
        "point_role": "gazetteer_reference_point",
        "point_place_name": "Monmouthshire",
        "point_description": "principal area in south-east Wales, United Kingdom",
        "source_url": "https://www.wikidata.org/wiki/Q207176",
        "source_coordinate_url": "https://www.wikidata.org/wiki/Special:EntityData/Q207176.json",
        "wikidata_id": "Q207176",
        "wikidata_coordinate_claim": "q207176$C2CB8F9F-F66D-4C0F-9319-EA85113DDA2C",
        "source_entity_sha256": "6efbb90143c19c3fa5dfa9088e9cbc3efd26154c3779251beec2d93cadaf0514",
        "coordinate_precision": 0.0002777777777777778,
        "retrieved_on": "2026-09-26",
        "license": "CC0-1.0",
        "label_note": "Reference point for Monmouthshire. This point does not represent a wine-area boundary or an official centroid."
      },
      "geometry": {
        "type": "Point",
        "coordinates": [
          -2.9175,
          51.71222222222222
        ]
      }
    },
    {
      "type": "Feature",
      "properties": {
        "node": "n_geo_carmarthenshire",
        "node_id": "n_geo_carmarthenshire",
        "name": "Carmarthenshire",
        "parent_node_id": "n_geo_wales",
        "country_node_id": "n_geo_united_kingdom",
        "point_role": "gazetteer_reference_point",
        "point_place_name": "Carmarthenshire",
        "point_description": "principal area in south-west Wales",
        "source_url": "https://www.wikidata.org/wiki/Q217840",
        "source_coordinate_url": "https://www.wikidata.org/wiki/Special:EntityData/Q217840.json",
        "wikidata_id": "Q217840",
        "wikidata_coordinate_claim": "q217840$B8C989B5-989F-4EA8-8093-588AA2652598",
        "source_entity_sha256": "a6134c9863d1829ef9f707337c728173130ce0545296db42e5f24edc894fe20d",
        "coordinate_precision": null,
        "retrieved_on": "2026-09-26",
        "license": "CC0-1.0",
        "label_note": "Reference point for Carmarthenshire. This point does not represent a wine-area boundary or an official centroid."
      },
      "geometry": {
        "type": "Point",
        "coordinates": [
          -4.3105555555556,
          51.856111111111
        ]
      }
    },
    {
      "type": "Feature",
      "properties": {
        "node": "n_geo_pembrokeshire",
        "node_id": "n_geo_pembrokeshire",
        "name": "Pembrokeshire",
        "parent_node_id": "n_geo_wales",
        "country_node_id": "n_geo_united_kingdom",
        "point_role": "gazetteer_reference_point",
        "point_place_name": "Pembrokeshire",
        "point_description": "principal area in south-west Wales, United Kingdom",
        "source_url": "https://www.wikidata.org/wiki/Q213361",
        "source_coordinate_url": "https://www.wikidata.org/wiki/Special:EntityData/Q213361.json",
        "wikidata_id": "Q213361",
        "wikidata_coordinate_claim": "q213361$2DEB1D72-53BD-49B1-93AA-7788D0132AA0",
        "source_entity_sha256": "c8057d09deb289e5a547e16ee8dacabf61b6a5795f82ee4c85cd83e9a98b5fc3",
        "coordinate_precision": null,
        "retrieved_on": "2026-09-26",
        "license": "CC0-1.0",
        "label_note": "Reference point for Pembrokeshire. This point does not represent a wine-area boundary or an official centroid."
      },
      "geometry": {
        "type": "Point",
        "coordinates": [
          -4.8422222222222,
          51.845
        ]
      }
    },
    {
      "type": "Feature",
      "properties": {
        "node": "n_geo_ceredigion",
        "node_id": "n_geo_ceredigion",
        "name": "Ceredigion",
        "parent_node_id": "n_geo_wales",
        "country_node_id": "n_geo_united_kingdom",
        "point_role": "gazetteer_reference_point",
        "point_place_name": "Ceredigion",
        "point_description": "principal area in mid-Wales, corresponding to the historic county of Cardiganshire",
        "source_url": "https://www.wikidata.org/wiki/Q217829",
        "source_coordinate_url": "https://www.wikidata.org/wiki/Special:EntityData/Q217829.json",
        "wikidata_id": "Q217829",
        "wikidata_coordinate_claim": "q217829$E3037F7A-E62E-414B-9621-067FB5FA20A4",
        "source_entity_sha256": "c230cdcda59edf14a3e1f7433a33201aea27032d9c1f5fa3ca3f828c603be0d4",
        "coordinate_precision": null,
        "retrieved_on": "2026-09-26",
        "license": "CC0-1.0",
        "label_note": "Reference point for Ceredigion. This point does not represent a wine-area boundary or an official centroid."
      },
      "geometry": {
        "type": "Point",
        "coordinates": [
          -4.0002777777778,
          52.252777777778
        ]
      }
    }
  ]
}
