{
  "type": "FeatureCollection",
  "features": [
    {
      "type": "Feature",
      "properties": {
        "node": "n_geo_saar",
        "name": "Saar",
        "point_role": "sourced gazetteer marker; not a wine-area boundary",
        "point_place_name": "Wiltingen",
        "wikidata_id": "Q161930",
        "source_url": "https://www.wikidata.org/wiki/Special:EntityData/Q161930.json",
        "retrieved_on": "2026-09-26",
        "license": "CC0 1.0"
      },
      "geometry": {
        "type": "Point",
        "coordinates": [
          6.59,
          49.658888888889
        ]
      }
    },
    {
      "type": "Feature",
      "properties": {
        "node": "n_geo_ruwer",
        "name": "Ruwer",
        "point_role": "sourced gazetteer marker; not a wine-area boundary",
        "point_place_name": "Mertesdorf",
        "wikidata_id": "Q659878",
        "source_url": "https://www.wikidata.org/wiki/Special:EntityData/Q659878.json",
        "retrieved_on": "2026-09-26",
        "license": "CC0 1.0"
      },
      "geometry": {
        "type": "Point",
        "coordinates": [
          6.7327777777778,
          49.771944444444
        ]
      }
    },
    {
      "type": "Feature",
      "properties": {
        "node": "n_geo_bernkastel_bereich",
        "name": "Bernkastel (Mittelmosel)",
        "point_role": "sourced gazetteer marker; not a wine-area boundary",
        "point_place_name": "Bernkastel-Kues",
        "wikidata_id": "Q155622",
        "source_url": "https://www.wikidata.org/wiki/Special:EntityData/Q155622.json",
        "retrieved_on": "2026-09-26",
        "license": "CC0 1.0"
      },
      "geometry": {
        "type": "Point",
        "coordinates": [
          7.0694444444444,
          49.916111111111
        ]
      }
    },
    {
      "type": "Feature",
      "properties": {
        "node": "n_geo_burg_cochem",
        "name": "Burg Cochem (Terrassenmosel)",
        "point_role": "sourced gazetteer marker; not a wine-area boundary",
        "point_place_name": "Cochem",
        "wikidata_id": "Q502749",
        "source_url": "https://www.wikidata.org/wiki/Special:EntityData/Q502749.json",
        "retrieved_on": "2026-09-26",
        "license": "CC0 1.0"
      },
      "geometry": {
        "type": "Point",
        "coordinates": [
          7.1666666666667,
          50.146944444444
        ]
      }
    },
    {
      "type": "Feature",
      "properties": {
        "node": "n_geo_obermosel",
        "name": "Obermosel",
        "point_role": "sourced gazetteer marker; not a wine-area boundary",
        "point_place_name": "Nittel",
        "wikidata_id": "Q594609",
        "source_url": "https://www.wikidata.org/wiki/Special:EntityData/Q594609.json",
        "retrieved_on": "2026-09-26",
        "license": "CC0 1.0"
      },
      "geometry": {
        "type": "Point",
        "coordinates": [
          6.4452777777778,
          49.6525
        ]
      }
    },
    {
      "type": "Feature",
      "properties": {
        "node": "n_geo_moseltor",
        "name": "Moseltor",
        "point_role": "sourced gazetteer marker; not a wine-area boundary",
        "point_place_name": "Perl, Saarland",
        "wikidata_id": "Q662505",
        "source_url": "https://www.wikidata.org/wiki/Special:EntityData/Q662505.json",
        "retrieved_on": "2026-09-26",
        "license": "CC0 1.0"
      },
      "geometry": {
        "type": "Point",
        "coordinates": [
          6.385,
          49.47361111111111
        ]
      }
    },
    {
      "type": "Feature",
      "properties": {
        "node": "n_geo_mittelhaardt",
        "name": "Mittelhaardt-Deutsche Weinstraße",
        "point_role": "sourced gazetteer marker; not a wine-area boundary",
        "point_place_name": "Bad Dürkheim",
        "wikidata_id": "Q22901",
        "source_url": "https://www.wikidata.org/wiki/Special:EntityData/Q22901.json",
        "retrieved_on": "2026-09-26",
        "license": "CC0 1.0"
      },
      "geometry": {
        "type": "Point",
        "coordinates": [
          8.17236,
          49.4618
        ]
      }
    },
    {
      "type": "Feature",
      "properties": {
        "node": "n_geo_suedliche_weinstrasse",
        "name": "Südliche Weinstraße",
        "point_role": "sourced gazetteer marker; not a wine-area boundary",
        "point_place_name": "Landau",
        "wikidata_id": "Q7052",
        "source_url": "https://www.wikidata.org/wiki/Special:EntityData/Q7052.json",
        "retrieved_on": "2026-09-26",
        "license": "CC0 1.0"
      },
      "geometry": {
        "type": "Point",
        "coordinates": [
          8.1230555555556,
          49.199444444444
        ]
      }
    },
    {
      "type": "Feature",
      "properties": {
        "node": "n_geo_kaiserstuhl",
        "name": "Kaiserstuhl",
        "point_role": "sourced gazetteer marker; not a wine-area boundary",
        "point_place_name": "Kaiserstuhl (Baden-Württemberg)",
        "wikidata_id": "Q701516",
        "source_url": "https://www.wikidata.org/wiki/Special:EntityData/Q701516.json",
        "retrieved_on": "2026-09-26",
        "license": "CC0 1.0"
      },
      "geometry": {
        "type": "Point",
        "coordinates": [
          7.6666666666667,
          48.083333333333
        ]
      }
    },
    {
      "type": "Feature",
      "properties": {
        "node": "n_geo_ortenau",
        "name": "Ortenau",
        "point_role": "sourced gazetteer marker; not a wine-area boundary",
        "point_place_name": "Offenburg",
        "wikidata_id": "Q4044",
        "source_url": "https://www.wikidata.org/wiki/Special:EntityData/Q4044.json",
        "retrieved_on": "2026-09-26",
        "license": "CC0 1.0"
      },
      "geometry": {
        "type": "Point",
        "coordinates": [
          7.9408333333333,
          48.470833333333
        ]
      }
    },
    {
      "type": "Feature",
      "properties": {
        "node": "n_geo_markgraeflerland",
        "name": "Markgräflerland",
        "point_role": "sourced gazetteer marker; not a wine-area boundary",
        "point_place_name": "Müllheim im Markgräflerland",
        "wikidata_id": "Q505468",
        "source_url": "https://www.wikidata.org/wiki/Special:EntityData/Q505468.json",
        "retrieved_on": "2026-09-26",
        "license": "CC0 1.0"
      },
      "geometry": {
        "type": "Point",
        "coordinates": [
          7.6308333333333,
          47.808333333333
        ]
      }
    },
    {
      "type": "Feature",
      "properties": {
        "node": "n_geo_tuniberg",
        "name": "Tuniberg",
        "point_role": "sourced gazetteer marker; not a wine-area boundary",
        "point_place_name": "Tuniberg",
        "wikidata_id": "Q880403",
        "source_url": "https://www.wikidata.org/wiki/Special:EntityData/Q880403.json",
        "retrieved_on": "2026-09-26",
        "license": "CC0 1.0"
      },
      "geometry": {
        "type": "Point",
        "coordinates": [
          7.7008333333333,
          48.006944444444
        ]
      }
    },
    {
      "type": "Feature",
      "properties": {
        "node": "n_geo_breisgau",
        "name": "Breisgau",
        "point_role": "sourced gazetteer marker; not a wine-area boundary",
        "point_place_name": "Freiburg im Breisgau",
        "wikidata_id": "Q2833",
        "source_url": "https://www.wikidata.org/wiki/Special:EntityData/Q2833.json",
        "retrieved_on": "2026-09-26",
        "license": "CC0 1.0"
      },
      "geometry": {
        "type": "Point",
        "coordinates": [
          7.85,
          47.995
        ]
      }
    },
    {
      "type": "Feature",
      "properties": {
        "node": "n_geo_kraichgau",
        "name": "Kraichgau",
        "point_role": "sourced gazetteer marker; not a wine-area boundary",
        "point_place_name": "Kraichgau",
        "wikidata_id": "Q835695",
        "source_url": "https://www.wikidata.org/wiki/Special:EntityData/Q835695.json",
        "retrieved_on": "2026-09-26",
        "license": "CC0 1.0"
      },
      "geometry": {
        "type": "Point",
        "coordinates": [
          8.71666667,
          49.11666667
        ]
      }
    },
    {
      "type": "Feature",
      "properties": {
        "node": "n_geo_badische_bergstrasse",
        "name": "Badische Bergstraße",
        "point_role": "sourced gazetteer marker; not a wine-area boundary",
        "point_place_name": "Weinheim",
        "wikidata_id": "Q7050",
        "source_url": "https://www.wikidata.org/wiki/Special:EntityData/Q7050.json",
        "retrieved_on": "2026-09-26",
        "license": "CC0 1.0"
      },
      "geometry": {
        "type": "Point",
        "coordinates": [
          8.6697222222222,
          49.556111111111
        ]
      }
    },
    {
      "type": "Feature",
      "properties": {
        "node": "n_geo_tauberfranken",
        "name": "Tauberfranken",
        "point_role": "sourced gazetteer marker; not a wine-area boundary",
        "point_place_name": "Tauberbischofsheim",
        "wikidata_id": "Q61724",
        "source_url": "https://www.wikidata.org/wiki/Special:EntityData/Q61724.json",
        "retrieved_on": "2026-09-26",
        "license": "CC0 1.0"
      },
      "geometry": {
        "type": "Point",
        "coordinates": [
          9.6627777777778,
          49.6225
        ]
      }
    },
    {
      "type": "Feature",
      "properties": {
        "node": "n_geo_bodensee_baden",
        "name": "Bodensee (Baden)",
        "point_role": "sourced gazetteer marker; not a wine-area boundary",
        "point_place_name": "Meersburg",
        "wikidata_id": "Q498212",
        "source_url": "https://www.wikidata.org/wiki/Special:EntityData/Q498212.json",
        "retrieved_on": "2026-09-26",
        "license": "CC0 1.0"
      },
      "geometry": {
        "type": "Point",
        "coordinates": [
          9.2708333333333,
          47.695833333333
        ]
      }
    },
    {
      "type": "Feature",
      "properties": {
        "node": "n_geo_piesport",
        "name": "Piesport",
        "point_role": "sourced gazetteer marker; not a wine-area boundary",
        "point_place_name": "Piesport",
        "wikidata_id": "Q375762",
        "source_url": "https://www.wikidata.org/wiki/Special:EntityData/Q375762.json",
        "retrieved_on": "2026-09-26",
        "license": "CC0 1.0"
      },
      "geometry": {
        "type": "Point",
        "coordinates": [
          6.9166666666667,
          49.883055555556
        ]
      }
    },
    {
      "type": "Feature",
      "properties": {
        "node": "n_geo_wehlen",
        "name": "Wehlen",
        "point_role": "sourced gazetteer marker; not a wine-area boundary",
        "point_place_name": "Wehlen (Bernkastel-Kues)",
        "wikidata_id": "Q100265374",
        "source_url": "https://www.wikidata.org/wiki/Special:EntityData/Q100265374.json",
        "retrieved_on": "2026-09-26",
        "license": "CC0 1.0"
      },
      "geometry": {
        "type": "Point",
        "coordinates": [
          7.041944444444445,
          49.94111111111111
        ]
      }
    },
    {
      "type": "Feature",
      "properties": {
        "node": "n_geo_bernkastel",
        "name": "Bernkastel-Kues",
        "point_role": "sourced gazetteer marker; not a wine-area boundary",
        "point_place_name": "Bernkastel-Kues",
        "wikidata_id": "Q155622",
        "source_url": "https://www.wikidata.org/wiki/Special:EntityData/Q155622.json",
        "retrieved_on": "2026-09-26",
        "license": "CC0 1.0"
      },
      "geometry": {
        "type": "Point",
        "coordinates": [
          7.0694444444444,
          49.916111111111
        ]
      }
    },
    {
      "type": "Feature",
      "properties": {
        "node": "n_geo_wiltingen",
        "name": "Wiltingen",
        "point_role": "sourced gazetteer marker; not a wine-area boundary",
        "point_place_name": "Wiltingen",
        "wikidata_id": "Q161930",
        "source_url": "https://www.wikidata.org/wiki/Special:EntityData/Q161930.json",
        "retrieved_on": "2026-09-26",
        "license": "CC0 1.0"
      },
      "geometry": {
        "type": "Point",
        "coordinates": [
          6.59,
          49.658888888889
        ]
      }
    },
    {
      "type": "Feature",
      "properties": {
        "node": "n_geo_ruedesheim",
        "name": "Rüdesheim am Rhein",
        "point_role": "sourced gazetteer marker; not a wine-area boundary",
        "point_place_name": "Rüdesheim am Rhein",
        "wikidata_id": "Q628118",
        "source_url": "https://www.wikidata.org/wiki/Special:EntityData/Q628118.json",
        "retrieved_on": "2026-09-26",
        "license": "CC0 1.0"
      },
      "geometry": {
        "type": "Point",
        "coordinates": [
          7.923402777777778,
          49.97902777777778
        ]
      }
    },
    {
      "type": "Feature",
      "properties": {
        "node": "n_geo_geisenheim",
        "name": "Geisenheim",
        "point_role": "sourced gazetteer marker; not a wine-area boundary",
        "point_place_name": "Geisenheim",
        "wikidata_id": "Q558516",
        "source_url": "https://www.wikidata.org/wiki/Special:EntityData/Q558516.json",
        "retrieved_on": "2026-09-26",
        "license": "CC0 1.0"
      },
      "geometry": {
        "type": "Point",
        "coordinates": [
          7.9655555555555555,
          49.983125
        ]
      }
    },
    {
      "type": "Feature",
      "properties": {
        "node": "n_geo_johannisberg",
        "name": "Johannisberg",
        "point_role": "sourced gazetteer marker; not a wine-area boundary",
        "point_place_name": "Johannisberg (Geisenheim)",
        "wikidata_id": "Q1698901",
        "source_url": "https://www.wikidata.org/wiki/Special:EntityData/Q1698901.json",
        "retrieved_on": "2026-09-26",
        "license": "CC0 1.0"
      },
      "geometry": {
        "type": "Point",
        "coordinates": [
          7.97778,
          50
        ]
      }
    },
    {
      "type": "Feature",
      "properties": {
        "node": "n_geo_assmannshausen",
        "name": "Assmannshausen",
        "point_role": "sourced gazetteer marker; not a wine-area boundary",
        "point_place_name": "Assmannshausen",
        "wikidata_id": "Q317535",
        "source_url": "https://www.wikidata.org/wiki/Special:EntityData/Q317535.json",
        "retrieved_on": "2026-09-26",
        "license": "CC0 1.0"
      },
      "geometry": {
        "type": "Point",
        "coordinates": [
          7.8672222222222,
          49.988055555556
        ]
      }
    },
    {
      "type": "Feature",
      "properties": {
        "node": "n_geo_scharzhofberg",
        "name": "Scharzhofberg",
        "point_role": "sourced gazetteer marker; not a wine-area boundary",
        "point_place_name": "Wiltinger Scharzhofberg",
        "wikidata_id": "Q1427553",
        "source_url": "https://www.wikidata.org/wiki/Special:EntityData/Q1427553.json",
        "retrieved_on": "2026-09-26",
        "license": "CC0 1.0"
      },
      "geometry": {
        "type": "Point",
        "coordinates": [
          6.61016,
          49.65125
        ]
      }
    },
    {
      "type": "Feature",
      "properties": {
        "node": "n_geo_bernkasteler_doctor",
        "name": "Bernkasteler Doctor",
        "point_role": "sourced gazetteer marker; not a wine-area boundary",
        "point_place_name": "Bernkasteler Doctor",
        "wikidata_id": "Q826656",
        "source_url": "https://www.wikidata.org/wiki/Special:EntityData/Q826656.json",
        "retrieved_on": "2026-09-26",
        "license": "CC0 1.0"
      },
      "geometry": {
        "type": "Point",
        "coordinates": [
          7.07833,
          49.9167
        ]
      }
    },
    {
      "type": "Feature",
      "properties": {
        "node": "n_geo_wehlener_sonnenuhr",
        "name": "Wehlener Sonnenuhr",
        "point_role": "sourced gazetteer marker; not a wine-area boundary",
        "point_place_name": "Wehlener Sonnenuhr",
        "wikidata_id": "Q1237404",
        "source_url": "https://www.wikidata.org/wiki/Special:EntityData/Q1237404.json",
        "retrieved_on": "2026-09-26",
        "license": "CC0 1.0"
      },
      "geometry": {
        "type": "Point",
        "coordinates": [
          7.04174,
          49.9478
        ]
      }
    },
    {
      "type": "Feature",
      "properties": {
        "node": "n_geo_piesporter_goldtroepfchen",
        "name": "Piesporter Goldtröpfchen",
        "point_role": "sourced gazetteer marker; not a wine-area boundary",
        "point_place_name": "Piesporter Goldtröpfchen",
        "wikidata_id": "Q2094130",
        "source_url": "https://www.wikidata.org/wiki/Special:EntityData/Q2094130.json",
        "retrieved_on": "2026-09-26",
        "license": "CC0 1.0"
      },
      "geometry": {
        "type": "Point",
        "coordinates": [
          6.9164,
          49.8891
        ]
      }
    },
    {
      "type": "Feature",
      "properties": {
        "node": "n_geo_neusiedlersee",
        "name": "Neusiedlersee",
        "point_role": "sourced gazetteer marker; not a wine-area boundary",
        "point_place_name": "Gols",
        "wikidata_id": "Q670770",
        "source_url": "https://www.wikidata.org/wiki/Special:EntityData/Q670770.json",
        "retrieved_on": "2026-09-26",
        "license": "CC0 1.0"
      },
      "geometry": {
        "type": "Point",
        "coordinates": [
          16.908888888889,
          47.897777777778
        ]
      }
    },
    {
      "type": "Feature",
      "properties": {
        "node": "n_geo_leithaberg",
        "name": "Leithaberg",
        "point_role": "sourced gazetteer marker; not a wine-area boundary",
        "point_place_name": "Eisenstadt",
        "wikidata_id": "Q126321",
        "source_url": "https://www.wikidata.org/wiki/Special:EntityData/Q126321.json",
        "retrieved_on": "2026-09-26",
        "license": "CC0 1.0"
      },
      "geometry": {
        "type": "Point",
        "coordinates": [
          16.52327,
          47.845649
        ]
      }
    },
    {
      "type": "Feature",
      "properties": {
        "node": "n_geo_eisenberg",
        "name": "Eisenberg",
        "point_role": "sourced gazetteer marker; not a wine-area boundary",
        "point_place_name": "Deutsch Schützen-Eisenberg",
        "wikidata_id": "Q240653",
        "source_url": "https://www.wikidata.org/wiki/Special:EntityData/Q240653.json",
        "retrieved_on": "2026-09-26",
        "license": "CC0 1.0"
      },
      "geometry": {
        "type": "Point",
        "coordinates": [
          16.433333333333,
          47.166666666667
        ]
      }
    },
    {
      "type": "Feature",
      "properties": {
        "node": "n_geo_rosalia",
        "name": "Rosalia",
        "point_role": "sourced gazetteer marker; not a wine-area boundary",
        "point_place_name": "Mattersburg",
        "wikidata_id": "Q250832",
        "source_url": "https://www.wikidata.org/wiki/Special:EntityData/Q250832.json",
        "retrieved_on": "2026-09-26",
        "license": "CC0 1.0"
      },
      "geometry": {
        "type": "Point",
        "coordinates": [
          16.396944444444,
          47.738055555556
        ]
      }
    },
    {
      "type": "Feature",
      "properties": {
        "node": "n_geo_weststeiermark",
        "name": "Weststeiermark",
        "point_role": "sourced gazetteer marker; not a wine-area boundary",
        "point_place_name": "Deutschlandsberg",
        "wikidata_id": "Q573106",
        "source_url": "https://www.wikidata.org/wiki/Special:EntityData/Q573106.json",
        "retrieved_on": "2026-09-26",
        "license": "CC0 1.0"
      },
      "geometry": {
        "type": "Point",
        "coordinates": [
          15.215,
          46.816111111111
        ]
      }
    },
    {
      "type": "Feature",
      "properties": {
        "node": "n_geo_vulkanland_steiermark",
        "name": "Vulkanland Steiermark",
        "point_role": "sourced gazetteer marker; not a wine-area boundary",
        "point_place_name": "Bad Gleichenberg",
        "wikidata_id": "Q693550",
        "source_url": "https://www.wikidata.org/wiki/Special:EntityData/Q693550.json",
        "retrieved_on": "2026-09-26",
        "license": "CC0 1.0"
      },
      "geometry": {
        "type": "Point",
        "coordinates": [
          15.9027,
          46.8702
        ]
      }
    },
    {
      "type": "Feature",
      "properties": {
        "node": "n_geo_rust",
        "name": "Rust",
        "point_role": "sourced gazetteer marker; not a wine-area boundary",
        "point_place_name": "Rust, Burgenland",
        "wikidata_id": "Q259214",
        "source_url": "https://www.wikidata.org/wiki/Special:EntityData/Q259214.json",
        "retrieved_on": "2026-09-26",
        "license": "CC0 1.0"
      },
      "geometry": {
        "type": "Point",
        "coordinates": [
          16.675833333333,
          47.800833333333
        ]
      }
    },
    {
      "type": "Feature",
      "properties": {
        "node": "n_geo_neusiedlersee_dac",
        "name": "Neusiedlersee DAC",
        "point_role": "sourced gazetteer marker; not a wine-area boundary",
        "point_place_name": "Gols",
        "wikidata_id": "Q670770",
        "source_url": "https://www.wikidata.org/wiki/Special:EntityData/Q670770.json",
        "retrieved_on": "2026-09-26",
        "license": "CC0 1.0"
      },
      "geometry": {
        "type": "Point",
        "coordinates": [
          16.908888888889,
          47.897777777778
        ]
      }
    },
    {
      "type": "Feature",
      "properties": {
        "node": "n_geo_leithaberg_dac",
        "name": "Leithaberg DAC",
        "point_role": "sourced gazetteer marker; not a wine-area boundary",
        "point_place_name": "Eisenstadt",
        "wikidata_id": "Q126321",
        "source_url": "https://www.wikidata.org/wiki/Special:EntityData/Q126321.json",
        "retrieved_on": "2026-09-26",
        "license": "CC0 1.0"
      },
      "geometry": {
        "type": "Point",
        "coordinates": [
          16.52327,
          47.845649
        ]
      }
    },
    {
      "type": "Feature",
      "properties": {
        "node": "n_geo_eisenberg_dac",
        "name": "Eisenberg DAC",
        "point_role": "sourced gazetteer marker; not a wine-area boundary",
        "point_place_name": "Deutsch Schützen-Eisenberg",
        "wikidata_id": "Q240653",
        "source_url": "https://www.wikidata.org/wiki/Special:EntityData/Q240653.json",
        "retrieved_on": "2026-09-26",
        "license": "CC0 1.0"
      },
      "geometry": {
        "type": "Point",
        "coordinates": [
          16.433333333333,
          47.166666666667
        ]
      }
    },
    {
      "type": "Feature",
      "properties": {
        "node": "n_geo_rosalia_dac",
        "name": "Rosalia DAC",
        "point_role": "sourced gazetteer marker; not a wine-area boundary",
        "point_place_name": "Mattersburg",
        "wikidata_id": "Q250832",
        "source_url": "https://www.wikidata.org/wiki/Special:EntityData/Q250832.json",
        "retrieved_on": "2026-09-26",
        "license": "CC0 1.0"
      },
      "geometry": {
        "type": "Point",
        "coordinates": [
          16.396944444444,
          47.738055555556
        ]
      }
    },
    {
      "type": "Feature",
      "properties": {
        "node": "n_geo_ruster_ausbruch_dac",
        "name": "Ruster Ausbruch DAC",
        "point_role": "sourced gazetteer marker; not a wine-area boundary",
        "point_place_name": "Rust, Burgenland",
        "wikidata_id": "Q259214",
        "source_url": "https://www.wikidata.org/wiki/Special:EntityData/Q259214.json",
        "retrieved_on": "2026-09-26",
        "license": "CC0 1.0"
      },
      "geometry": {
        "type": "Point",
        "coordinates": [
          16.675833333333,
          47.800833333333
        ]
      }
    },
    {
      "type": "Feature",
      "properties": {
        "node": "n_geo_weststeiermark_dac",
        "name": "Weststeiermark DAC",
        "point_role": "sourced gazetteer marker; not a wine-area boundary",
        "point_place_name": "Deutschlandsberg",
        "wikidata_id": "Q573106",
        "source_url": "https://www.wikidata.org/wiki/Special:EntityData/Q573106.json",
        "retrieved_on": "2026-09-26",
        "license": "CC0 1.0"
      },
      "geometry": {
        "type": "Point",
        "coordinates": [
          15.215,
          46.816111111111
        ]
      }
    },
    {
      "type": "Feature",
      "properties": {
        "node": "n_geo_vulkanland_steiermark_dac",
        "name": "Vulkanland Steiermark DAC",
        "point_role": "sourced gazetteer marker; not a wine-area boundary",
        "point_place_name": "Bad Gleichenberg",
        "wikidata_id": "Q693550",
        "source_url": "https://www.wikidata.org/wiki/Special:EntityData/Q693550.json",
        "retrieved_on": "2026-09-26",
        "license": "CC0 1.0"
      },
      "geometry": {
        "type": "Point",
        "coordinates": [
          15.9027,
          46.8702
        ]
      }
    },
    {
      "type": "Feature",
      "properties": {
        "node": "n_geo_suedsteiermark_dac",
        "name": "Südsteiermark DAC",
        "point_role": "sourced gazetteer marker; not a wine-area boundary",
        "point_place_name": "Gamlitz",
        "wikidata_id": "Q672576",
        "source_url": "https://www.wikidata.org/wiki/Special:EntityData/Q672576.json",
        "retrieved_on": "2026-09-26",
        "license": "CC0 1.0"
      },
      "geometry": {
        "type": "Point",
        "coordinates": [
          15.553333333333,
          46.720277777778
        ]
      }
    },
    {
      "type": "Feature",
      "properties": {
        "node": "n_geo_villany",
        "name": "Villány",
        "point_role": "sourced gazetteer marker; not a wine-area boundary",
        "point_place_name": "Villány",
        "wikidata_id": "Q657642",
        "source_url": "https://www.wikidata.org/wiki/Special:EntityData/Q657642.json",
        "retrieved_on": "2026-09-26",
        "license": "CC0 1.0"
      },
      "geometry": {
        "type": "Point",
        "coordinates": [
          18.455555555556,
          45.869444444444
        ]
      }
    },
    {
      "type": "Feature",
      "properties": {
        "node": "n_geo_eger",
        "name": "Eger",
        "point_role": "sourced gazetteer marker; not a wine-area boundary",
        "point_place_name": "Eger",
        "wikidata_id": "Q167109",
        "source_url": "https://www.wikidata.org/wiki/Special:EntityData/Q167109.json",
        "retrieved_on": "2026-09-26",
        "license": "CC0 1.0"
      },
      "geometry": {
        "type": "Point",
        "coordinates": [
          20.374722222222,
          47.898888888889
        ]
      }
    },
    {
      "type": "Feature",
      "properties": {
        "node": "n_geo_somlo",
        "name": "Somló",
        "point_role": "sourced gazetteer marker; not a wine-area boundary",
        "point_place_name": "Somló",
        "wikidata_id": "Q1151541",
        "source_url": "https://www.wikidata.org/wiki/Special:EntityData/Q1151541.json",
        "retrieved_on": "2026-09-26",
        "license": "CC0 1.0"
      },
      "geometry": {
        "type": "Point",
        "coordinates": [
          17.37018,
          47.14706
        ]
      }
    },
    {
      "type": "Feature",
      "properties": {
        "node": "n_geo_szekszard",
        "name": "Szekszárd",
        "point_role": "sourced gazetteer marker; not a wine-area boundary",
        "point_place_name": "Szekszárd",
        "wikidata_id": "Q189761",
        "source_url": "https://www.wikidata.org/wiki/Special:EntityData/Q189761.json",
        "retrieved_on": "2026-09-26",
        "license": "CC0 1.0"
      },
      "geometry": {
        "type": "Point",
        "coordinates": [
          18.703888888889,
          46.355833333333
        ]
      }
    },
    {
      "type": "Feature",
      "properties": {
        "node": "n_geo_badacsony",
        "name": "Badacsony",
        "point_role": "sourced gazetteer marker; not a wine-area boundary",
        "point_place_name": "Badacsony",
        "wikidata_id": "Q642172",
        "source_url": "https://www.wikidata.org/wiki/Special:EntityData/Q642172.json",
        "retrieved_on": "2026-09-26",
        "license": "CC0 1.0"
      },
      "geometry": {
        "type": "Point",
        "coordinates": [
          17.495837,
          46.80351
        ]
      }
    },
    {
      "type": "Feature",
      "properties": {
        "node": "n_geo_balatonfured_csopak",
        "name": "Balatonfüred-Csopak",
        "point_role": "sourced gazetteer marker; not a wine-area boundary",
        "point_place_name": "Balatonfüred",
        "wikidata_id": "Q680743",
        "source_url": "https://www.wikidata.org/wiki/Special:EntityData/Q680743.json",
        "retrieved_on": "2026-09-26",
        "license": "CC0 1.0"
      },
      "geometry": {
        "type": "Point",
        "coordinates": [
          17.883333333333,
          46.95
        ]
      }
    },
    {
      "type": "Feature",
      "properties": {
        "node": "n_geo_sopron",
        "name": "Sopron",
        "point_role": "sourced gazetteer marker; not a wine-area boundary",
        "point_place_name": "Sopron",
        "wikidata_id": "Q168648",
        "source_url": "https://www.wikidata.org/wiki/Special:EntityData/Q168648.json",
        "retrieved_on": "2026-09-26",
        "license": "CC0 1.0"
      },
      "geometry": {
        "type": "Point",
        "coordinates": [
          16.583333333333,
          47.683333333333
        ]
      }
    }
  ]
}
