{
  "type": "FeatureCollection",
  "features": [
    {
      "type": "Feature",
      "properties": {
        "node": "n_geo_ningxia",
        "name": "Ningxia",
        "point_role": "sourced administrative gazetteer marker; not a wine-area boundary",
        "point_place_name": "Ningxia",
        "wikidata_id": "Q57448",
        "wikidata_revision": 2535502169,
        "wikidata_statement_id": "q57448$E11199E1-A059-42BF-945F-9089F66F3B82",
        "coordinate_precision": null,
        "source_url": "https://www.wikidata.org/wiki/Special:EntityData/Q57448.json",
        "retrieved_on": "2026-09-26",
        "license": "CC0 1.0"
      },
      "geometry": {
        "type": "Point",
        "coordinates": [
          106.27056,
          38.46654
        ]
      }
    },
    {
      "type": "Feature",
      "properties": {
        "node": "n_geo_shandong",
        "name": "Shandong",
        "point_role": "sourced administrative gazetteer marker; not a wine-area boundary",
        "point_place_name": "Shandong",
        "wikidata_id": "Q43407",
        "wikidata_revision": 2548837613,
        "wikidata_statement_id": "q43407$1CE2B3E6-2756-4FC1-B3AB-3EA04A95A773",
        "coordinate_precision": 0.1,
        "source_url": "https://www.wikidata.org/wiki/Special:EntityData/Q43407.json",
        "retrieved_on": "2026-09-26",
        "license": "CC0 1.0"
      },
      "geometry": {
        "type": "Point",
        "coordinates": [
          118.4,
          36.4
        ]
      }
    },
    {
      "type": "Feature",
      "properties": {
        "node": "n_geo_hebei",
        "name": "Hebei",
        "point_role": "sourced administrative gazetteer marker; not a wine-area boundary",
        "point_place_name": "Hebei",
        "wikidata_id": "Q21208",
        "wikidata_revision": 2541882132,
        "wikidata_statement_id": "q21208$2FE60457-8046-42AA-B617-B858FA87B469",
        "coordinate_precision": 0.00027777777777778,
        "source_url": "https://www.wikidata.org/wiki/Special:EntityData/Q21208.json",
        "retrieved_on": "2026-09-26",
        "license": "CC0 1.0"
      },
      "geometry": {
        "type": "Point",
        "coordinates": [
          114.50861111111,
          38.042222222222
        ]
      }
    },
    {
      "type": "Feature",
      "properties": {
        "node": "n_geo_xinjiang",
        "name": "Xinjiang",
        "point_role": "sourced administrative gazetteer marker; not a wine-area boundary",
        "point_place_name": "Xinjiang",
        "wikidata_id": "Q34800",
        "wikidata_revision": 2547886485,
        "wikidata_statement_id": "q34800$034EBC9C-C69B-46A4-B05C-4A694CFF7A88",
        "coordinate_precision": null,
        "source_url": "https://www.wikidata.org/wiki/Special:EntityData/Q34800.json",
        "retrieved_on": "2026-09-26",
        "license": "CC0 1.0"
      },
      "geometry": {
        "type": "Point",
        "coordinates": [
          87.61379,
          43.8253
        ]
      }
    },
    {
      "type": "Feature",
      "properties": {
        "node": "n_geo_yunnan",
        "name": "Yunnan",
        "point_role": "sourced administrative gazetteer marker; not a wine-area boundary",
        "point_place_name": "Yunnan",
        "wikidata_id": "Q43194",
        "wikidata_revision": 2535498282,
        "wikidata_statement_id": "q43194$A0FBD3A1-E11D-481E-81C6-AF7FE5283954",
        "coordinate_precision": 0.0002777777777777778,
        "source_url": "https://www.wikidata.org/wiki/Special:EntityData/Q43194.json",
        "retrieved_on": "2026-09-26",
        "license": "CC0 1.0"
      },
      "geometry": {
        "type": "Point",
        "coordinates": [
          102.7088888888889,
          25.049444444444443
        ]
      }
    },
    {
      "type": "Feature",
      "properties": {
        "node": "n_geo_helan_mountain_eastern_foothills",
        "name": "Helan Mountain eastern foothills",
        "point_role": "sourced wine-cluster town reference; not a wine-area centroid or boundary",
        "point_place_name": "Zhenbeibu",
        "wikidata_id": "Q14053711",
        "wikidata_revision": 2523451554,
        "wikidata_statement_id": "Q14053711$1c3eb022-c7c8-43a5-96f2-0775776f31ab",
        "coordinate_precision": 0.0001,
        "source_url": "https://www.wikidata.org/wiki/Special:EntityData/Q14053711.json",
        "retrieved_on": "2026-09-26",
        "license": "CC0 1.0"
      },
      "geometry": {
        "type": "Point",
        "coordinates": [
          106.0669,
          38.6275
        ]
      }
    },
    {
      "type": "Feature",
      "properties": {
        "node": "n_geo_yantai",
        "name": "Yantai",
        "point_role": "sourced administrative gazetteer marker; not a wine-area boundary",
        "point_place_name": "Yantai",
        "wikidata_id": "Q210493",
        "wikidata_revision": 2526608854,
        "wikidata_statement_id": "Q210493$6f0f4211-4bd2-b7d4-4a95-13e73be0437f",
        "coordinate_precision": 0.000277778,
        "source_url": "https://www.wikidata.org/wiki/Special:EntityData/Q210493.json",
        "retrieved_on": "2026-09-26",
        "license": "CC0 1.0"
      },
      "geometry": {
        "type": "Point",
        "coordinates": [
          121.44777777777777,
          37.464444444444446
        ]
      }
    },
    {
      "type": "Feature",
      "properties": {
        "node": "n_geo_huailai",
        "name": "Huailai",
        "point_role": "sourced administrative gazetteer marker; not a wine-area boundary",
        "point_place_name": "Huailai County",
        "wikidata_id": "Q1197061",
        "wikidata_revision": 2526577303,
        "wikidata_statement_id": "q1197061$83D5773A-004F-4C4A-B35F-E50D8041CAF7",
        "coordinate_precision": null,
        "source_url": "https://www.wikidata.org/wiki/Special:EntityData/Q1197061.json",
        "retrieved_on": "2026-09-26",
        "license": "CC0 1.0"
      },
      "geometry": {
        "type": "Point",
        "coordinates": [
          115.51688,
          40.4048
        ]
      }
    }
  ]
}
