{
  "type": "FeatureCollection",
  "features": [
    {
      "type": "Feature",
      "properties": {
        "node": "n_geo_danubian_plain_bg",
        "name": "Danubian Plain (Bulgaria)",
        "point_role": "qualified named-settlement orientation reference; not a wine-area boundary",
        "point_place_name": "Pleven",
        "point_note": "Pleven is a named town in the PGI locality list, not the PGI centroid or boundary.",
        "geonames_id": "728203",
        "source_url": "https://www.geonames.org/728203",
        "source_country_dump": "BG.zip",
        "retrieved_on": "2026-09-28",
        "license": "CC BY 4.0"
      },
      "geometry": {
        "type": "Point",
        "coordinates": [
          24.61666,
          43.41791
        ]
      }
    },
    {
      "type": "Feature",
      "properties": {
        "node": "n_geo_thracian_lowlands_bg",
        "name": "Thracian Lowlands",
        "point_role": "qualified named-settlement orientation reference; not a wine-area boundary",
        "point_place_name": "Plovdiv",
        "point_note": "Plovdiv is a southern Bulgarian city reference, not the PGI centroid or boundary.",
        "geonames_id": "728193",
        "source_url": "https://www.geonames.org/728193",
        "source_country_dump": "BG.zip",
        "retrieved_on": "2026-09-28",
        "license": "CC BY 4.0"
      },
      "geometry": {
        "type": "Point",
        "coordinates": [
          24.75001,
          42.15387
        ]
      }
    },
    {
      "type": "Feature",
      "properties": {
        "node": "n_geo_melnik_pdo",
        "name": "Melnik (Bulgaria)",
        "point_role": "qualified named-settlement orientation reference; not a wine-area boundary",
        "point_place_name": "Sandanski",
        "point_note": "Sandanski appears in the Melnik PDO locality list; this town marker is not the PDO centroid or boundary.",
        "geonames_id": "727447",
        "source_url": "https://www.geonames.org/727447",
        "source_country_dump": "BG.zip",
        "retrieved_on": "2026-09-28",
        "license": "CC BY 4.0"
      },
      "geometry": {
        "type": "Point",
        "coordinates": [
          23.28333,
          41.56667
        ]
      }
    },
    {
      "type": "Feature",
      "properties": {
        "node": "n_geo_lyubimets_pdo",
        "name": "Lyubimets",
        "point_role": "qualified named-settlement orientation reference; not a wine-area boundary",
        "point_place_name": "Lyubimets",
        "point_note": "Lyubimets is a named settlement reference, not the PDO centroid or boundary.",
        "geonames_id": "729466",
        "source_url": "https://www.geonames.org/729466",
        "source_country_dump": "BG.zip",
        "retrieved_on": "2026-09-28",
        "license": "CC BY 4.0"
      },
      "geometry": {
        "type": "Point",
        "coordinates": [
          26.08115,
          41.84432
        ]
      }
    },
    {
      "type": "Feature",
      "properties": {
        "node": "n_geo_tarnave",
        "name": "Târnave",
        "point_role": "qualified named-settlement orientation reference; not a wine-area boundary",
        "point_place_name": "Mediaş",
        "point_note": "Mediaș is a Târnave subdesignation and reference town, not the DOC centroid or boundary.",
        "geonames_id": "673634",
        "source_url": "https://www.geonames.org/673634",
        "source_country_dump": "RO.zip",
        "retrieved_on": "2026-09-28",
        "license": "CC BY 4.0"
      },
      "geometry": {
        "type": "Point",
        "coordinates": [
          24.35,
          46.16667
        ]
      }
    },
    {
      "type": "Feature",
      "properties": {
        "node": "n_geo_cotnari",
        "name": "Cotnari",
        "point_role": "qualified named-settlement orientation reference; not a wine-area boundary",
        "point_place_name": "Cotnari",
        "point_note": "Cotnari is a settlement reference, not the DOC centroid or boundary.",
        "geonames_id": "680491",
        "source_url": "https://www.geonames.org/680491",
        "source_country_dump": "RO.zip",
        "retrieved_on": "2026-09-28",
        "license": "CC BY 4.0"
      },
      "geometry": {
        "type": "Point",
        "coordinates": [
          26.98333,
          47.35
        ]
      }
    },
    {
      "type": "Feature",
      "properties": {
        "node": "n_geo_dealu_mare",
        "name": "Dealu Mare",
        "point_role": "qualified named-settlement orientation reference; not a wine-area boundary",
        "point_place_name": "Urlaţi",
        "point_note": "Urlați is a Dealu Mare subdesignation and reference town, not the DOC centroid or boundary.",
        "geonames_id": "664150",
        "source_url": "https://www.geonames.org/664150",
        "source_country_dump": "RO.zip",
        "retrieved_on": "2026-09-28",
        "license": "CC BY 4.0"
      },
      "geometry": {
        "type": "Point",
        "coordinates": [
          26.23333,
          44.98333
        ]
      }
    },
    {
      "type": "Feature",
      "properties": {
        "node": "n_geo_murfatlar",
        "name": "Murfatlar",
        "point_role": "qualified named-settlement orientation reference; not a wine-area boundary",
        "point_place_name": "Murfatlar",
        "point_note": "Murfatlar is a settlement reference, not the DOC centroid or boundary.",
        "geonames_id": "672620",
        "source_url": "https://www.geonames.org/672620",
        "source_country_dump": "RO.zip",
        "retrieved_on": "2026-09-28",
        "license": "CC BY 4.0"
      },
      "geometry": {
        "type": "Point",
        "coordinates": [
          28.41667,
          44.18333
        ]
      }
    },
    {
      "type": "Feature",
      "properties": {
        "node": "n_geo_recas",
        "name": "Recaș",
        "point_role": "qualified named-settlement orientation reference; not a wine-area boundary",
        "point_place_name": "Recaş",
        "point_note": "Recaș is a settlement reference, not the DOC centroid or boundary.",
        "geonames_id": "669058",
        "source_url": "https://www.geonames.org/669058",
        "source_country_dump": "RO.zip",
        "retrieved_on": "2026-09-28",
        "license": "CC BY 4.0"
      },
      "geometry": {
        "type": "Point",
        "coordinates": [
          21.50083,
          45.79889
        ]
      }
    }
  ]
}
