{
  "type": "FeatureCollection",
  "features": [
    {
      "type": "Feature",
      "properties": {
        "node": "n_geo_cheverny",
        "node_id": "n_geo_cheverny",
        "name": "Cheverny",
        "parent_node_id": "n_geo_loire_valley",
        "country_node_id": "n_geo_france",
        "retrieved_on": "2026-09-28",
        "point_role": "qualified_municipality_orientation_reference",
        "point_place_name": "Cheverny",
        "geonames_id": "3025344",
        "geonames_feature_class": "P",
        "geonames_feature_code": "PPL",
        "source_url": "https://www.geonames.org/3025344/",
        "source_coordinate_url": "https://download.geonames.org/export/dump/FR.zip",
        "source_file_sha256": "74bcca8a36ef5da3ed9966f63fae0eb79c73ec074f8bc86ada97bc687ad47b3f",
        "license": "CC-BY-4.0",
        "attribution": "Contains GeoNames data, licensed CC BY 4.0. Named municipality references are not appellation centroids or wine boundaries.",
        "label_note": "Named reference: Cheverny municipality. The marker orients the Cheverny AOC; it is not an official appellation centroid or boundary."
      },
      "geometry": {
        "type": "Point",
        "coordinates": [1.45951, 47.50079]
      }
    },
    {
      "type": "Feature",
      "properties": {
        "node": "n_geo_orleans_aoc",
        "node_id": "n_geo_orleans_aoc",
        "name": "Orléans (AOC)",
        "parent_node_id": "n_geo_loire_valley",
        "country_node_id": "n_geo_france",
        "retrieved_on": "2026-09-28",
        "point_role": "qualified_municipality_orientation_reference",
        "point_place_name": "Orléans",
        "geonames_id": "2989317",
        "geonames_feature_class": "P",
        "geonames_feature_code": "PPLA",
        "source_url": "https://www.geonames.org/2989317/",
        "source_coordinate_url": "https://download.geonames.org/export/dump/FR.zip",
        "source_file_sha256": "74bcca8a36ef5da3ed9966f63fae0eb79c73ec074f8bc86ada97bc687ad47b3f",
        "license": "CC-BY-4.0",
        "attribution": "Contains GeoNames data, licensed CC BY 4.0. Named municipality references are not appellation centroids or wine boundaries.",
        "label_note": "Named reference: Orléans municipality. The marker orients the Orléans AOC; it is not an official appellation centroid or boundary."
      },
      "geometry": {
        "type": "Point",
        "coordinates": [1.90407, 47.90248]
      }
    },
    {
      "type": "Feature",
      "properties": {
        "node": "n_geo_saint_pourcain",
        "node_id": "n_geo_saint_pourcain",
        "name": "Saint-Pourçain",
        "parent_node_id": "n_geo_loire_valley",
        "country_node_id": "n_geo_france",
        "retrieved_on": "2026-09-28",
        "point_role": "qualified_municipality_orientation_reference",
        "point_place_name": "Saint-Pourçain-sur-Sioule",
        "geonames_id": "2977365",
        "geonames_feature_class": "P",
        "geonames_feature_code": "PPL",
        "source_url": "https://www.geonames.org/2977365/",
        "source_coordinate_url": "https://download.geonames.org/export/dump/FR.zip",
        "source_file_sha256": "74bcca8a36ef5da3ed9966f63fae0eb79c73ec074f8bc86ada97bc687ad47b3f",
        "license": "CC-BY-4.0",
        "attribution": "Contains GeoNames data, licensed CC BY 4.0. Named municipality references are not appellation centroids or wine boundaries.",
        "label_note": "Named reference: Saint-Pourçain-sur-Sioule municipality. The marker orients the Saint-Pourçain AOC; it is not an official appellation centroid or boundary."
      },
      "geometry": {
        "type": "Point",
        "coordinates": [3.28931, 46.30748]
      }
    }
  ]
}
