{
  "type": "FeatureCollection",
  "features": [
    {
      "type": "Feature",
      "properties": {
        "node": "n_geo_piedmont",
        "name": "Piedmont",
        "point_role": "gazetteer marker; not a wine-area boundary",
        "point_place_name": "Piedmont",
        "wikidata_id": "Q1216",
        "source_url": "https://www.wikidata.org/wiki/Special:EntityData/Q1216.json",
        "retrieved_on": "2026-09-26",
        "license": "CC0 1.0"
      },
      "geometry": {
        "type": "Point",
        "coordinates": [
          7.9166666666667,
          45.25
        ]
      }
    },
    {
      "type": "Feature",
      "properties": {
        "node": "n_geo_tuscany",
        "name": "Tuscany",
        "point_role": "gazetteer marker; not a wine-area boundary",
        "point_place_name": "Tuscany",
        "wikidata_id": "Q1273",
        "source_url": "https://www.wikidata.org/wiki/Special:EntityData/Q1273.json",
        "retrieved_on": "2026-09-26",
        "license": "CC0 1.0"
      },
      "geometry": {
        "type": "Point",
        "coordinates": [
          11.2,
          43.45
        ]
      }
    },
    {
      "type": "Feature",
      "properties": {
        "node": "n_geo_langhe",
        "name": "Langhe",
        "point_role": "gazetteer marker; not a wine-area boundary",
        "point_place_name": "Langhe",
        "wikidata_id": "Q19865",
        "source_url": "https://www.wikidata.org/wiki/Special:EntityData/Q19865.json",
        "retrieved_on": "2026-09-26",
        "license": "CC0 1.0"
      },
      "geometry": {
        "type": "Point",
        "coordinates": [
          7.96361,
          44.6086
        ]
      }
    },
    {
      "type": "Feature",
      "properties": {
        "node": "n_geo_barolo",
        "name": "Barolo",
        "point_role": "gazetteer marker; not a wine-area boundary",
        "point_place_name": "Barolo",
        "wikidata_id": "Q18356",
        "source_url": "https://www.wikidata.org/wiki/Special:EntityData/Q18356.json",
        "retrieved_on": "2026-09-26",
        "license": "CC0 1.0"
      },
      "geometry": {
        "type": "Point",
        "coordinates": [
          7.9333333333333,
          44.616666666667
        ]
      }
    },
    {
      "type": "Feature",
      "properties": {
        "node": "n_geo_barbaresco",
        "name": "Barbaresco",
        "point_role": "gazetteer marker; not a wine-area boundary",
        "point_place_name": "Barbaresco",
        "wikidata_id": "Q18353",
        "source_url": "https://www.wikidata.org/wiki/Special:EntityData/Q18353.json",
        "retrieved_on": "2026-09-26",
        "license": "CC0 1.0"
      },
      "geometry": {
        "type": "Point",
        "coordinates": [
          8.0833333333333,
          44.716666666667
        ]
      }
    },
    {
      "type": "Feature",
      "properties": {
        "node": "n_geo_brunello_di_montalcino",
        "name": "Brunello di Montalcino",
        "point_role": "gazetteer marker; not a wine-area boundary",
        "point_place_name": "Montalcino",
        "wikidata_id": "Q91208",
        "source_url": "https://www.wikidata.org/wiki/Special:EntityData/Q91208.json",
        "retrieved_on": "2026-09-26",
        "license": "CC0 1.0"
      },
      "geometry": {
        "type": "Point",
        "coordinates": [
          11.489166666667,
          43.059166666667
        ]
      }
    },
    {
      "type": "Feature",
      "properties": {
        "node": "n_geo_chianti_classico",
        "name": "Chianti Classico",
        "point_role": "gazetteer marker; not a wine-area boundary",
        "point_place_name": "Greve in Chianti",
        "wikidata_id": "Q82707",
        "source_url": "https://www.wikidata.org/wiki/Special:EntityData/Q82707.json",
        "retrieved_on": "2026-09-26",
        "license": "CC0 1.0"
      },
      "geometry": {
        "type": "Point",
        "coordinates": [
          11.316666666667,
          43.583333333333
        ]
      }
    },
    {
      "type": "Feature",
      "properties": {
        "node": "n_geo_ahr",
        "name": "Ahr",
        "point_role": "gazetteer marker; not a wine-area boundary",
        "point_place_name": "Bad Neuenahr-Ahrweiler",
        "wikidata_id": "Q522620",
        "source_url": "https://www.wikidata.org/wiki/Special:EntityData/Q522620.json",
        "retrieved_on": "2026-09-26",
        "license": "CC0 1.0"
      },
      "geometry": {
        "type": "Point",
        "coordinates": [
          7.1133333333333,
          50.544722222222
        ]
      }
    },
    {
      "type": "Feature",
      "properties": {
        "node": "n_geo_baden",
        "name": "Baden",
        "point_role": "gazetteer marker; not a wine-area boundary",
        "point_place_name": "Freiburg im Breisgau",
        "wikidata_id": "Q2833",
        "source_url": "https://www.wikidata.org/wiki/Special:EntityData/Q2833.json",
        "retrieved_on": "2026-09-26",
        "license": "CC0 1.0"
      },
      "geometry": {
        "type": "Point",
        "coordinates": [
          7.85,
          47.995
        ]
      }
    },
    {
      "type": "Feature",
      "properties": {
        "node": "n_geo_franken",
        "name": "Franken",
        "point_role": "gazetteer marker; not a wine-area boundary",
        "point_place_name": "Würzburg",
        "wikidata_id": "Q2999",
        "source_url": "https://www.wikidata.org/wiki/Special:EntityData/Q2999.json",
        "retrieved_on": "2026-09-26",
        "license": "CC0 1.0"
      },
      "geometry": {
        "type": "Point",
        "coordinates": [
          9.9294444444444,
          49.794444444444
        ]
      }
    },
    {
      "type": "Feature",
      "properties": {
        "node": "n_geo_hessische_bergstrasse",
        "name": "Hessische Bergstraße",
        "point_role": "gazetteer marker; not a wine-area boundary",
        "point_place_name": "Bensheim",
        "wikidata_id": "Q14872",
        "source_url": "https://www.wikidata.org/wiki/Special:EntityData/Q14872.json",
        "retrieved_on": "2026-09-26",
        "license": "CC0 1.0"
      },
      "geometry": {
        "type": "Point",
        "coordinates": [
          8.6227777777778,
          49.681111111111
        ]
      }
    },
    {
      "type": "Feature",
      "properties": {
        "node": "n_geo_mittelrhein",
        "name": "Mittelrhein",
        "point_role": "gazetteer marker; not a wine-area boundary",
        "point_place_name": "Bacharach",
        "wikidata_id": "Q523273",
        "source_url": "https://www.wikidata.org/wiki/Special:EntityData/Q523273.json",
        "retrieved_on": "2026-09-26",
        "license": "CC0 1.0"
      },
      "geometry": {
        "type": "Point",
        "coordinates": [
          7.7694444444444,
          50.061111111111
        ]
      }
    },
    {
      "type": "Feature",
      "properties": {
        "node": "n_geo_mosel",
        "name": "Mosel",
        "point_role": "gazetteer marker; not a wine-area boundary",
        "point_place_name": "Bernkastel-Kues",
        "wikidata_id": "Q155622",
        "source_url": "https://www.wikidata.org/wiki/Special:EntityData/Q155622.json",
        "retrieved_on": "2026-09-26",
        "license": "CC0 1.0"
      },
      "geometry": {
        "type": "Point",
        "coordinates": [
          7.0694444444444,
          49.916111111111
        ]
      }
    },
    {
      "type": "Feature",
      "properties": {
        "node": "n_geo_nahe",
        "name": "Nahe",
        "point_role": "gazetteer marker; not a wine-area boundary",
        "point_place_name": "Bad Kreuznach",
        "wikidata_id": "Q7047",
        "source_url": "https://www.wikidata.org/wiki/Special:EntityData/Q7047.json",
        "retrieved_on": "2026-09-26",
        "license": "CC0 1.0"
      },
      "geometry": {
        "type": "Point",
        "coordinates": [
          7.8669444444444,
          49.846944444444
        ]
      }
    },
    {
      "type": "Feature",
      "properties": {
        "node": "n_geo_pfalz",
        "name": "Pfalz",
        "point_role": "gazetteer marker; not a wine-area boundary",
        "point_place_name": "Neustadt an der Weinstraße",
        "wikidata_id": "Q4149",
        "source_url": "https://www.wikidata.org/wiki/Special:EntityData/Q4149.json",
        "retrieved_on": "2026-09-26",
        "license": "CC0 1.0"
      },
      "geometry": {
        "type": "Point",
        "coordinates": [
          8.13607,
          49.353621
        ]
      }
    },
    {
      "type": "Feature",
      "properties": {
        "node": "n_geo_rheingau",
        "name": "Rheingau",
        "point_role": "gazetteer marker; not a wine-area boundary",
        "point_place_name": "Rüdesheim am Rhein",
        "wikidata_id": "Q628118",
        "source_url": "https://www.wikidata.org/wiki/Special:EntityData/Q628118.json",
        "retrieved_on": "2026-09-26",
        "license": "CC0 1.0"
      },
      "geometry": {
        "type": "Point",
        "coordinates": [
          7.923402777777778,
          49.97902777777778
        ]
      }
    },
    {
      "type": "Feature",
      "properties": {
        "node": "n_geo_rheinhessen",
        "name": "Rheinhessen",
        "point_role": "gazetteer marker; not a wine-area boundary",
        "point_place_name": "Mainz",
        "wikidata_id": "Q1720",
        "source_url": "https://www.wikidata.org/wiki/Special:EntityData/Q1720.json",
        "retrieved_on": "2026-09-26",
        "license": "CC0 1.0"
      },
      "geometry": {
        "type": "Point",
        "coordinates": [
          8.27361111111111,
          49.99944444444444
        ]
      }
    },
    {
      "type": "Feature",
      "properties": {
        "node": "n_geo_saale_unstrut",
        "name": "Saale-Unstrut",
        "point_role": "gazetteer marker; not a wine-area boundary",
        "point_place_name": "Freyburg",
        "wikidata_id": "Q529853",
        "source_url": "https://www.wikidata.org/wiki/Special:EntityData/Q529853.json",
        "retrieved_on": "2026-09-26",
        "license": "CC0 1.0"
      },
      "geometry": {
        "type": "Point",
        "coordinates": [
          11.769722222222,
          51.212777777778
        ]
      }
    },
    {
      "type": "Feature",
      "properties": {
        "node": "n_geo_sachsen",
        "name": "Sachsen",
        "point_role": "gazetteer marker; not a wine-area boundary",
        "point_place_name": "Meissen",
        "wikidata_id": "Q8738",
        "source_url": "https://www.wikidata.org/wiki/Special:EntityData/Q8738.json",
        "retrieved_on": "2026-09-26",
        "license": "CC0 1.0"
      },
      "geometry": {
        "type": "Point",
        "coordinates": [
          13.4775,
          51.163611111111
        ]
      }
    },
    {
      "type": "Feature",
      "properties": {
        "node": "n_geo_wuerttemberg",
        "name": "Württemberg",
        "point_role": "gazetteer marker; not a wine-area boundary",
        "point_place_name": "Stuttgart",
        "wikidata_id": "Q1022",
        "source_url": "https://www.wikidata.org/wiki/Special:EntityData/Q1022.json",
        "retrieved_on": "2026-09-26",
        "license": "CC0 1.0"
      },
      "geometry": {
        "type": "Point",
        "coordinates": [
          9.18,
          48.7775
        ]
      }
    },
    {
      "type": "Feature",
      "properties": {
        "node": "n_geo_niederoesterreich",
        "name": "Niederösterreich",
        "point_role": "gazetteer marker; not a wine-area boundary",
        "point_place_name": "Lower Austria",
        "wikidata_id": "Q42497",
        "source_url": "https://www.wikidata.org/wiki/Special:EntityData/Q42497.json",
        "retrieved_on": "2026-09-26",
        "license": "CC0 1.0"
      },
      "geometry": {
        "type": "Point",
        "coordinates": [
          15.75,
          48.333333333333
        ]
      }
    },
    {
      "type": "Feature",
      "properties": {
        "node": "n_geo_burgenland",
        "name": "Burgenland",
        "point_role": "gazetteer marker; not a wine-area boundary",
        "point_place_name": "Burgenland",
        "wikidata_id": "Q43210",
        "source_url": "https://www.wikidata.org/wiki/Special:EntityData/Q43210.json",
        "retrieved_on": "2026-09-26",
        "license": "CC0 1.0"
      },
      "geometry": {
        "type": "Point",
        "coordinates": [
          16.416666666667,
          47.5
        ]
      }
    },
    {
      "type": "Feature",
      "properties": {
        "node": "n_geo_steiermark",
        "name": "Steiermark",
        "point_role": "gazetteer marker; not a wine-area boundary",
        "point_place_name": "Styria",
        "wikidata_id": "Q41358",
        "source_url": "https://www.wikidata.org/wiki/Special:EntityData/Q41358.json",
        "retrieved_on": "2026-09-26",
        "license": "CC0 1.0"
      },
      "geometry": {
        "type": "Point",
        "coordinates": [
          15.166666666667,
          47.25
        ]
      }
    },
    {
      "type": "Feature",
      "properties": {
        "node": "n_geo_wien",
        "name": "Wien",
        "point_role": "gazetteer marker; not a wine-area boundary",
        "point_place_name": "Vienna",
        "wikidata_id": "Q1741",
        "source_url": "https://www.wikidata.org/wiki/Special:EntityData/Q1741.json",
        "retrieved_on": "2026-09-26",
        "license": "CC0 1.0"
      },
      "geometry": {
        "type": "Point",
        "coordinates": [
          16.3725,
          48.208333333333336
        ]
      }
    },
    {
      "type": "Feature",
      "properties": {
        "node": "n_geo_thermenregion",
        "name": "Thermenregion",
        "point_role": "gazetteer marker; not a wine-area boundary",
        "point_place_name": "Gumpoldskirchen",
        "wikidata_id": "Q337827",
        "source_url": "https://www.wikidata.org/wiki/Special:EntityData/Q337827.json",
        "retrieved_on": "2026-09-26",
        "license": "CC0 1.0"
      },
      "geometry": {
        "type": "Point",
        "coordinates": [
          16.280277777778,
          48.044166666667
        ]
      }
    },
    {
      "type": "Feature",
      "properties": {
        "node": "n_geo_kremstal",
        "name": "Kremstal",
        "point_role": "gazetteer marker; not a wine-area boundary",
        "point_place_name": "Krems an der Donau",
        "wikidata_id": "Q131266",
        "source_url": "https://www.wikidata.org/wiki/Special:EntityData/Q131266.json",
        "retrieved_on": "2026-09-26",
        "license": "CC0 1.0"
      },
      "geometry": {
        "type": "Point",
        "coordinates": [
          15.616666666667,
          48.416666666667
        ]
      }
    },
    {
      "type": "Feature",
      "properties": {
        "node": "n_geo_kamptal",
        "name": "Kamptal",
        "point_role": "gazetteer marker; not a wine-area boundary",
        "point_place_name": "Langenlois",
        "wikidata_id": "Q672511",
        "source_url": "https://www.wikidata.org/wiki/Special:EntityData/Q672511.json",
        "retrieved_on": "2026-09-26",
        "license": "CC0 1.0"
      },
      "geometry": {
        "type": "Point",
        "coordinates": [
          15.683333333333,
          48.466666666667
        ]
      }
    },
    {
      "type": "Feature",
      "properties": {
        "node": "n_geo_wagram",
        "name": "Wagram",
        "point_role": "gazetteer marker; not a wine-area boundary",
        "point_place_name": "Kirchberg am Wagram",
        "wikidata_id": "Q674246",
        "source_url": "https://www.wikidata.org/wiki/Special:EntityData/Q674246.json",
        "retrieved_on": "2026-09-26",
        "license": "CC0 1.0"
      },
      "geometry": {
        "type": "Point",
        "coordinates": [
          15.898055555556,
          48.430277777778
        ]
      }
    },
    {
      "type": "Feature",
      "properties": {
        "node": "n_geo_traisental",
        "name": "Traisental",
        "point_role": "gazetteer marker; not a wine-area boundary",
        "point_place_name": "Traismauer",
        "wikidata_id": "Q305159",
        "source_url": "https://www.wikidata.org/wiki/Special:EntityData/Q305159.json",
        "retrieved_on": "2026-09-26",
        "license": "CC0 1.0"
      },
      "geometry": {
        "type": "Point",
        "coordinates": [
          15.733055555556,
          48.333333333333
        ]
      }
    },
    {
      "type": "Feature",
      "properties": {
        "node": "n_geo_carnuntum",
        "name": "Carnuntum",
        "point_role": "gazetteer marker; not a wine-area boundary",
        "point_place_name": "Petronell-Carnuntum",
        "wikidata_id": "Q585533",
        "source_url": "https://www.wikidata.org/wiki/Special:EntityData/Q585533.json",
        "retrieved_on": "2026-09-26",
        "license": "CC0 1.0"
      },
      "geometry": {
        "type": "Point",
        "coordinates": [
          16.865833333333,
          48.114722222222
        ]
      }
    },
    {
      "type": "Feature",
      "properties": {
        "node": "n_geo_wachau",
        "name": "Wachau",
        "point_role": "gazetteer marker; not a wine-area boundary",
        "point_place_name": "Wachau",
        "wikidata_id": "Q192201",
        "source_url": "https://www.wikidata.org/wiki/Special:EntityData/Q192201.json",
        "retrieved_on": "2026-09-26",
        "license": "CC0 1.0"
      },
      "geometry": {
        "type": "Point",
        "coordinates": [
          15.43417,
          48.36444
        ]
      }
    },
    {
      "type": "Feature",
      "properties": {
        "node": "n_geo_weinviertel",
        "name": "Weinviertel",
        "point_role": "gazetteer marker; not a wine-area boundary",
        "point_place_name": "Poysdorf",
        "wikidata_id": "Q661260",
        "source_url": "https://www.wikidata.org/wiki/Special:EntityData/Q661260.json",
        "retrieved_on": "2026-09-26",
        "license": "CC0 1.0"
      },
      "geometry": {
        "type": "Point",
        "coordinates": [
          16.633333333333,
          48.666666666667
        ]
      }
    },
    {
      "type": "Feature",
      "properties": {
        "node": "n_geo_suedsteiermark",
        "name": "Südsteiermark",
        "point_role": "gazetteer marker; not a wine-area boundary",
        "point_place_name": "Gamlitz",
        "wikidata_id": "Q672576",
        "source_url": "https://www.wikidata.org/wiki/Special:EntityData/Q672576.json",
        "retrieved_on": "2026-09-26",
        "license": "CC0 1.0"
      },
      "geometry": {
        "type": "Point",
        "coordinates": [
          15.553333333333,
          46.720277777778
        ]
      }
    },
    {
      "type": "Feature",
      "properties": {
        "node": "n_geo_weinviertel_dac",
        "name": "Weinviertel DAC",
        "point_role": "gazetteer marker; not a wine-area boundary",
        "point_place_name": "Poysdorf",
        "wikidata_id": "Q661260",
        "source_url": "https://www.wikidata.org/wiki/Special:EntityData/Q661260.json",
        "retrieved_on": "2026-09-26",
        "license": "CC0 1.0"
      },
      "geometry": {
        "type": "Point",
        "coordinates": [
          16.633333333333,
          48.666666666667
        ]
      }
    },
    {
      "type": "Feature",
      "properties": {
        "node": "n_geo_kamptal_dac",
        "name": "Kamptal DAC",
        "point_role": "gazetteer marker; not a wine-area boundary",
        "point_place_name": "Langenlois",
        "wikidata_id": "Q672511",
        "source_url": "https://www.wikidata.org/wiki/Special:EntityData/Q672511.json",
        "retrieved_on": "2026-09-26",
        "license": "CC0 1.0"
      },
      "geometry": {
        "type": "Point",
        "coordinates": [
          15.683333333333,
          48.466666666667
        ]
      }
    },
    {
      "type": "Feature",
      "properties": {
        "node": "n_geo_mittelburgenland",
        "name": "Mittelburgenland",
        "point_role": "gazetteer marker; not a wine-area boundary",
        "point_place_name": "Deutschkreutz",
        "wikidata_id": "Q41945",
        "source_url": "https://www.wikidata.org/wiki/Special:EntityData/Q41945.json",
        "retrieved_on": "2026-09-26",
        "license": "CC0 1.0"
      },
      "geometry": {
        "type": "Point",
        "coordinates": [
          16.628055555556,
          47.601666666667
        ]
      }
    },
    {
      "type": "Feature",
      "properties": {
        "node": "n_geo_mittelburgenland_dac",
        "name": "Mittelburgenland DAC",
        "point_role": "gazetteer marker; not a wine-area boundary",
        "point_place_name": "Deutschkreutz",
        "wikidata_id": "Q41945",
        "source_url": "https://www.wikidata.org/wiki/Special:EntityData/Q41945.json",
        "retrieved_on": "2026-09-26",
        "license": "CC0 1.0"
      },
      "geometry": {
        "type": "Point",
        "coordinates": [
          16.628055555556,
          47.601666666667
        ]
      }
    },
    {
      "type": "Feature",
      "properties": {
        "node": "n_geo_valais",
        "name": "Valais",
        "point_role": "gazetteer marker; not a wine-area boundary",
        "point_place_name": "Valais",
        "wikidata_id": "Q834",
        "source_url": "https://www.wikidata.org/wiki/Special:EntityData/Q834.json",
        "retrieved_on": "2026-09-26",
        "license": "CC0 1.0"
      },
      "geometry": {
        "type": "Point",
        "coordinates": [
          7.5,
          46.275
        ]
      }
    },
    {
      "type": "Feature",
      "properties": {
        "node": "n_geo_vaud",
        "name": "Vaud",
        "point_role": "gazetteer marker; not a wine-area boundary",
        "point_place_name": "Vaud",
        "wikidata_id": "Q12771",
        "source_url": "https://www.wikidata.org/wiki/Special:EntityData/Q12771.json",
        "retrieved_on": "2026-09-26",
        "license": "CC0 1.0"
      },
      "geometry": {
        "type": "Point",
        "coordinates": [
          6.55,
          46.6
        ]
      }
    },
    {
      "type": "Feature",
      "properties": {
        "node": "n_geo_geneva",
        "name": "Geneva",
        "point_role": "gazetteer marker; not a wine-area boundary",
        "point_place_name": "Canton of Geneva",
        "wikidata_id": "Q11917",
        "source_url": "https://www.wikidata.org/wiki/Special:EntityData/Q11917.json",
        "retrieved_on": "2026-09-26",
        "license": "CC0 1.0"
      },
      "geometry": {
        "type": "Point",
        "coordinates": [
          6.166,
          46.218
        ]
      }
    },
    {
      "type": "Feature",
      "properties": {
        "node": "n_geo_ticino",
        "name": "Ticino",
        "point_role": "gazetteer marker; not a wine-area boundary",
        "point_place_name": "Ticino",
        "wikidata_id": "Q12724",
        "source_url": "https://www.wikidata.org/wiki/Special:EntityData/Q12724.json",
        "retrieved_on": "2026-09-26",
        "license": "CC0 1.0"
      },
      "geometry": {
        "type": "Point",
        "coordinates": [
          8.8166666666667,
          46.316666666667
        ]
      }
    },
    {
      "type": "Feature",
      "properties": {
        "node": "n_geo_lavaux",
        "name": "Lavaux",
        "point_role": "gazetteer marker; not a wine-area boundary",
        "point_place_name": "Lavaux",
        "wikidata_id": "Q688060",
        "source_url": "https://www.wikidata.org/wiki/Special:EntityData/Q688060.json",
        "retrieved_on": "2026-09-26",
        "license": "CC0 1.0"
      },
      "geometry": {
        "type": "Point",
        "coordinates": [
          6.7461111111111,
          46.491944444444
        ]
      }
    },
    {
      "type": "Feature",
      "properties": {
        "node": "n_geo_la_cote",
        "name": "La Côte",
        "point_role": "gazetteer marker; not a wine-area boundary",
        "point_place_name": "Rolle",
        "wikidata_id": "Q69570",
        "source_url": "https://www.wikidata.org/wiki/Special:EntityData/Q69570.json",
        "retrieved_on": "2026-09-26",
        "license": "CC0 1.0"
      },
      "geometry": {
        "type": "Point",
        "coordinates": [
          6.33167,
          46.45755
        ]
      }
    },
    {
      "type": "Feature",
      "properties": {
        "node": "n_geo_chablais_vaud",
        "name": "Chablais (Vaud)",
        "point_role": "gazetteer marker; not a wine-area boundary",
        "point_place_name": "Aigle",
        "wikidata_id": "Q43195",
        "source_url": "https://www.wikidata.org/wiki/Special:EntityData/Q43195.json",
        "retrieved_on": "2026-09-26",
        "license": "CC0 1.0"
      },
      "geometry": {
        "type": "Point",
        "coordinates": [
          6.9646,
          46.3173
        ]
      }
    },
    {
      "type": "Feature",
      "properties": {
        "node": "n_geo_tokaj",
        "name": "Tokaj",
        "point_role": "gazetteer marker; not a wine-area boundary",
        "point_place_name": "Tokaj",
        "wikidata_id": "Q582209",
        "source_url": "https://www.wikidata.org/wiki/Special:EntityData/Q582209.json",
        "retrieved_on": "2026-09-26",
        "license": "CC0 1.0"
      },
      "geometry": {
        "type": "Point",
        "coordinates": [
          21.41,
          48.12
        ]
      }
    },
    {
      "type": "Feature",
      "properties": {
        "node": "n_geo_peloponnese",
        "name": "Peloponnese",
        "point_role": "gazetteer marker; not a wine-area boundary",
        "point_place_name": "Peloponnese",
        "wikidata_id": "Q78967",
        "source_url": "https://www.wikidata.org/wiki/Special:EntityData/Q78967.json",
        "retrieved_on": "2026-09-26",
        "license": "CC0 1.0"
      },
      "geometry": {
        "type": "Point",
        "coordinates": [
          22.3,
          37.4
        ]
      }
    },
    {
      "type": "Feature",
      "properties": {
        "node": "n_geo_macedonia",
        "name": "Macedonia (Greece)",
        "point_role": "gazetteer marker; not a wine-area boundary",
        "point_place_name": "Macedonia (Greece)",
        "wikidata_id": "Q81734",
        "source_url": "https://www.wikidata.org/wiki/Special:EntityData/Q81734.json",
        "retrieved_on": "2026-09-26",
        "license": "CC0 1.0"
      },
      "geometry": {
        "type": "Point",
        "coordinates": [
          22.89972222,
          40.75
        ]
      }
    },
    {
      "type": "Feature",
      "properties": {
        "node": "n_geo_cyclades",
        "name": "Cyclades",
        "point_role": "gazetteer marker; not a wine-area boundary",
        "point_place_name": "Cyclades",
        "wikidata_id": "Q171132",
        "source_url": "https://www.wikidata.org/wiki/Special:EntityData/Q171132.json",
        "retrieved_on": "2026-09-26",
        "license": "CC0 1.0"
      },
      "geometry": {
        "type": "Point",
        "coordinates": [
          25.166666666667,
          37
        ]
      }
    },
    {
      "type": "Feature",
      "properties": {
        "node": "n_geo_nemea",
        "name": "Nemea",
        "point_role": "gazetteer marker; not a wine-area boundary",
        "point_place_name": "Nemea (town)",
        "wikidata_id": "Q15261586",
        "source_url": "https://www.wikidata.org/wiki/Special:EntityData/Q15261586.json",
        "retrieved_on": "2026-09-26",
        "license": "CC0 1.0"
      },
      "geometry": {
        "type": "Point",
        "coordinates": [
          22.66297,
          37.8195
        ]
      }
    },
    {
      "type": "Feature",
      "properties": {
        "node": "n_geo_naoussa",
        "name": "Naoussa",
        "point_role": "gazetteer marker; not a wine-area boundary",
        "point_place_name": "Naousa, Imathia",
        "wikidata_id": "Q567755",
        "source_url": "https://www.wikidata.org/wiki/Special:EntityData/Q567755.json",
        "retrieved_on": "2026-09-26",
        "license": "CC0 1.0"
      },
      "geometry": {
        "type": "Point",
        "coordinates": [
          22.064166666667,
          40.630555555556
        ]
      }
    },
    {
      "type": "Feature",
      "properties": {
        "node": "n_geo_santorini",
        "name": "Santorini",
        "point_role": "gazetteer marker; not a wine-area boundary",
        "point_place_name": "Santorini",
        "wikidata_id": "Q129296",
        "source_url": "https://www.wikidata.org/wiki/Special:EntityData/Q129296.json",
        "retrieved_on": "2026-09-26",
        "license": "CC0 1.0"
      },
      "geometry": {
        "type": "Point",
        "coordinates": [
          25.4325,
          36.415
        ]
      }
    }
  ]
}
