{
  "type": "FeatureCollection",
  "features": [
    {
      "type": "Feature",
      "properties": {
        "node": "n_geo_valencian_community",
        "node_id": "n_geo_valencian_community",
        "name": "Valencia (autonomous community)",
        "parent_node_id": "n_geo_spain",
        "country_node_id": "n_geo_spain",
        "point_role": "gazetteer_reference_point",
        "point_place_name": "Valencian Community",
        "point_description": "autonomous community of Spain",
        "source_url": "https://www.wikidata.org/wiki/Q5720",
        "source_coordinate_url": "https://www.wikidata.org/wiki/Special:EntityData/Q5720.json",
        "wikidata_id": "Q5720",
        "wikidata_coordinate_claim": "q5720$564E7A6C-F68D-4B3D-8D46-D0188D75284D",
        "source_entity_sha256": "1a492d49cfd39b7f2e90496337e21797db933eeca91b95d29202e6725dca5a98",
        "coordinate_precision": 0.016666666666667,
        "retrieved_on": "2026-09-26",
        "license": "CC0-1.0",
        "label_note": "Reference point for Valencia (autonomous community). No boundary or official centroid is derived from this point."
      },
      "geometry": {
        "type": "Point",
        "coordinates": [
          -0.75,
          39.5
        ]
      }
    },
    {
      "type": "Feature",
      "properties": {
        "node": "n_geo_region_murcia",
        "node_id": "n_geo_region_murcia",
        "name": "Murcia (autonomous community)",
        "parent_node_id": "n_geo_spain",
        "country_node_id": "n_geo_spain",
        "point_role": "gazetteer_reference_point",
        "point_place_name": "Region of Murcia",
        "point_description": "autonomous community of Spain",
        "source_url": "https://www.wikidata.org/wiki/Q5772",
        "source_coordinate_url": "https://www.wikidata.org/wiki/Special:EntityData/Q5772.json",
        "wikidata_id": "Q5772",
        "wikidata_coordinate_claim": "q5772$39BB8184-54D6-46B5-B216-A64AFEFFD551",
        "source_entity_sha256": "e5d3f0121b322df00e0ab3ae2a483b61aaf70b01e0a341c4f28a172b57c118d8",
        "coordinate_precision": 0.016666666666667,
        "retrieved_on": "2026-09-26",
        "license": "CC0-1.0",
        "label_note": "Reference point for Murcia (autonomous community). No boundary or official centroid is derived from this point."
      },
      "geometry": {
        "type": "Point",
        "coordinates": [
          -1.8333333333333,
          38
        ]
      }
    },
    {
      "type": "Feature",
      "properties": {
        "node": "n_geo_castilla_la_mancha",
        "node_id": "n_geo_castilla_la_mancha",
        "name": "Castilla-La Mancha",
        "parent_node_id": "n_geo_spain",
        "country_node_id": "n_geo_spain",
        "point_role": "gazetteer_reference_point",
        "point_place_name": "Castilla–La Mancha",
        "point_description": "autonomous community of Spain",
        "source_url": "https://www.wikidata.org/wiki/Q5748",
        "source_coordinate_url": "https://www.wikidata.org/wiki/Special:EntityData/Q5748.json",
        "wikidata_id": "Q5748",
        "wikidata_coordinate_claim": "q5748$ECA36063-04D4-4622-A98F-1376DF3AEB51",
        "source_entity_sha256": "f96b513f1602e04ea339c0462eee8a53fce7d4abfcc2f49c1bf578cd03997207",
        "coordinate_precision": 0.0000027777777777778,
        "retrieved_on": "2026-09-26",
        "license": "CC0-1.0",
        "label_note": "Reference point for Castilla-La Mancha. No boundary or official centroid is derived from this point."
      },
      "geometry": {
        "type": "Point",
        "coordinates": [
          -3.0000333333333,
          39.500011111111
        ]
      }
    },
    {
      "type": "Feature",
      "properties": {
        "node": "n_geo_la_rioja_region",
        "node_id": "n_geo_la_rioja_region",
        "name": "La Rioja (autonomous community)",
        "parent_node_id": "n_geo_spain",
        "country_node_id": "n_geo_spain",
        "point_role": "gazetteer_reference_point",
        "point_place_name": "La Rioja",
        "point_description": "autonomous community and province of Spain",
        "source_url": "https://www.wikidata.org/wiki/Q5727",
        "source_coordinate_url": "https://www.wikidata.org/wiki/Special:EntityData/Q5727.json",
        "wikidata_id": "Q5727",
        "wikidata_coordinate_claim": "Q5727$5242B394-7C02-4C8E-8286-28A7F6947860",
        "source_entity_sha256": "77eb779a786e1621e9b2fe584d2e16bca0828cac64644f496952f2a5987f4ffa",
        "coordinate_precision": 0.016666666666667,
        "retrieved_on": "2026-09-26",
        "license": "CC0-1.0",
        "label_note": "Reference point for La Rioja (autonomous community). No boundary or official centroid is derived from this point."
      },
      "geometry": {
        "type": "Point",
        "coordinates": [
          -2.5,
          42.25
        ]
      }
    },
    {
      "type": "Feature",
      "properties": {
        "node": "n_geo_navarra_region",
        "node_id": "n_geo_navarra_region",
        "name": "Navarra (autonomous community)",
        "parent_node_id": "n_geo_spain",
        "country_node_id": "n_geo_spain",
        "point_role": "gazetteer_reference_point",
        "point_place_name": "Navarre",
        "point_description": "chartered community of Spain",
        "source_url": "https://www.wikidata.org/wiki/Q4018",
        "source_coordinate_url": "https://www.wikidata.org/wiki/Special:EntityData/Q4018.json",
        "wikidata_id": "Q4018",
        "wikidata_coordinate_claim": "q4018$D1E5A62C-B4D4-410A-99EC-B2809887FFFA",
        "source_entity_sha256": "5e7775548eb63d6a795969242084e04d57ea47cdc071bb1db9c0b1e98908b3f2",
        "coordinate_precision": 0.016666666666667,
        "retrieved_on": "2026-09-26",
        "license": "CC0-1.0",
        "label_note": "Reference point for Navarra (autonomous community). No boundary or official centroid is derived from this point."
      },
      "geometry": {
        "type": "Point",
        "coordinates": [
          -1.65,
          42.816666666667
        ]
      }
    },
    {
      "type": "Feature",
      "properties": {
        "node": "n_geo_lisboa_wine",
        "node_id": "n_geo_lisboa_wine",
        "name": "Lisboa (wine region)",
        "parent_node_id": "n_geo_portugal",
        "country_node_id": "n_geo_portugal",
        "point_role": "qualified_locality_reference_point",
        "point_place_name": "Torres Vedras",
        "point_description": "municipality in Portugal",
        "source_url": "https://www.wikidata.org/wiki/Q917319",
        "source_coordinate_url": "https://www.wikidata.org/wiki/Special:EntityData/Q917319.json",
        "wikidata_id": "Q917319",
        "wikidata_coordinate_claim": "q917319$3E27BB0C-F906-49C2-B9EF-AF85BA328BE2",
        "source_entity_sha256": "f16b6a41e185b2cef4d75beac550662ca508239d89f16b83c5508616eb615bc4",
        "coordinate_precision": 0.016666666666667,
        "retrieved_on": "2026-09-26",
        "license": "CC0-1.0",
        "label_note": "Torres Vedras, a named locality in the Lisboa wine region. The marker represents neither Lisbon city nor the wine-region boundary. No boundary or official centroid is derived from this point."
      },
      "geometry": {
        "type": "Point",
        "coordinates": [
          -9.2666666666667,
          39.083333333333
        ]
      }
    },
    {
      "type": "Feature",
      "properties": {
        "node": "n_geo_olifants_river_wine",
        "node_id": "n_geo_olifants_river_wine",
        "name": "Olifants River (wine region)",
        "parent_node_id": "n_geo_south_africa",
        "country_node_id": "n_geo_south_africa",
        "point_role": "qualified_locality_reference_point",
        "point_place_name": "Vredendal",
        "point_description": "town in the Western Cape, South Africa",
        "source_url": "https://www.wikidata.org/wiki/Q1341350",
        "source_coordinate_url": "https://www.wikidata.org/wiki/Special:EntityData/Q1341350.json",
        "wikidata_id": "Q1341350",
        "wikidata_coordinate_claim": "q1341350$BD7AD97F-94E2-4CA0-99D4-6C1EC7AD36F3",
        "source_entity_sha256": "104340ef65d0aa9a91de8de77777aa8a4b69e8c66cce81672fc4b960a93303fb",
        "coordinate_precision": 0.00027777777777778,
        "retrieved_on": "2026-09-26",
        "license": "CC0-1.0",
        "label_note": "Vredendal, a named locality in the Olifants River wine region. This marker does not represent the river geometry. No boundary or official centroid is derived from this point."
      },
      "geometry": {
        "type": "Point",
        "coordinates": [
          18.506111111111,
          -31.664444444444
        ]
      }
    },
    {
      "type": "Feature",
      "properties": {
        "node": "n_geo_north_island",
        "node_id": "n_geo_north_island",
        "name": "North Island",
        "parent_node_id": "n_geo_new_zealand",
        "country_node_id": "n_geo_new_zealand",
        "point_role": "gazetteer_reference_point",
        "point_place_name": "North Island",
        "point_description": "more northern, and smaller, of the two main islands of New Zealand",
        "source_url": "https://www.wikidata.org/wiki/Q118863",
        "source_coordinate_url": "https://www.wikidata.org/wiki/Special:EntityData/Q118863.json",
        "wikidata_id": "Q118863",
        "wikidata_coordinate_claim": "q118863$E7F03A16-3AF5-43C8-87B8-C54A82AFFE2D",
        "source_entity_sha256": "3fd3a606260c176fe11d2f34fb44ba510eb32ed8fa0d20fe6688ea5165d15f33",
        "coordinate_precision": 1,
        "retrieved_on": "2026-09-26",
        "license": "CC0-1.0",
        "label_note": "Reference point for North Island. No boundary or official centroid is derived from this point."
      },
      "geometry": {
        "type": "Point",
        "coordinates": [
          176,
          -39
        ]
      }
    },
    {
      "type": "Feature",
      "properties": {
        "node": "n_geo_south_island",
        "node_id": "n_geo_south_island",
        "name": "South Island",
        "parent_node_id": "n_geo_new_zealand",
        "country_node_id": "n_geo_new_zealand",
        "point_role": "gazetteer_reference_point",
        "point_place_name": "South Island",
        "point_description": "one of the two main New Zealand islands",
        "source_url": "https://www.wikidata.org/wiki/Q120755",
        "source_coordinate_url": "https://www.wikidata.org/wiki/Special:EntityData/Q120755.json",
        "wikidata_id": "Q120755",
        "wikidata_coordinate_claim": "q120755$EB8800BD-F80D-4FF9-8F39-B69E2A443D65",
        "source_entity_sha256": "9cd9a8aede2a6ba6de4d085f4c2fdead4c04f373ebe4a806a8f0be3cc028801d",
        "coordinate_precision": 0.016666666666666666,
        "retrieved_on": "2026-09-26",
        "license": "CC0-1.0",
        "label_note": "Reference point for South Island. No boundary or official centroid is derived from this point."
      },
      "geometry": {
        "type": "Point",
        "coordinates": [
          170.4,
          -43.6
        ]
      }
    },
    {
      "type": "Feature",
      "properties": {
        "node": "n_geo_south_eastern_australia",
        "node_id": "n_geo_south_eastern_australia",
        "name": "South Eastern Australia",
        "parent_node_id": "n_geo_australia",
        "country_node_id": "n_geo_australia",
        "point_role": "qualified_locality_reference_point",
        "point_place_name": "Melbourne",
        "point_description": "capital city of Victoria, Australia",
        "source_url": "https://www.wikidata.org/wiki/Q3141",
        "source_coordinate_url": "https://www.wikidata.org/wiki/Special:EntityData/Q3141.json",
        "wikidata_id": "Q3141",
        "wikidata_coordinate_claim": "q3141$D08253DC-E6F6-4616-9273-7BBBAFBC5DB5",
        "source_entity_sha256": "873160500c2f42356ab4ffb17509e6d3efd896ec9ab0b55be0fd0b2a2a204497",
        "coordinate_precision": 0.0002777777777777778,
        "retrieved_on": "2026-09-26",
        "license": "CC0-1.0",
        "label_note": "Melbourne in Victoria, which is wholly included in the South Eastern Australia wine GI. This is a locality reference, not the GI centroid. No boundary or official centroid is derived from this point."
      },
      "geometry": {
        "type": "Point",
        "coordinates": [
          144.96305555555554,
          -37.814166666666665
        ]
      }
    }
  ]
}
