{
  "type": "FeatureCollection",
  "features": [
    {
      "type": "Feature",
      "geometry": {
        "type": "Point",
        "coordinates": [
          3.8194553172851564,
          47.815661464941414
        ]
      },
      "properties": {
        "node": "n_geo_chablis_pc_montee_de_tonnerre",
        "name": "Montée de Tonnerre",
        "source_url": "https://cadastre.data.gouv.fr/data/etalab-cadastre/2026-06-01/geojson/communes/89/89068/cadastre-89068-lieux_dits.json.gz",
        "source_feature_name": "MONTEE DE TONNERRE",
        "source_commune": "89068",
        "source_updated": "2014-02-20",
        "source_dataset": "Cadastre Etalab / DGFiP PCI",
        "source_version": "2026-06-01",
        "source_geojson_sha256": "0d53f1927a93188b64c882aa852f8262f028a3323211d4db9f0a9bae9bbb0a45",
        "point_role": "cadastral_lieu_dit_interior_reference_point",
        "point_place_name": "MONTEE DE TONNERRE",
        "license": "Licence Ouverte / Open Licence 1.0 (Etalab)",
        "retrieved_on": "2026-09-26",
        "association_source_url": "https://www.inao.gouv.fr/produit/chablis-premier-cru-fourchaume-23059",
        "association_locator": "Regulatory texts: table of climat names and cadastral lieux-dits; Montée de Tonnerre",
        "point_method": "mapshaper 0.7.67 -points inner, from matched official cadastral lieu-dit polygon",
        "label_note": "Interior reference point of the named cadastral lieu-dit MONTEE DE TONNERRE. This point does not represent the legal climat boundary."
      }
    },
    {
      "type": "Feature",
      "geometry": {
        "type": "Point",
        "coordinates": [
          3.796743437792969,
          47.82913034853516
        ]
      },
      "properties": {
        "node": "n_geo_chablis_pc_vaulorent",
        "name": "Vaulorent",
        "source_url": "https://cadastre.data.gouv.fr/data/etalab-cadastre/2026-06-01/geojson/communes/89/89068/cadastre-89068-lieux_dits.json.gz",
        "source_feature_name": "LES QUATRE CHEMINS",
        "source_commune": "89068",
        "source_updated": "2014-02-20",
        "source_dataset": "Cadastre Etalab / DGFiP PCI",
        "source_version": "2026-06-01",
        "source_geojson_sha256": "0d53f1927a93188b64c882aa852f8262f028a3323211d4db9f0a9bae9bbb0a45",
        "point_role": "cadastral_lieu_dit_interior_reference_point",
        "point_place_name": "LES QUATRE CHEMINS",
        "license": "Licence Ouverte / Open Licence 1.0 (Etalab)",
        "retrieved_on": "2026-09-26",
        "association_source_url": "https://www.inao.gouv.fr/produit/chablis-premier-cru-fourchaume-23059",
        "association_locator": "Regulatory texts: table of climat names and cadastral lieux-dits; Vaulorent",
        "point_method": "mapshaper 0.7.67 -points inner, from matched official cadastral lieu-dit polygon",
        "label_note": "Interior reference point of the named cadastral lieu-dit LES QUATRE CHEMINS. This point does not represent the legal climat boundary."
      }
    },
    {
      "type": "Feature",
      "geometry": {
        "type": "Point",
        "coordinates": [
          3.77426394038086,
          47.80263177768555
        ]
      },
      "properties": {
        "node": "n_geo_chablis_pc_vaillons",
        "name": "Vaillons",
        "source_url": "https://cadastre.data.gouv.fr/data/etalab-cadastre/2026-06-01/geojson/communes/89/89068/cadastre-89068-lieux_dits.json.gz",
        "source_feature_name": "LES VAILLONS",
        "source_commune": "89068",
        "source_updated": "2014-02-20",
        "source_dataset": "Cadastre Etalab / DGFiP PCI",
        "source_version": "2026-06-01",
        "source_geojson_sha256": "0d53f1927a93188b64c882aa852f8262f028a3323211d4db9f0a9bae9bbb0a45",
        "point_role": "cadastral_lieu_dit_interior_reference_point",
        "point_place_name": "LES VAILLONS",
        "license": "Licence Ouverte / Open Licence 1.0 (Etalab)",
        "retrieved_on": "2026-09-26",
        "association_source_url": "https://www.inao.gouv.fr/produit/chablis-premier-cru-fourchaume-23059",
        "association_locator": "Regulatory texts: table of climat names and cadastral lieux-dits; Vaillons",
        "point_method": "mapshaper 0.7.67 -points inner, from matched official cadastral lieu-dit polygon",
        "label_note": "Interior reference point of the named cadastral lieu-dit LES VAILLONS. This point does not represent the legal climat boundary."
      }
    },
    {
      "type": "Feature",
      "geometry": {
        "type": "Point",
        "coordinates": [
          3.7812973629882807,
          47.795951907714844
        ]
      },
      "properties": {
        "node": "n_geo_chablis_pc_montmains",
        "name": "Montmains",
        "source_url": "https://cadastre.data.gouv.fr/data/etalab-cadastre/2026-06-01/geojson/communes/89/89068/cadastre-89068-lieux_dits.json.gz",
        "source_feature_name": "LES MONTS-MAINS",
        "source_commune": "89068",
        "source_updated": "2014-02-20",
        "source_dataset": "Cadastre Etalab / DGFiP PCI",
        "source_version": "2026-06-01",
        "source_geojson_sha256": "0d53f1927a93188b64c882aa852f8262f028a3323211d4db9f0a9bae9bbb0a45",
        "point_role": "cadastral_lieu_dit_interior_reference_point",
        "point_place_name": "LES MONTS-MAINS",
        "license": "Licence Ouverte / Open Licence 1.0 (Etalab)",
        "retrieved_on": "2026-09-26",
        "association_source_url": "https://www.inao.gouv.fr/produit/chablis-premier-cru-fourchaume-23059",
        "association_locator": "Regulatory texts: table of climat names and cadastral lieux-dits; Montmains",
        "point_method": "mapshaper 0.7.67 -points inner, from matched official cadastral lieu-dit polygon",
        "label_note": "Interior reference point of the named cadastral lieu-dit LES MONTS-MAINS. This point does not represent the legal climat boundary."
      }
    },
    {
      "type": "Feature",
      "geometry": {
        "type": "Point",
        "coordinates": [
          3.7619363485750257,
          47.8157683090417
        ]
      },
      "properties": {
        "node": "n_geo_chablis_pc_cote_de_lechet",
        "name": "Côte de Léchet",
        "source_url": "https://cadastre.data.gouv.fr/data/etalab-cadastre/2026-06-01/geojson/communes/89/89068/cadastre-89068-lieux_dits.json.gz",
        "source_feature_name": "LA COTE DE LECHET",
        "source_commune": "89068",
        "source_updated": "2014-02-20",
        "source_dataset": "Cadastre Etalab / DGFiP PCI",
        "source_version": "2026-06-01",
        "source_geojson_sha256": "0d53f1927a93188b64c882aa852f8262f028a3323211d4db9f0a9bae9bbb0a45",
        "point_role": "cadastral_lieu_dit_interior_reference_point",
        "point_place_name": "LA COTE DE LECHET",
        "license": "Licence Ouverte / Open Licence 1.0 (Etalab)",
        "retrieved_on": "2026-09-26",
        "association_source_url": "https://www.inao.gouv.fr/produit/chablis-premier-cru-fourchaume-23059",
        "association_locator": "Regulatory texts: table of climat names and cadastral lieux-dits; Côte de Léchet",
        "point_method": "mapshaper 0.7.67 -points inner, from matched official cadastral lieu-dit polygon",
        "label_note": "Interior reference point of the named cadastral lieu-dit LA COTE DE LECHET. This point does not represent the legal climat boundary."
      }
    },
    {
      "type": "Feature",
      "geometry": {
        "type": "Point",
        "coordinates": [
          3.7662262628339125,
          47.82903083566115
        ]
      },
      "properties": {
        "node": "n_geo_chablis_pc_beauroy",
        "name": "Beauroy",
        "source_url": "https://cadastre.data.gouv.fr/data/etalab-cadastre/2026-06-01/geojson/communes/89/89068/cadastre-89068-lieux_dits.json.gz",
        "source_feature_name": "SOUS BOROY",
        "source_commune": "89068",
        "source_updated": "2014-02-20",
        "source_dataset": "Cadastre Etalab / DGFiP PCI",
        "source_version": "2026-06-01",
        "source_geojson_sha256": "0d53f1927a93188b64c882aa852f8262f028a3323211d4db9f0a9bae9bbb0a45",
        "point_role": "cadastral_lieu_dit_interior_reference_point",
        "point_place_name": "SOUS BOROY",
        "license": "Licence Ouverte / Open Licence 1.0 (Etalab)",
        "retrieved_on": "2026-09-26",
        "association_source_url": "https://www.inao.gouv.fr/produit/chablis-premier-cru-fourchaume-23059",
        "association_locator": "Regulatory texts: table of climat names and cadastral lieux-dits; Beauroy",
        "point_method": "mapshaper 0.7.67 -points inner, from matched official cadastral lieu-dit polygon",
        "label_note": "Interior reference point of the named cadastral lieu-dit SOUS BOROY. This point does not represent the legal climat boundary."
      }
    }
  ]
}
