{
  "type": "FeatureCollection",
  "features": [
    {
      "type": "Feature",
      "properties": {
        "node": "n_geo_chablis_pc_chapelot",
        "name": "Chapelot",
        "source_url": "https://cadastre.data.gouv.fr/data/etalab-cadastre/2026-06-01/geojson/communes/89/89068/cadastre-89068-lieux_dits.json.gz",
        "source_feature_name": "LES CHAPELOTS",
        "source_commune": "89068",
        "source_edition": "2026-06-01",
        "license": "Licence Ouverte 1.0",
        "name_association_source": "https://www.inao.gouv.fr/produit/chablis-premier-cru-fourchaume-23059",
        "marker_basis": "Interior point of a named cadastral lieu-dit associated with the climat; not a legal climat boundary",
        "accessed_on": "2026-09-26",
        "source_geojson_sha256": "0d53f1927a93188b64c882aa852f8262f028a3323211d4db9f0a9bae9bbb0a45"
      },
      "geometry": {
        "type": "Point",
        "coordinates": [
          3.8197013816406247,
          47.81292795117187
        ]
      }
    },
    {
      "type": "Feature",
      "properties": {
        "node": "n_geo_chablis_pc_pied_d_aloup",
        "name": "Pied d’Aloup",
        "source_url": "https://cadastre.data.gouv.fr/data/etalab-cadastre/2026-06-01/geojson/communes/89/89068/cadastre-89068-lieux_dits.json.gz",
        "source_feature_name": "PIED D'ALOUE",
        "source_commune": "89068",
        "source_edition": "2026-06-01",
        "license": "Licence Ouverte 1.0",
        "name_association_source": "https://www.inao.gouv.fr/produit/chablis-premier-cru-fourchaume-23059",
        "marker_basis": "Interior point of a named cadastral lieu-dit associated with the climat; not a legal climat boundary",
        "accessed_on": "2026-09-26",
        "source_geojson_sha256": "0d53f1927a93188b64c882aa852f8262f028a3323211d4db9f0a9bae9bbb0a45"
      },
      "geometry": {
        "type": "Point",
        "coordinates": [
          3.8225276890625,
          47.81630126093751
        ]
      }
    },
    {
      "type": "Feature",
      "properties": {
        "node": "n_geo_chablis_pc_cote_de_brechain",
        "name": "Côte de Bréchain",
        "source_url": "https://cadastre.data.gouv.fr/data/etalab-cadastre/2026-06-01/geojson/communes/89/89068/cadastre-89068-lieux_dits.json.gz",
        "source_feature_name": "COTE DE BRECHAIN",
        "source_commune": "89068",
        "source_edition": "2026-06-01",
        "license": "Licence Ouverte 1.0",
        "name_association_source": "https://www.inao.gouv.fr/produit/chablis-premier-cru-fourchaume-23059",
        "marker_basis": "Interior point of a named cadastral lieu-dit associated with the climat; not a legal climat boundary",
        "accessed_on": "2026-09-26",
        "source_geojson_sha256": "0d53f1927a93188b64c882aa852f8262f028a3323211d4db9f0a9bae9bbb0a45"
      },
      "geometry": {
        "type": "Point",
        "coordinates": [
          3.8212798467773434,
          47.82056444580079
        ]
      }
    },
    {
      "type": "Feature",
      "properties": {
        "node": "n_geo_chablis_pc_l_homme_mort",
        "name": "L’Homme Mort",
        "source_url": "https://cadastre.data.gouv.fr/data/etalab-cadastre/2026-06-01/geojson/communes/89/89242/cadastre-89242-lieux_dits.json.gz",
        "source_feature_name": "L'HOMME MORT",
        "source_commune": "89242",
        "source_edition": "2026-06-01",
        "license": "Licence Ouverte 1.0",
        "name_association_source": "https://www.inao.gouv.fr/produit/chablis-premier-cru-fourchaume-23059",
        "marker_basis": "Interior point of a named cadastral lieu-dit associated with the climat; not a legal climat boundary",
        "accessed_on": "2026-09-26",
        "source_geojson_sha256": "55373ff78d1e9b7a168b31efc497c985aef1a2b07712b16fe5b53e3408a4cd1d"
      },
      "geometry": {
        "type": "Point",
        "coordinates": [
          3.7768894571777345,
          47.848946313623046
        ]
      }
    },
    {
      "type": "Feature",
      "properties": {
        "node": "n_geo_chablis_pc_chatains",
        "name": "Chatains",
        "source_url": "https://cadastre.data.gouv.fr/data/etalab-cadastre/2026-06-01/geojson/communes/89/89068/cadastre-89068-lieux_dits.json.gz",
        "source_feature_name": "LES CHATAINS",
        "source_commune": "89068",
        "source_edition": "2026-06-01",
        "license": "Licence Ouverte 1.0",
        "name_association_source": "https://www.inao.gouv.fr/produit/chablis-premier-cru-fourchaume-23059",
        "marker_basis": "Interior point of a named cadastral lieu-dit associated with the climat; not a legal climat boundary",
        "accessed_on": "2026-09-26",
        "source_geojson_sha256": "0d53f1927a93188b64c882aa852f8262f028a3323211d4db9f0a9bae9bbb0a45"
      },
      "geometry": {
        "type": "Point",
        "coordinates": [
          3.769401019519925,
          47.80059113952392
        ]
      }
    },
    {
      "type": "Feature",
      "properties": {
        "node": "n_geo_chablis_pc_secher",
        "name": "Sécher",
        "source_url": "https://cadastre.data.gouv.fr/data/etalab-cadastre/2026-06-01/geojson/communes/89/89068/cadastre-89068-lieux_dits.json.gz",
        "source_feature_name": "SECHER",
        "source_commune": "89068",
        "source_edition": "2026-06-01",
        "license": "Licence Ouverte 1.0",
        "name_association_source": "https://www.inao.gouv.fr/produit/chablis-premier-cru-fourchaume-23059",
        "marker_basis": "Interior point of a named cadastral lieu-dit associated with the climat; not a legal climat boundary",
        "accessed_on": "2026-09-26",
        "source_geojson_sha256": "0d53f1927a93188b64c882aa852f8262f028a3323211d4db9f0a9bae9bbb0a45"
      },
      "geometry": {
        "type": "Point",
        "coordinates": [
          3.777134703320312,
          47.8036921388672
        ]
      }
    },
    {
      "type": "Feature",
      "properties": {
        "node": "n_geo_chablis_pc_beugnons",
        "name": "Beugnons",
        "source_url": "https://cadastre.data.gouv.fr/data/etalab-cadastre/2026-06-01/geojson/communes/89/89068/cadastre-89068-lieux_dits.json.gz",
        "source_feature_name": "LES BEUGNONS",
        "source_commune": "89068",
        "source_edition": "2026-06-01",
        "license": "Licence Ouverte 1.0",
        "name_association_source": "https://www.inao.gouv.fr/produit/chablis-premier-cru-fourchaume-23059",
        "marker_basis": "Interior point of a named cadastral lieu-dit associated with the climat; not a legal climat boundary",
        "accessed_on": "2026-09-26",
        "source_geojson_sha256": "0d53f1927a93188b64c882aa852f8262f028a3323211d4db9f0a9bae9bbb0a45"
      },
      "geometry": {
        "type": "Point",
        "coordinates": [
          3.765018778076172,
          47.797793903759775
        ]
      }
    },
    {
      "type": "Feature",
      "properties": {
        "node": "n_geo_chablis_pc_les_lys",
        "name": "Les Lys",
        "source_url": "https://cadastre.data.gouv.fr/data/etalab-cadastre/2026-06-01/geojson/communes/89/89068/cadastre-89068-lieux_dits.json.gz",
        "source_feature_name": "LES LYS",
        "source_commune": "89068",
        "source_edition": "2026-06-01",
        "license": "Licence Ouverte 1.0",
        "name_association_source": "https://www.inao.gouv.fr/produit/chablis-premier-cru-fourchaume-23059",
        "marker_basis": "Interior point of a named cadastral lieu-dit associated with the climat; not a legal climat boundary",
        "accessed_on": "2026-09-26",
        "source_geojson_sha256": "0d53f1927a93188b64c882aa852f8262f028a3323211d4db9f0a9bae9bbb0a45"
      },
      "geometry": {
        "type": "Point",
        "coordinates": [
          3.777345880761718,
          47.80807087255859
        ]
      }
    },
    {
      "type": "Feature",
      "properties": {
        "node": "n_geo_chablis_pc_melinots",
        "name": "Mélinots",
        "source_url": "https://cadastre.data.gouv.fr/data/etalab-cadastre/2026-06-01/geojson/communes/89/89068/cadastre-89068-lieux_dits.json.gz",
        "source_feature_name": "LES MINOS",
        "source_commune": "89068",
        "source_edition": "2026-06-01",
        "license": "Licence Ouverte 1.0",
        "name_association_source": "https://www.inao.gouv.fr/produit/chablis-premier-cru-fourchaume-23059",
        "marker_basis": "Interior point of a named cadastral lieu-dit associated with the climat; not a legal climat boundary",
        "accessed_on": "2026-09-26",
        "source_geojson_sha256": "0d53f1927a93188b64c882aa852f8262f028a3323211d4db9f0a9bae9bbb0a45"
      },
      "geometry": {
        "type": "Point",
        "coordinates": [
          3.7666644724121094,
          47.7963095862793
        ]
      }
    },
    {
      "type": "Feature",
      "properties": {
        "node": "n_geo_chablis_pc_roncieres",
        "name": "Roncières",
        "source_url": "https://cadastre.data.gouv.fr/data/etalab-cadastre/2026-06-01/geojson/communes/89/89068/cadastre-89068-lieux_dits.json.gz",
        "source_feature_name": "LES RONCIERES",
        "source_commune": "89068",
        "source_edition": "2026-06-01",
        "license": "Licence Ouverte 1.0",
        "name_association_source": "https://www.inao.gouv.fr/produit/chablis-premier-cru-fourchaume-23059",
        "marker_basis": "Interior point of a named cadastral lieu-dit associated with the climat; not a legal climat boundary",
        "accessed_on": "2026-09-26",
        "source_geojson_sha256": "0d53f1927a93188b64c882aa852f8262f028a3323211d4db9f0a9bae9bbb0a45"
      },
      "geometry": {
        "type": "Point",
        "coordinates": [
          3.773062415625,
          47.79919421562501
        ]
      }
    },
    {
      "type": "Feature",
      "properties": {
        "node": "n_geo_chablis_pc_les_epinottes",
        "name": "Les Épinottes",
        "source_url": "https://cadastre.data.gouv.fr/data/etalab-cadastre/2026-06-01/geojson/communes/89/89068/cadastre-89068-lieux_dits.json.gz",
        "source_feature_name": "LES EPINOTTES",
        "source_commune": "89068",
        "source_edition": "2026-06-01",
        "license": "Licence Ouverte 1.0",
        "name_association_source": "https://www.inao.gouv.fr/produit/chablis-premier-cru-fourchaume-23059",
        "marker_basis": "Interior point of a named cadastral lieu-dit associated with the climat; not a legal climat boundary",
        "accessed_on": "2026-09-26",
        "source_geojson_sha256": "0d53f1927a93188b64c882aa852f8262f028a3323211d4db9f0a9bae9bbb0a45"
      },
      "geometry": {
        "type": "Point",
        "coordinates": [
          3.785107670825196,
          47.80599869177246
        ]
      }
    },
    {
      "type": "Feature",
      "properties": {
        "node": "n_geo_chablis_pc_forets",
        "name": "Forêts",
        "source_url": "https://cadastre.data.gouv.fr/data/etalab-cadastre/2026-06-01/geojson/communes/89/89068/cadastre-89068-lieux_dits.json.gz",
        "source_feature_name": "LES FORETS",
        "source_commune": "89068",
        "source_edition": "2026-06-01",
        "license": "Licence Ouverte 1.0",
        "name_association_source": "https://www.inao.gouv.fr/produit/chablis-premier-cru-fourchaume-23059",
        "marker_basis": "Interior point of a named cadastral lieu-dit associated with the climat; not a legal climat boundary",
        "accessed_on": "2026-09-26",
        "source_geojson_sha256": "0d53f1927a93188b64c882aa852f8262f028a3323211d4db9f0a9bae9bbb0a45"
      },
      "geometry": {
        "type": "Point",
        "coordinates": [
          3.774876982275391,
          47.791842432177745
        ]
      }
    },
    {
      "type": "Feature",
      "properties": {
        "node": "n_geo_chablis_pc_butteaux",
        "name": "Butteaux",
        "source_url": "https://cadastre.data.gouv.fr/data/etalab-cadastre/2026-06-01/geojson/communes/89/89068/cadastre-89068-lieux_dits.json.gz",
        "source_feature_name": "LE MILIEU DES BUTTAUX",
        "source_commune": "89068",
        "source_edition": "2026-06-01",
        "license": "Licence Ouverte 1.0",
        "name_association_source": "https://www.inao.gouv.fr/produit/chablis-premier-cru-fourchaume-23059",
        "marker_basis": "Interior point of a named cadastral lieu-dit associated with the climat; not a legal climat boundary",
        "accessed_on": "2026-09-26",
        "source_geojson_sha256": "0d53f1927a93188b64c882aa852f8262f028a3323211d4db9f0a9bae9bbb0a45"
      },
      "geometry": {
        "type": "Point",
        "coordinates": [
          3.7612989109375,
          47.78715634218751
        ]
      }
    },
    {
      "type": "Feature",
      "properties": {
        "node": "n_geo_chablis_pc_troesmes",
        "name": "Troesmes",
        "source_url": "https://cadastre.data.gouv.fr/data/etalab-cadastre/2026-06-01/geojson/communes/89/89034/cadastre-89034-lieux_dits.json.gz",
        "source_feature_name": "COTE DE TROUEMES",
        "source_commune": "89034",
        "source_edition": "2026-06-01",
        "license": "Licence Ouverte 1.0",
        "name_association_source": "https://www.inao.gouv.fr/produit/chablis-premier-cru-fourchaume-23059",
        "marker_basis": "Interior point of a named cadastral lieu-dit associated with the climat; not a legal climat boundary",
        "accessed_on": "2026-09-26",
        "source_geojson_sha256": "af65271051788aac1f44085dfd02367e1dedfddd5ef5bf363eced662ad2c2a56"
      },
      "geometry": {
        "type": "Point",
        "coordinates": [
          3.7585279560546874,
          47.8283475705078
        ]
      }
    },
    {
      "type": "Feature",
      "properties": {
        "node": "n_geo_chablis_pc_cote_de_savant",
        "name": "Côte de Savant",
        "source_url": "https://cadastre.data.gouv.fr/data/etalab-cadastre/2026-06-01/geojson/communes/89/89034/cadastre-89034-lieux_dits.json.gz",
        "source_feature_name": "COTE  DE SAVANT",
        "source_commune": "89034",
        "source_edition": "2026-06-01",
        "license": "Licence Ouverte 1.0",
        "name_association_source": "https://www.inao.gouv.fr/produit/chablis-premier-cru-fourchaume-23059",
        "marker_basis": "Interior point of a named cadastral lieu-dit associated with the climat; not a legal climat boundary",
        "accessed_on": "2026-09-26",
        "source_geojson_sha256": "af65271051788aac1f44085dfd02367e1dedfddd5ef5bf363eced662ad2c2a56"
      },
      "geometry": {
        "type": "Point",
        "coordinates": [
          3.7362251856933586,
          47.82460058784181
        ]
      }
    },
    {
      "type": "Feature",
      "properties": {
        "node": "n_geo_chablis_pc_vau_ligneau",
        "name": "Vau Ligneau",
        "source_url": "https://cadastre.data.gouv.fr/data/etalab-cadastre/2026-06-01/geojson/communes/89/89034/cadastre-89034-lieux_dits.json.gz",
        "source_feature_name": "VAU LIGNEAU",
        "source_commune": "89034",
        "source_edition": "2026-06-01",
        "license": "Licence Ouverte 1.0",
        "name_association_source": "https://www.inao.gouv.fr/produit/chablis-premier-cru-fourchaume-23059",
        "marker_basis": "Interior point of a named cadastral lieu-dit associated with the climat; not a legal climat boundary",
        "accessed_on": "2026-09-26",
        "source_geojson_sha256": "af65271051788aac1f44085dfd02367e1dedfddd5ef5bf363eced662ad2c2a56"
      },
      "geometry": {
        "type": "Point",
        "coordinates": [
          3.7238507901367193,
          47.80345937197266
        ]
      }
    },
    {
      "type": "Feature",
      "properties": {
        "node": "n_geo_chablis_pc_vau_de_vey",
        "name": "Vau de Vey",
        "source_url": "https://cadastre.data.gouv.fr/data/etalab-cadastre/2026-06-01/geojson/communes/89/89034/cadastre-89034-lieux_dits.json.gz",
        "source_feature_name": "VAU DE VEY",
        "source_commune": "89034",
        "source_edition": "2026-06-01",
        "license": "Licence Ouverte 1.0",
        "name_association_source": "https://www.inao.gouv.fr/produit/chablis-premier-cru-fourchaume-23059",
        "marker_basis": "Interior point of a named cadastral lieu-dit associated with the climat; not a legal climat boundary",
        "accessed_on": "2026-09-26",
        "source_geojson_sha256": "af65271051788aac1f44085dfd02367e1dedfddd5ef5bf363eced662ad2c2a56"
      },
      "geometry": {
        "type": "Point",
        "coordinates": [
          3.7470868800781245,
          47.81725373476563
        ]
      }
    },
    {
      "type": "Feature",
      "properties": {
        "node": "n_geo_chablis_pc_vaux_ragons",
        "name": "Vaux Ragons",
        "source_url": "https://cadastre.data.gouv.fr/data/etalab-cadastre/2026-06-01/geojson/communes/89/89034/cadastre-89034-lieux_dits.json.gz",
        "source_feature_name": "VIGNES DES VAUX RAGONS",
        "source_commune": "89034",
        "source_edition": "2026-06-01",
        "license": "Licence Ouverte 1.0",
        "name_association_source": "https://www.inao.gouv.fr/produit/chablis-premier-cru-fourchaume-23059",
        "marker_basis": "Interior point of a named cadastral lieu-dit associated with the climat; not a legal climat boundary",
        "accessed_on": "2026-09-26",
        "source_geojson_sha256": "af65271051788aac1f44085dfd02367e1dedfddd5ef5bf363eced662ad2c2a56"
      },
      "geometry": {
        "type": "Point",
        "coordinates": [
          3.7370163161132814,
          47.80346785380859
        ]
      }
    },
    {
      "type": "Feature",
      "properties": {
        "node": "n_geo_chablis_pc_morein",
        "name": "Morein",
        "source_url": "https://cadastre.data.gouv.fr/data/etalab-cadastre/2026-06-01/geojson/communes/89/89168/cadastre-89168-lieux_dits.json.gz",
        "source_feature_name": "MOREIN",
        "source_commune": "89168",
        "source_edition": "2026-06-01",
        "license": "Licence Ouverte 1.0",
        "name_association_source": "https://www.inao.gouv.fr/produit/chablis-premier-cru-fourchaume-23059",
        "marker_basis": "Interior point of a named cadastral lieu-dit associated with the climat; not a legal climat boundary",
        "accessed_on": "2026-09-26",
        "source_geojson_sha256": "79e720f783e857dc86382876ff583bc07e4ecdce9fec29059000f93aaf14c568"
      },
      "geometry": {
        "type": "Point",
        "coordinates": [
          3.852971109960938,
          47.822036103320315
        ]
      }
    },
    {
      "type": "Feature",
      "properties": {
        "node": "n_geo_chablis_pc_cote_des_pres_girots",
        "name": "Côte des Prés-Girots",
        "source_url": "https://cadastre.data.gouv.fr/data/etalab-cadastre/2026-06-01/geojson/communes/89/89168/cadastre-89168-lieux_dits.json.gz",
        "source_feature_name": "COTE DES PRES GIROT",
        "source_commune": "89168",
        "source_edition": "2026-06-01",
        "license": "Licence Ouverte 1.0",
        "name_association_source": "https://www.inao.gouv.fr/produit/chablis-premier-cru-fourchaume-23059",
        "marker_basis": "Interior point of a named cadastral lieu-dit associated with the climat; not a legal climat boundary",
        "accessed_on": "2026-09-26",
        "source_geojson_sha256": "79e720f783e857dc86382876ff583bc07e4ecdce9fec29059000f93aaf14c568"
      },
      "geometry": {
        "type": "Point",
        "coordinates": [
          3.8682218838867186,
          47.816950000097656
        ]
      }
    },
    {
      "type": "Feature",
      "properties": {
        "node": "n_geo_chablis_pc_cote_de_vaubarousse",
        "name": "Côte de Vaubarousse",
        "source_url": "https://cadastre.data.gouv.fr/data/etalab-cadastre/2026-06-01/geojson/communes/89/89068/cadastre-89068-lieux_dits.json.gz",
        "source_feature_name": "COTE DE VAUBAROUSSE",
        "source_commune": "89068",
        "source_edition": "2026-06-01",
        "license": "Licence Ouverte 1.0",
        "name_association_source": "https://www.inao.gouv.fr/produit/chablis-premier-cru-fourchaume-23059",
        "marker_basis": "Interior point of a named cadastral lieu-dit associated with the climat; not a legal climat boundary",
        "accessed_on": "2026-09-26",
        "source_geojson_sha256": "0d53f1927a93188b64c882aa852f8262f028a3323211d4db9f0a9bae9bbb0a45"
      },
      "geometry": {
        "type": "Point",
        "coordinates": [
          3.831614711474609,
          47.82848196245117
        ]
      }
    },
    {
      "type": "Feature",
      "properties": {
        "node": "n_geo_chablis_pc_berdiot",
        "name": "Berdiot",
        "source_url": "https://cadastre.data.gouv.fr/data/etalab-cadastre/2026-06-01/geojson/communes/89/89068/cadastre-89068-lieux_dits.json.gz",
        "source_feature_name": "BERDIOT",
        "source_commune": "89068",
        "source_edition": "2026-06-01",
        "license": "Licence Ouverte 1.0",
        "name_association_source": "https://www.inao.gouv.fr/produit/chablis-premier-cru-fourchaume-23059",
        "marker_basis": "Interior point of a named cadastral lieu-dit associated with the climat; not a legal climat boundary",
        "accessed_on": "2026-09-26",
        "source_geojson_sha256": "0d53f1927a93188b64c882aa852f8262f028a3323211d4db9f0a9bae9bbb0a45"
      },
      "geometry": {
        "type": "Point",
        "coordinates": [
          3.825929630517578,
          47.8292453583496
        ]
      }
    },
    {
      "type": "Feature",
      "properties": {
        "node": "n_geo_chablis_pc_cote_de_cuisy",
        "name": "Côte de Cuisy",
        "source_url": "https://cadastre.data.gouv.fr/data/etalab-cadastre/2026-06-01/geojson/communes/89/89123/cadastre-89123-lieux_dits.json.gz",
        "source_feature_name": "COTE DE CUISSY",
        "source_commune": "89123",
        "source_edition": "2026-06-01",
        "license": "Licence Ouverte 1.0",
        "name_association_source": "https://www.inao.gouv.fr/produit/chablis-premier-cru-fourchaume-23059",
        "marker_basis": "Interior point of a named cadastral lieu-dit associated with the climat; not a legal climat boundary",
        "accessed_on": "2026-09-26",
        "source_geojson_sha256": "26d901092fcace2c2df3002369856a67de27e766cb4509ccdeca70ba823ad537"
      },
      "geometry": {
        "type": "Point",
        "coordinates": [
          3.7480942835937503,
          47.767903346093746
        ]
      }
    }
  ]
}
