{
  "type": "FeatureCollection",
  "features": [
    {
      "type": "Feature",
      "properties": {
        "node": "n_geo_chablis_gc_blanchot",
        "name": "Blanchot",
        "source_url": "https://www.data.gouv.fr/datasets/delimitation-parcellaire-des-aoc-viticoles-de-linao/",
        "source_resource": "https://static.data.gouv.fr/resources/delimitation-parcellaire-des-aoc-viticoles-de-linao/20260921-213954/2026-09-21-delim-parcellaire-aoc-shp.zip",
        "source_edition": "2026-09-21",
        "source_sha256": "6f84e0622c2a27d35fc1ad7b39629856bc5038aa38b9d629758c2fb873801d81",
        "license": "Licence Ouverte 2.0",
        "id_denom": [
          440
        ],
        "marker_basis": "Interior label point of INAO parcel union; informational geometry, legal specification and municipal delimitation plans prevail",
        "accessed_on": "2026-09-26"
      },
      "geometry": {
        "type": "Point",
        "coordinates": [
          3.815821669861372,
          47.81954660305826
        ]
      }
    },
    {
      "type": "Feature",
      "properties": {
        "node": "n_geo_chablis_gc_bougros",
        "name": "Bougros",
        "source_url": "https://www.data.gouv.fr/datasets/delimitation-parcellaire-des-aoc-viticoles-de-linao/",
        "source_resource": "https://static.data.gouv.fr/resources/delimitation-parcellaire-des-aoc-viticoles-de-linao/20260921-213954/2026-09-21-delim-parcellaire-aoc-shp.zip",
        "source_edition": "2026-09-21",
        "source_sha256": "6f84e0622c2a27d35fc1ad7b39629856bc5038aa38b9d629758c2fb873801d81",
        "license": "Licence Ouverte 2.0",
        "id_denom": [
          441
        ],
        "marker_basis": "Interior label point of INAO parcel union; informational geometry, legal specification and municipal delimitation plans prevail",
        "accessed_on": "2026-09-26"
      },
      "geometry": {
        "type": "Point",
        "coordinates": [
          3.7928595101335376,
          47.82520591574036
        ]
      }
    },
    {
      "type": "Feature",
      "properties": {
        "node": "n_geo_chablis_gc_les_clos",
        "name": "Les Clos",
        "source_url": "https://www.data.gouv.fr/datasets/delimitation-parcellaire-des-aoc-viticoles-de-linao/",
        "source_resource": "https://static.data.gouv.fr/resources/delimitation-parcellaire-des-aoc-viticoles-de-linao/20260921-213954/2026-09-21-delim-parcellaire-aoc-shp.zip",
        "source_edition": "2026-09-21",
        "source_sha256": "6f84e0622c2a27d35fc1ad7b39629856bc5038aa38b9d629758c2fb873801d81",
        "license": "Licence Ouverte 2.0",
        "id_denom": [
          443
        ],
        "marker_basis": "Interior label point of INAO parcel union; informational geometry, legal specification and municipal delimitation plans prevail",
        "accessed_on": "2026-09-26"
      },
      "geometry": {
        "type": "Point",
        "coordinates": [
          3.808439947439489,
          47.81868883834565
        ]
      }
    },
    {
      "type": "Feature",
      "properties": {
        "node": "n_geo_chablis_gc_grenouilles",
        "name": "Grenouilles",
        "source_url": "https://www.data.gouv.fr/datasets/delimitation-parcellaire-des-aoc-viticoles-de-linao/",
        "source_resource": "https://static.data.gouv.fr/resources/delimitation-parcellaire-des-aoc-viticoles-de-linao/20260921-213954/2026-09-21-delim-parcellaire-aoc-shp.zip",
        "source_edition": "2026-09-21",
        "source_sha256": "6f84e0622c2a27d35fc1ad7b39629856bc5038aa38b9d629758c2fb873801d81",
        "license": "Licence Ouverte 2.0",
        "id_denom": [
          442
        ],
        "marker_basis": "Interior label point of INAO parcel union; informational geometry, legal specification and municipal delimitation plans prevail",
        "accessed_on": "2026-09-26"
      },
      "geometry": {
        "type": "Point",
        "coordinates": [
          3.8033426301635913,
          47.82284388925601
        ]
      }
    },
    {
      "type": "Feature",
      "properties": {
        "node": "n_geo_chablis_gc_preuses",
        "name": "Preuses",
        "source_url": "https://www.data.gouv.fr/datasets/delimitation-parcellaire-des-aoc-viticoles-de-linao/",
        "source_resource": "https://static.data.gouv.fr/resources/delimitation-parcellaire-des-aoc-viticoles-de-linao/20260921-213954/2026-09-21-delim-parcellaire-aoc-shp.zip",
        "source_edition": "2026-09-21",
        "source_sha256": "6f84e0622c2a27d35fc1ad7b39629856bc5038aa38b9d629758c2fb873801d81",
        "license": "Licence Ouverte 2.0",
        "id_denom": [
          444
        ],
        "marker_basis": "Interior label point of INAO parcel union; informational geometry, legal specification and municipal delimitation plans prevail",
        "accessed_on": "2026-09-26"
      },
      "geometry": {
        "type": "Point",
        "coordinates": [
          3.796813262793541,
          47.82666210389714
        ]
      }
    },
    {
      "type": "Feature",
      "properties": {
        "node": "n_geo_chablis_gc_valmur",
        "name": "Valmur",
        "source_url": "https://www.data.gouv.fr/datasets/delimitation-parcellaire-des-aoc-viticoles-de-linao/",
        "source_resource": "https://static.data.gouv.fr/resources/delimitation-parcellaire-des-aoc-viticoles-de-linao/20260921-213954/2026-09-21-delim-parcellaire-aoc-shp.zip",
        "source_edition": "2026-09-21",
        "source_sha256": "6f84e0622c2a27d35fc1ad7b39629856bc5038aa38b9d629758c2fb873801d81",
        "license": "Licence Ouverte 2.0",
        "id_denom": [
          445
        ],
        "marker_basis": "Interior label point of INAO parcel union; informational geometry, legal specification and municipal delimitation plans prevail",
        "accessed_on": "2026-09-26"
      },
      "geometry": {
        "type": "Point",
        "coordinates": [
          3.808212542335079,
          47.822395492437224
        ]
      }
    },
    {
      "type": "Feature",
      "properties": {
        "node": "n_geo_chablis_gc_vaudesir",
        "name": "Vaudésir",
        "source_url": "https://www.data.gouv.fr/datasets/delimitation-parcellaire-des-aoc-viticoles-de-linao/",
        "source_resource": "https://static.data.gouv.fr/resources/delimitation-parcellaire-des-aoc-viticoles-de-linao/20260921-213954/2026-09-21-delim-parcellaire-aoc-shp.zip",
        "source_edition": "2026-09-21",
        "source_sha256": "6f84e0622c2a27d35fc1ad7b39629856bc5038aa38b9d629758c2fb873801d81",
        "license": "Licence Ouverte 2.0",
        "id_denom": [
          446
        ],
        "marker_basis": "Interior label point of INAO parcel union; informational geometry, legal specification and municipal delimitation plans prevail",
        "accessed_on": "2026-09-26"
      },
      "geometry": {
        "type": "Point",
        "coordinates": [
          3.8017401844974144,
          47.8253964795866
        ]
      }
    },
    {
      "type": "Feature",
      "properties": {
        "node": "n_geo_chablis_pc_fourchaume",
        "name": "Fourchaume",
        "source_url": "https://www.data.gouv.fr/datasets/delimitation-parcellaire-des-aoc-viticoles-de-linao/",
        "source_resource": "https://static.data.gouv.fr/resources/delimitation-parcellaire-des-aoc-viticoles-de-linao/20260921-213954/2026-09-21-delim-parcellaire-aoc-shp.zip",
        "source_edition": "2026-09-21",
        "source_sha256": "6f84e0622c2a27d35fc1ad7b39629856bc5038aa38b9d629758c2fb873801d81",
        "license": "Licence Ouverte 2.0",
        "id_denom": [
          414
        ],
        "marker_basis": "Interior label point of INAO parcel union; informational geometry, legal specification and municipal delimitation plans prevail",
        "accessed_on": "2026-09-26"
      },
      "geometry": {
        "type": "Point",
        "coordinates": [
          3.778461433711105,
          47.849818828170555
        ]
      }
    },
    {
      "type": "Feature",
      "properties": {
        "node": "n_geo_chablis_pc_mont_de_milieu",
        "name": "Mont de Milieu",
        "source_url": "https://www.data.gouv.fr/datasets/delimitation-parcellaire-des-aoc-viticoles-de-linao/",
        "source_resource": "https://static.data.gouv.fr/resources/delimitation-parcellaire-des-aoc-viticoles-de-linao/20260921-213954/2026-09-21-delim-parcellaire-aoc-shp.zip",
        "source_edition": "2026-09-21",
        "source_sha256": "6f84e0622c2a27d35fc1ad7b39629856bc5038aa38b9d629758c2fb873801d81",
        "license": "Licence Ouverte 2.0",
        "id_denom": [
          420
        ],
        "marker_basis": "Interior label point of INAO parcel union; informational geometry, legal specification and municipal delimitation plans prevail",
        "accessed_on": "2026-09-26"
      },
      "geometry": {
        "type": "Point",
        "coordinates": [
          3.837691698563153,
          47.81225469421915
        ]
      }
    },
    {
      "type": "Feature",
      "properties": {
        "node": "n_geo_chablis_pc_vaucoupin",
        "name": "Vaucoupin",
        "source_url": "https://www.data.gouv.fr/datasets/delimitation-parcellaire-des-aoc-viticoles-de-linao/",
        "source_resource": "https://static.data.gouv.fr/resources/delimitation-parcellaire-des-aoc-viticoles-de-linao/20260921-213954/2026-09-21-delim-parcellaire-aoc-shp.zip",
        "source_edition": "2026-09-21",
        "source_sha256": "6f84e0622c2a27d35fc1ad7b39629856bc5038aa38b9d629758c2fb873801d81",
        "license": "Licence Ouverte 2.0",
        "id_denom": [
          432
        ],
        "marker_basis": "Interior label point of INAO parcel union; informational geometry, legal specification and municipal delimitation plans prevail",
        "accessed_on": "2026-09-26"
      },
      "geometry": {
        "type": "Point",
        "coordinates": [
          3.8487615268825475,
          47.80240250170617
        ]
      }
    },
    {
      "type": "Feature",
      "properties": {
        "node": "n_geo_chablis_pc_vosgros",
        "name": "Vosgros",
        "source_url": "https://www.data.gouv.fr/datasets/delimitation-parcellaire-des-aoc-viticoles-de-linao/",
        "source_resource": "https://static.data.gouv.fr/resources/delimitation-parcellaire-des-aoc-viticoles-de-linao/20260921-213954/2026-09-21-delim-parcellaire-aoc-shp.zip",
        "source_edition": "2026-09-21",
        "source_sha256": "6f84e0622c2a27d35fc1ad7b39629856bc5038aa38b9d629758c2fb873801d81",
        "license": "Licence Ouverte 2.0",
        "id_denom": [
          437
        ],
        "marker_basis": "Interior label point of INAO parcel union; informational geometry, legal specification and municipal delimitation plans prevail",
        "accessed_on": "2026-09-26"
      },
      "geometry": {
        "type": "Point",
        "coordinates": [
          3.8160074135806763,
          47.79179823146673
        ]
      }
    },
    {
      "type": "Feature",
      "properties": {
        "node": "n_geo_chambertin",
        "name": "Chambertin",
        "source_url": "https://www.data.gouv.fr/datasets/delimitation-parcellaire-des-aoc-viticoles-de-linao/",
        "source_resource": "https://static.data.gouv.fr/resources/delimitation-parcellaire-des-aoc-viticoles-de-linao/20260921-213954/2026-09-21-delim-parcellaire-aoc-shp.zip",
        "source_edition": "2026-09-21",
        "source_sha256": "6f84e0622c2a27d35fc1ad7b39629856bc5038aa38b9d629758c2fb873801d81",
        "license": "Licence Ouverte 2.0",
        "id_denom": [
          447
        ],
        "marker_basis": "Interior label point of INAO parcel union; informational geometry, legal specification and municipal delimitation plans prevail",
        "accessed_on": "2026-09-26"
      },
      "geometry": {
        "type": "Point",
        "coordinates": [
          4.965184609388298,
          47.214440510763225
        ]
      }
    },
    {
      "type": "Feature",
      "properties": {
        "node": "n_geo_chambertin_clos_de_beze",
        "name": "Chambertin-Clos de Bèze",
        "source_url": "https://www.data.gouv.fr/datasets/delimitation-parcellaire-des-aoc-viticoles-de-linao/",
        "source_resource": "https://static.data.gouv.fr/resources/delimitation-parcellaire-des-aoc-viticoles-de-linao/20260921-213954/2026-09-21-delim-parcellaire-aoc-shp.zip",
        "source_edition": "2026-09-21",
        "source_sha256": "6f84e0622c2a27d35fc1ad7b39629856bc5038aa38b9d629758c2fb873801d81",
        "license": "Licence Ouverte 2.0",
        "id_denom": [
          448
        ],
        "marker_basis": "Area-weighted centroid of the INAO parcel union (interior-label-point algorithm returned no point); informational geometry, legal specification and municipal delimitation plans prevail",
        "accessed_on": "2026-09-26"
      },
      "geometry": {
        "type": "Point",
        "coordinates": [
          4.965849178878926,
          47.21655808935921
        ]
      }
    },
    {
      "type": "Feature",
      "properties": {
        "node": "n_geo_charmes_chambertin",
        "name": "Charmes-Chambertin",
        "source_url": "https://www.data.gouv.fr/datasets/delimitation-parcellaire-des-aoc-viticoles-de-linao/",
        "source_resource": "https://static.data.gouv.fr/resources/delimitation-parcellaire-des-aoc-viticoles-de-linao/20260921-213954/2026-09-21-delim-parcellaire-aoc-shp.zip",
        "source_edition": "2026-09-21",
        "source_sha256": "6f84e0622c2a27d35fc1ad7b39629856bc5038aa38b9d629758c2fb873801d81",
        "license": "Licence Ouverte 2.0",
        "id_denom": [
          477
        ],
        "marker_basis": "Interior label point of INAO parcel union; informational geometry, legal specification and municipal delimitation plans prevail",
        "accessed_on": "2026-09-26"
      },
      "geometry": {
        "type": "Point",
        "coordinates": [
          4.96769253244379,
          47.20819458430019
        ]
      }
    },
    {
      "type": "Feature",
      "properties": {
        "node": "n_geo_mazoyeres_chambertin",
        "name": "Mazoyères-Chambertin",
        "source_url": "https://www.data.gouv.fr/datasets/delimitation-parcellaire-des-aoc-viticoles-de-linao/",
        "source_resource": "https://static.data.gouv.fr/resources/delimitation-parcellaire-des-aoc-viticoles-de-linao/20260921-213954/2026-09-21-delim-parcellaire-aoc-shp.zip",
        "source_edition": "2026-09-21",
        "source_sha256": "6f84e0622c2a27d35fc1ad7b39629856bc5038aa38b9d629758c2fb873801d81",
        "license": "Licence Ouverte 2.0",
        "id_denom": [
          809
        ],
        "marker_basis": "Area-weighted centroid of the INAO parcel union (interior-label-point algorithm returned no point); informational geometry, legal specification and municipal delimitation plans prevail",
        "accessed_on": "2026-09-26"
      },
      "geometry": {
        "type": "Point",
        "coordinates": [
          4.96736965969888,
          47.208127888126064
        ]
      }
    },
    {
      "type": "Feature",
      "properties": {
        "node": "n_geo_chapelle_chambertin",
        "name": "Chapelle-Chambertin",
        "source_url": "https://www.data.gouv.fr/datasets/delimitation-parcellaire-des-aoc-viticoles-de-linao/",
        "source_resource": "https://static.data.gouv.fr/resources/delimitation-parcellaire-des-aoc-viticoles-de-linao/20260921-213954/2026-09-21-delim-parcellaire-aoc-shp.zip",
        "source_edition": "2026-09-21",
        "source_sha256": "6f84e0622c2a27d35fc1ad7b39629856bc5038aa38b9d629758c2fb873801d81",
        "license": "Licence Ouverte 2.0",
        "id_denom": [
          475
        ],
        "marker_basis": "Interior label point of INAO parcel union; informational geometry, legal specification and municipal delimitation plans prevail",
        "accessed_on": "2026-09-26"
      },
      "geometry": {
        "type": "Point",
        "coordinates": [
          4.968802478869444,
          47.21624761538657
        ]
      }
    },
    {
      "type": "Feature",
      "properties": {
        "node": "n_geo_griotte_chambertin",
        "name": "Griotte-Chambertin",
        "source_url": "https://www.data.gouv.fr/datasets/delimitation-parcellaire-des-aoc-viticoles-de-linao/",
        "source_resource": "https://static.data.gouv.fr/resources/delimitation-parcellaire-des-aoc-viticoles-de-linao/20260921-213954/2026-09-21-delim-parcellaire-aoc-shp.zip",
        "source_edition": "2026-09-21",
        "source_sha256": "6f84e0622c2a27d35fc1ad7b39629856bc5038aa38b9d629758c2fb873801d81",
        "license": "Licence Ouverte 2.0",
        "id_denom": [
          646
        ],
        "marker_basis": "Interior label point of INAO parcel union; informational geometry, legal specification and municipal delimitation plans prevail",
        "accessed_on": "2026-09-26"
      },
      "geometry": {
        "type": "Point",
        "coordinates": [
          4.968513303432869,
          47.21411981846367
        ]
      }
    },
    {
      "type": "Feature",
      "properties": {
        "node": "n_geo_latricieres_chambertin",
        "name": "Latricières-Chambertin",
        "source_url": "https://www.data.gouv.fr/datasets/delimitation-parcellaire-des-aoc-viticoles-de-linao/",
        "source_resource": "https://static.data.gouv.fr/resources/delimitation-parcellaire-des-aoc-viticoles-de-linao/20260921-213954/2026-09-21-delim-parcellaire-aoc-shp.zip",
        "source_edition": "2026-09-21",
        "source_sha256": "6f84e0622c2a27d35fc1ad7b39629856bc5038aa38b9d629758c2fb873801d81",
        "license": "Licence Ouverte 2.0",
        "id_denom": [
          666
        ],
        "marker_basis": "Interior label point of INAO parcel union; informational geometry, legal specification and municipal delimitation plans prevail",
        "accessed_on": "2026-09-26"
      },
      "geometry": {
        "type": "Point",
        "coordinates": [
          4.9638724368975415,
          47.20797377068682
        ]
      }
    },
    {
      "type": "Feature",
      "properties": {
        "node": "n_geo_mazis_chambertin",
        "name": "Mazis-Chambertin",
        "source_url": "https://www.data.gouv.fr/datasets/delimitation-parcellaire-des-aoc-viticoles-de-linao/",
        "source_resource": "https://static.data.gouv.fr/resources/delimitation-parcellaire-des-aoc-viticoles-de-linao/20260921-213954/2026-09-21-delim-parcellaire-aoc-shp.zip",
        "source_edition": "2026-09-21",
        "source_sha256": "6f84e0622c2a27d35fc1ad7b39629856bc5038aa38b9d629758c2fb873801d81",
        "license": "Licence Ouverte 2.0",
        "id_denom": [
          808
        ],
        "marker_basis": "Interior label point of INAO parcel union; informational geometry, legal specification and municipal delimitation plans prevail",
        "accessed_on": "2026-09-26"
      },
      "geometry": {
        "type": "Point",
        "coordinates": [
          4.9681415313570545,
          47.22109576805502
        ]
      }
    },
    {
      "type": "Feature",
      "properties": {
        "node": "n_geo_ruchottes_chambertin",
        "name": "Ruchottes-Chambertin",
        "source_url": "https://www.data.gouv.fr/datasets/delimitation-parcellaire-des-aoc-viticoles-de-linao/",
        "source_resource": "https://static.data.gouv.fr/resources/delimitation-parcellaire-des-aoc-viticoles-de-linao/20260921-213954/2026-09-21-delim-parcellaire-aoc-shp.zip",
        "source_edition": "2026-09-21",
        "source_sha256": "6f84e0622c2a27d35fc1ad7b39629856bc5038aa38b9d629758c2fb873801d81",
        "license": "Licence Ouverte 2.0",
        "id_denom": [
          1086
        ],
        "marker_basis": "Interior label point of INAO parcel union; informational geometry, legal specification and municipal delimitation plans prevail",
        "accessed_on": "2026-09-26"
      },
      "geometry": {
        "type": "Point",
        "coordinates": [
          4.9641921629137356,
          47.22052185063837
        ]
      }
    },
    {
      "type": "Feature",
      "properties": {
        "node": "n_geo_clos_de_la_roche",
        "name": "Clos de la Roche",
        "source_url": "https://www.data.gouv.fr/datasets/delimitation-parcellaire-des-aoc-viticoles-de-linao/",
        "source_resource": "https://static.data.gouv.fr/resources/delimitation-parcellaire-des-aoc-viticoles-de-linao/20260921-213954/2026-09-21-delim-parcellaire-aoc-shp.zip",
        "source_edition": "2026-09-21",
        "source_sha256": "6f84e0622c2a27d35fc1ad7b39629856bc5038aa38b9d629758c2fb873801d81",
        "license": "Licence Ouverte 2.0",
        "id_denom": [
          544
        ],
        "marker_basis": "Interior label point of INAO parcel union; informational geometry, legal specification and municipal delimitation plans prevail",
        "accessed_on": "2026-09-26"
      },
      "geometry": {
        "type": "Point",
        "coordinates": [
          4.963573858813514,
          47.20245180906883
        ]
      }
    },
    {
      "type": "Feature",
      "properties": {
        "node": "n_geo_clos_saint_denis",
        "name": "Clos Saint-Denis",
        "source_url": "https://www.data.gouv.fr/datasets/delimitation-parcellaire-des-aoc-viticoles-de-linao/",
        "source_resource": "https://static.data.gouv.fr/resources/delimitation-parcellaire-des-aoc-viticoles-de-linao/20260921-213954/2026-09-21-delim-parcellaire-aoc-shp.zip",
        "source_edition": "2026-09-21",
        "source_sha256": "6f84e0622c2a27d35fc1ad7b39629856bc5038aa38b9d629758c2fb873801d81",
        "license": "Licence Ouverte 2.0",
        "id_denom": [
          548
        ],
        "marker_basis": "Interior label point of INAO parcel union; informational geometry, legal specification and municipal delimitation plans prevail",
        "accessed_on": "2026-09-26"
      },
      "geometry": {
        "type": "Point",
        "coordinates": [
          4.961130339799706,
          47.20085825688398
        ]
      }
    },
    {
      "type": "Feature",
      "properties": {
        "node": "n_geo_clos_des_lambrays",
        "name": "Clos des Lambrays",
        "source_url": "https://www.data.gouv.fr/datasets/delimitation-parcellaire-des-aoc-viticoles-de-linao/",
        "source_resource": "https://static.data.gouv.fr/resources/delimitation-parcellaire-des-aoc-viticoles-de-linao/20260921-213954/2026-09-21-delim-parcellaire-aoc-shp.zip",
        "source_edition": "2026-09-21",
        "source_sha256": "6f84e0622c2a27d35fc1ad7b39629856bc5038aa38b9d629758c2fb873801d81",
        "license": "Licence Ouverte 2.0",
        "id_denom": [
          547
        ],
        "marker_basis": "Interior label point of INAO parcel union; informational geometry, legal specification and municipal delimitation plans prevail",
        "accessed_on": "2026-09-26"
      },
      "geometry": {
        "type": "Point",
        "coordinates": [
          4.95881049671025,
          47.19858899345185
        ]
      }
    },
    {
      "type": "Feature",
      "properties": {
        "node": "n_geo_clos_de_tart",
        "name": "Clos de Tart",
        "source_url": "https://www.data.gouv.fr/datasets/delimitation-parcellaire-des-aoc-viticoles-de-linao/",
        "source_resource": "https://static.data.gouv.fr/resources/delimitation-parcellaire-des-aoc-viticoles-de-linao/20260921-213954/2026-09-21-delim-parcellaire-aoc-shp.zip",
        "source_edition": "2026-09-21",
        "source_sha256": "6f84e0622c2a27d35fc1ad7b39629856bc5038aa38b9d629758c2fb873801d81",
        "license": "Licence Ouverte 2.0",
        "id_denom": [
          545
        ],
        "marker_basis": "Interior label point of INAO parcel union; informational geometry, legal specification and municipal delimitation plans prevail",
        "accessed_on": "2026-09-26"
      },
      "geometry": {
        "type": "Point",
        "coordinates": [
          4.959670467345508,
          47.19572076956201
        ]
      }
    },
    {
      "type": "Feature",
      "properties": {
        "node": "n_geo_bonnes_mares",
        "name": "Bonnes-Mares",
        "source_url": "https://www.data.gouv.fr/datasets/delimitation-parcellaire-des-aoc-viticoles-de-linao/",
        "source_resource": "https://static.data.gouv.fr/resources/delimitation-parcellaire-des-aoc-viticoles-de-linao/20260921-213954/2026-09-21-delim-parcellaire-aoc-shp.zip",
        "source_edition": "2026-09-21",
        "source_sha256": "6f84e0622c2a27d35fc1ad7b39629856bc5038aa38b9d629758c2fb873801d81",
        "license": "Licence Ouverte 2.0",
        "id_denom": [
          361
        ],
        "marker_basis": "Interior label point of INAO parcel union; informational geometry, legal specification and municipal delimitation plans prevail",
        "accessed_on": "2026-09-26"
      },
      "geometry": {
        "type": "Point",
        "coordinates": [
          4.958033341322823,
          47.192278552568894
        ]
      }
    },
    {
      "type": "Feature",
      "properties": {
        "node": "n_geo_musigny",
        "name": "Musigny",
        "source_url": "https://www.data.gouv.fr/datasets/delimitation-parcellaire-des-aoc-viticoles-de-linao/",
        "source_resource": "https://static.data.gouv.fr/resources/delimitation-parcellaire-des-aoc-viticoles-de-linao/20260921-213954/2026-09-21-delim-parcellaire-aoc-shp.zip",
        "source_edition": "2026-09-21",
        "source_sha256": "6f84e0622c2a27d35fc1ad7b39629856bc5038aa38b9d629758c2fb873801d81",
        "license": "Licence Ouverte 2.0",
        "id_denom": [
          973
        ],
        "marker_basis": "Interior label point of INAO parcel union; informational geometry, legal specification and municipal delimitation plans prevail",
        "accessed_on": "2026-09-26"
      },
      "geometry": {
        "type": "Point",
        "coordinates": [
          4.954642759848392,
          47.17875930831562
        ]
      }
    },
    {
      "type": "Feature",
      "properties": {
        "node": "n_geo_clos_de_vougeot",
        "name": "Clos de Vougeot",
        "source_url": "https://www.data.gouv.fr/datasets/delimitation-parcellaire-des-aoc-viticoles-de-linao/",
        "source_resource": "https://static.data.gouv.fr/resources/delimitation-parcellaire-des-aoc-viticoles-de-linao/20260921-213954/2026-09-21-delim-parcellaire-aoc-shp.zip",
        "source_edition": "2026-09-21",
        "source_sha256": "6f84e0622c2a27d35fc1ad7b39629856bc5038aa38b9d629758c2fb873801d81",
        "license": "Licence Ouverte 2.0",
        "id_denom": [
          546
        ],
        "marker_basis": "Interior label point of INAO parcel union; informational geometry, legal specification and municipal delimitation plans prevail",
        "accessed_on": "2026-09-26"
      },
      "geometry": {
        "type": "Point",
        "coordinates": [
          4.958829038407088,
          47.17223825909208
        ]
      }
    },
    {
      "type": "Feature",
      "properties": {
        "node": "n_geo_echezeaux",
        "name": "Échezeaux",
        "source_url": "https://www.data.gouv.fr/datasets/delimitation-parcellaire-des-aoc-viticoles-de-linao/",
        "source_resource": "https://static.data.gouv.fr/resources/delimitation-parcellaire-des-aoc-viticoles-de-linao/20260921-213954/2026-09-21-delim-parcellaire-aoc-shp.zip",
        "source_edition": "2026-09-21",
        "source_sha256": "6f84e0622c2a27d35fc1ad7b39629856bc5038aa38b9d629758c2fb873801d81",
        "license": "Licence Ouverte 2.0",
        "id_denom": [
          565
        ],
        "marker_basis": "Interior label point of INAO parcel union; informational geometry, legal specification and municipal delimitation plans prevail",
        "accessed_on": "2026-09-26"
      },
      "geometry": {
        "type": "Point",
        "coordinates": [
          4.949663034909789,
          47.17015581456613
        ]
      }
    },
    {
      "type": "Feature",
      "properties": {
        "node": "n_geo_grands_echezeaux",
        "name": "Grands Échezeaux",
        "source_url": "https://www.data.gouv.fr/datasets/delimitation-parcellaire-des-aoc-viticoles-de-linao/",
        "source_resource": "https://static.data.gouv.fr/resources/delimitation-parcellaire-des-aoc-viticoles-de-linao/20260921-213954/2026-09-21-delim-parcellaire-aoc-shp.zip",
        "source_edition": "2026-09-21",
        "source_sha256": "6f84e0622c2a27d35fc1ad7b39629856bc5038aa38b9d629758c2fb873801d81",
        "license": "Licence Ouverte 2.0",
        "id_denom": [
          645
        ],
        "marker_basis": "Interior label point of INAO parcel union; informational geometry, legal specification and municipal delimitation plans prevail",
        "accessed_on": "2026-09-26"
      },
      "geometry": {
        "type": "Point",
        "coordinates": [
          4.954052865623404,
          47.1706051439995
        ]
      }
    },
    {
      "type": "Feature",
      "properties": {
        "node": "n_geo_romanee_conti",
        "name": "Romanée-Conti",
        "source_url": "https://www.data.gouv.fr/datasets/delimitation-parcellaire-des-aoc-viticoles-de-linao/",
        "source_resource": "https://static.data.gouv.fr/resources/delimitation-parcellaire-des-aoc-viticoles-de-linao/20260921-213954/2026-09-21-delim-parcellaire-aoc-shp.zip",
        "source_edition": "2026-09-21",
        "source_sha256": "6f84e0622c2a27d35fc1ad7b39629856bc5038aa38b9d629758c2fb873801d81",
        "license": "Licence Ouverte 2.0",
        "id_denom": [
          1084
        ],
        "marker_basis": "Interior label point of INAO parcel union; informational geometry, legal specification and municipal delimitation plans prevail",
        "accessed_on": "2026-09-26"
      },
      "geometry": {
        "type": "Point",
        "coordinates": [
          4.9498943396548345,
          47.16153673158268
        ]
      }
    },
    {
      "type": "Feature",
      "properties": {
        "node": "n_geo_romanee_saint_vivant",
        "name": "Romanée-Saint-Vivant",
        "source_url": "https://www.data.gouv.fr/datasets/delimitation-parcellaire-des-aoc-viticoles-de-linao/",
        "source_resource": "https://static.data.gouv.fr/resources/delimitation-parcellaire-des-aoc-viticoles-de-linao/20260921-213954/2026-09-21-delim-parcellaire-aoc-shp.zip",
        "source_edition": "2026-09-21",
        "source_sha256": "6f84e0622c2a27d35fc1ad7b39629856bc5038aa38b9d629758c2fb873801d81",
        "license": "Licence Ouverte 2.0",
        "id_denom": [
          1085
        ],
        "marker_basis": "Interior label point of INAO parcel union; informational geometry, legal specification and municipal delimitation plans prevail",
        "accessed_on": "2026-09-26"
      },
      "geometry": {
        "type": "Point",
        "coordinates": [
          4.9519033739697145,
          47.1631207652745
        ]
      }
    },
    {
      "type": "Feature",
      "properties": {
        "node": "n_geo_la_romanee",
        "name": "La Romanée",
        "source_url": "https://www.data.gouv.fr/datasets/delimitation-parcellaire-des-aoc-viticoles-de-linao/",
        "source_resource": "https://static.data.gouv.fr/resources/delimitation-parcellaire-des-aoc-viticoles-de-linao/20260921-213954/2026-09-21-delim-parcellaire-aoc-shp.zip",
        "source_edition": "2026-09-21",
        "source_sha256": "6f84e0622c2a27d35fc1ad7b39629856bc5038aa38b9d629758c2fb873801d81",
        "license": "Licence Ouverte 2.0",
        "id_denom": [
          655
        ],
        "marker_basis": "Interior label point of INAO parcel union; informational geometry, legal specification and municipal delimitation plans prevail",
        "accessed_on": "2026-09-26"
      },
      "geometry": {
        "type": "Point",
        "coordinates": [
          4.948605918300679,
          47.161659045838945
        ]
      }
    },
    {
      "type": "Feature",
      "properties": {
        "node": "n_geo_la_tache",
        "name": "La Tâche",
        "source_url": "https://www.data.gouv.fr/datasets/delimitation-parcellaire-des-aoc-viticoles-de-linao/",
        "source_resource": "https://static.data.gouv.fr/resources/delimitation-parcellaire-des-aoc-viticoles-de-linao/20260921-213954/2026-09-21-delim-parcellaire-aoc-shp.zip",
        "source_edition": "2026-09-21",
        "source_sha256": "6f84e0622c2a27d35fc1ad7b39629856bc5038aa38b9d629758c2fb873801d81",
        "license": "Licence Ouverte 2.0",
        "id_denom": [
          656
        ],
        "marker_basis": "Interior label point of INAO parcel union; informational geometry, legal specification and municipal delimitation plans prevail",
        "accessed_on": "2026-09-26"
      },
      "geometry": {
        "type": "Point",
        "coordinates": [
          4.9493173819184415,
          47.15971505928252
        ]
      }
    },
    {
      "type": "Feature",
      "properties": {
        "node": "n_geo_richebourg",
        "name": "Richebourg",
        "source_url": "https://www.data.gouv.fr/datasets/delimitation-parcellaire-des-aoc-viticoles-de-linao/",
        "source_resource": "https://static.data.gouv.fr/resources/delimitation-parcellaire-des-aoc-viticoles-de-linao/20260921-213954/2026-09-21-delim-parcellaire-aoc-shp.zip",
        "source_edition": "2026-09-21",
        "source_sha256": "6f84e0622c2a27d35fc1ad7b39629856bc5038aa38b9d629758c2fb873801d81",
        "license": "Licence Ouverte 2.0",
        "id_denom": [
          1083
        ],
        "marker_basis": "Interior label point of INAO parcel union; informational geometry, legal specification and municipal delimitation plans prevail",
        "accessed_on": "2026-09-26"
      },
      "geometry": {
        "type": "Point",
        "coordinates": [
          4.948773029442669,
          47.16448315336742
        ]
      }
    },
    {
      "type": "Feature",
      "properties": {
        "node": "n_geo_la_grande_rue",
        "name": "La Grande Rue",
        "source_url": "https://www.data.gouv.fr/datasets/delimitation-parcellaire-des-aoc-viticoles-de-linao/",
        "source_resource": "https://static.data.gouv.fr/resources/delimitation-parcellaire-des-aoc-viticoles-de-linao/20260921-213954/2026-09-21-delim-parcellaire-aoc-shp.zip",
        "source_edition": "2026-09-21",
        "source_sha256": "6f84e0622c2a27d35fc1ad7b39629856bc5038aa38b9d629758c2fb873801d81",
        "license": "Licence Ouverte 2.0",
        "id_denom": [
          654
        ],
        "marker_basis": "Interior label point of INAO parcel union; informational geometry, legal specification and municipal delimitation plans prevail",
        "accessed_on": "2026-09-26"
      },
      "geometry": {
        "type": "Point",
        "coordinates": [
          4.950676062254147,
          47.16054631421355
        ]
      }
    },
    {
      "type": "Feature",
      "properties": {
        "node": "n_geo_corton",
        "name": "Corton",
        "source_url": "https://www.data.gouv.fr/datasets/delimitation-parcellaire-des-aoc-viticoles-de-linao/",
        "source_resource": "https://static.data.gouv.fr/resources/delimitation-parcellaire-des-aoc-viticoles-de-linao/20260921-213954/2026-09-21-delim-parcellaire-aoc-shp.zip",
        "source_edition": "2026-09-21",
        "source_sha256": "6f84e0622c2a27d35fc1ad7b39629856bc5038aa38b9d629758c2fb873801d81",
        "license": "Licence Ouverte 2.0",
        "id_denom": [
          549
        ],
        "marker_basis": "Interior label point of INAO parcel union; informational geometry, legal specification and municipal delimitation plans prevail",
        "accessed_on": "2026-09-26"
      },
      "geometry": {
        "type": "Point",
        "coordinates": [
          4.864896956093207,
          47.07366608083308
        ]
      }
    },
    {
      "type": "Feature",
      "properties": {
        "node": "n_geo_corton_charlemagne",
        "name": "Corton-Charlemagne",
        "source_url": "https://www.data.gouv.fr/datasets/delimitation-parcellaire-des-aoc-viticoles-de-linao/",
        "source_resource": "https://static.data.gouv.fr/resources/delimitation-parcellaire-des-aoc-viticoles-de-linao/20260921-213954/2026-09-21-delim-parcellaire-aoc-shp.zip",
        "source_edition": "2026-09-21",
        "source_sha256": "6f84e0622c2a27d35fc1ad7b39629856bc5038aa38b9d629758c2fb873801d81",
        "license": "Licence Ouverte 2.0",
        "id_denom": [
          550
        ],
        "marker_basis": "Interior label point of INAO parcel union; informational geometry, legal specification and municipal delimitation plans prevail",
        "accessed_on": "2026-09-26"
      },
      "geometry": {
        "type": "Point",
        "coordinates": [
          4.854356312485977,
          47.076434022896116
        ]
      }
    },
    {
      "type": "Feature",
      "properties": {
        "node": "n_geo_charlemagne",
        "name": "Charlemagne",
        "source_url": "https://www.data.gouv.fr/datasets/delimitation-parcellaire-des-aoc-viticoles-de-linao/",
        "source_resource": "https://static.data.gouv.fr/resources/delimitation-parcellaire-des-aoc-viticoles-de-linao/20260921-213954/2026-09-21-delim-parcellaire-aoc-shp.zip",
        "source_edition": "2026-09-21",
        "source_sha256": "6f84e0622c2a27d35fc1ad7b39629856bc5038aa38b9d629758c2fb873801d81",
        "license": "Licence Ouverte 2.0",
        "id_denom": [
          476
        ],
        "marker_basis": "Interior label point of INAO parcel union; informational geometry, legal specification and municipal delimitation plans prevail",
        "accessed_on": "2026-09-26"
      },
      "geometry": {
        "type": "Point",
        "coordinates": [
          4.855017863138903,
          47.078670556562436
        ]
      }
    },
    {
      "type": "Feature",
      "properties": {
        "node": "n_geo_montrachet",
        "name": "Montrachet",
        "source_url": "https://www.data.gouv.fr/datasets/delimitation-parcellaire-des-aoc-viticoles-de-linao/",
        "source_resource": "https://static.data.gouv.fr/resources/delimitation-parcellaire-des-aoc-viticoles-de-linao/20260921-213954/2026-09-21-delim-parcellaire-aoc-shp.zip",
        "source_edition": "2026-09-21",
        "source_sha256": "6f84e0622c2a27d35fc1ad7b39629856bc5038aa38b9d629758c2fb873801d81",
        "license": "Licence Ouverte 2.0",
        "id_denom": [
          927
        ],
        "marker_basis": "Interior label point of INAO parcel union; informational geometry, legal specification and municipal delimitation plans prevail",
        "accessed_on": "2026-09-26"
      },
      "geometry": {
        "type": "Point",
        "coordinates": [
          4.737171457782138,
          46.94384234441831
        ]
      }
    },
    {
      "type": "Feature",
      "properties": {
        "node": "n_geo_chevalier_montrachet",
        "name": "Chevalier-Montrachet",
        "source_url": "https://www.data.gouv.fr/datasets/delimitation-parcellaire-des-aoc-viticoles-de-linao/",
        "source_resource": "https://static.data.gouv.fr/resources/delimitation-parcellaire-des-aoc-viticoles-de-linao/20260921-213954/2026-09-21-delim-parcellaire-aoc-shp.zip",
        "source_edition": "2026-09-21",
        "source_sha256": "6f84e0622c2a27d35fc1ad7b39629856bc5038aa38b9d629758c2fb873801d81",
        "license": "Licence Ouverte 2.0",
        "id_denom": [
          539
        ],
        "marker_basis": "Interior label point of INAO parcel union; informational geometry, legal specification and municipal delimitation plans prevail",
        "accessed_on": "2026-09-26"
      },
      "geometry": {
        "type": "Point",
        "coordinates": [
          4.7372385385415035,
          46.94662646352567
        ]
      }
    },
    {
      "type": "Feature",
      "properties": {
        "node": "n_geo_batard_montrachet",
        "name": "Bâtard-Montrachet",
        "source_url": "https://www.data.gouv.fr/datasets/delimitation-parcellaire-des-aoc-viticoles-de-linao/",
        "source_resource": "https://static.data.gouv.fr/resources/delimitation-parcellaire-des-aoc-viticoles-de-linao/20260921-213954/2026-09-21-delim-parcellaire-aoc-shp.zip",
        "source_edition": "2026-09-21",
        "source_sha256": "6f84e0622c2a27d35fc1ad7b39629856bc5038aa38b9d629758c2fb873801d81",
        "license": "Licence Ouverte 2.0",
        "id_denom": [
          273
        ],
        "marker_basis": "Interior label point of INAO parcel union; informational geometry, legal specification and municipal delimitation plans prevail",
        "accessed_on": "2026-09-26"
      },
      "geometry": {
        "type": "Point",
        "coordinates": [
          4.739245402065648,
          46.942988831703445
        ]
      }
    },
    {
      "type": "Feature",
      "properties": {
        "node": "n_geo_bienvenues_batard_montrachet",
        "name": "Bienvenues-Bâtard-Montrachet",
        "source_url": "https://www.data.gouv.fr/datasets/delimitation-parcellaire-des-aoc-viticoles-de-linao/",
        "source_resource": "https://static.data.gouv.fr/resources/delimitation-parcellaire-des-aoc-viticoles-de-linao/20260921-213954/2026-09-21-delim-parcellaire-aoc-shp.zip",
        "source_edition": "2026-09-21",
        "source_sha256": "6f84e0622c2a27d35fc1ad7b39629856bc5038aa38b9d629758c2fb873801d81",
        "license": "Licence Ouverte 2.0",
        "id_denom": [
          351
        ],
        "marker_basis": "Interior label point of INAO parcel union; informational geometry, legal specification and municipal delimitation plans prevail",
        "accessed_on": "2026-09-26"
      },
      "geometry": {
        "type": "Point",
        "coordinates": [
          4.742233669738069,
          46.94564841189066
        ]
      }
    },
    {
      "type": "Feature",
      "properties": {
        "node": "n_geo_criots_batard_montrachet",
        "name": "Criots-Bâtard-Montrachet",
        "source_url": "https://www.data.gouv.fr/datasets/delimitation-parcellaire-des-aoc-viticoles-de-linao/",
        "source_resource": "https://static.data.gouv.fr/resources/delimitation-parcellaire-des-aoc-viticoles-de-linao/20260921-213954/2026-09-21-delim-parcellaire-aoc-shp.zip",
        "source_edition": "2026-09-21",
        "source_sha256": "6f84e0622c2a27d35fc1ad7b39629856bc5038aa38b9d629758c2fb873801d81",
        "license": "Licence Ouverte 2.0",
        "id_denom": [
          564
        ],
        "marker_basis": "Interior label point of INAO parcel union; informational geometry, legal specification and municipal delimitation plans prevail",
        "accessed_on": "2026-09-26"
      },
      "geometry": {
        "type": "Point",
        "coordinates": [
          4.737860894189151,
          46.94119879909375
        ]
      }
    },
    {
      "type": "Feature",
      "properties": {
        "node": "n_geo_alsace_grand_cru_schlossberg",
        "name": "Alsace Grand Cru Schlossberg",
        "source_url": "https://www.data.gouv.fr/datasets/delimitation-parcellaire-des-aoc-viticoles-de-linao/",
        "source_resource": "https://static.data.gouv.fr/resources/delimitation-parcellaire-des-aoc-viticoles-de-linao/20260921-213954/2026-09-21-delim-parcellaire-aoc-shp.zip",
        "source_edition": "2026-09-21",
        "source_sha256": "6f84e0622c2a27d35fc1ad7b39629856bc5038aa38b9d629758c2fb873801d81",
        "license": "Licence Ouverte 2.0",
        "id_denom": [
          39
        ],
        "marker_basis": "Interior label point of INAO parcel union; informational geometry, legal specification and municipal delimitation plans prevail",
        "accessed_on": "2026-09-26"
      },
      "geometry": {
        "type": "Point",
        "coordinates": [
          7.269486342007479,
          48.14180581568136
        ]
      }
    },
    {
      "type": "Feature",
      "properties": {
        "node": "n_geo_alsace_grand_cru_rangen",
        "name": "Alsace Grand Cru Rangen",
        "source_url": "https://www.data.gouv.fr/datasets/delimitation-parcellaire-des-aoc-viticoles-de-linao/",
        "source_resource": "https://static.data.gouv.fr/resources/delimitation-parcellaire-des-aoc-viticoles-de-linao/20260921-213954/2026-09-21-delim-parcellaire-aoc-shp.zip",
        "source_edition": "2026-09-21",
        "source_sha256": "6f84e0622c2a27d35fc1ad7b39629856bc5038aa38b9d629758c2fb873801d81",
        "license": "Licence Ouverte 2.0",
        "id_denom": [
          36
        ],
        "marker_basis": "Interior label point of INAO parcel union; informational geometry, legal specification and municipal delimitation plans prevail",
        "accessed_on": "2026-09-26"
      },
      "geometry": {
        "type": "Point",
        "coordinates": [
          7.113344949137001,
          47.81123479949293
        ]
      }
    },
    {
      "type": "Feature",
      "properties": {
        "node": "n_geo_alsace_grand_cru_hengst",
        "name": "Alsace Grand Cru Hengst",
        "source_url": "https://www.data.gouv.fr/datasets/delimitation-parcellaire-des-aoc-viticoles-de-linao/",
        "source_resource": "https://static.data.gouv.fr/resources/delimitation-parcellaire-des-aoc-viticoles-de-linao/20260921-213954/2026-09-21-delim-parcellaire-aoc-shp.zip",
        "source_edition": "2026-09-21",
        "source_sha256": "6f84e0622c2a27d35fc1ad7b39629856bc5038aa38b9d629758c2fb873801d81",
        "license": "Licence Ouverte 2.0",
        "id_denom": [
          19
        ],
        "marker_basis": "Interior label point of INAO parcel union; informational geometry, legal specification and municipal delimitation plans prevail",
        "accessed_on": "2026-09-26"
      },
      "geometry": {
        "type": "Point",
        "coordinates": [
          7.286331740104418,
          48.06213278529389
        ]
      }
    },
    {
      "type": "Feature",
      "properties": {
        "node": "n_geo_alsace_grand_cru_kirchberg_de_barr",
        "name": "Alsace Grand Cru Kirchberg de Barr",
        "source_url": "https://www.data.gouv.fr/datasets/delimitation-parcellaire-des-aoc-viticoles-de-linao/",
        "source_resource": "https://static.data.gouv.fr/resources/delimitation-parcellaire-des-aoc-viticoles-de-linao/20260921-213954/2026-09-21-delim-parcellaire-aoc-shp.zip",
        "source_edition": "2026-09-21",
        "source_sha256": "6f84e0622c2a27d35fc1ad7b39629856bc5038aa38b9d629758c2fb873801d81",
        "license": "Licence Ouverte 2.0",
        "id_denom": [
          23
        ],
        "marker_basis": "Interior label point of INAO parcel union; informational geometry, legal specification and municipal delimitation plans prevail",
        "accessed_on": "2026-09-26"
      },
      "geometry": {
        "type": "Point",
        "coordinates": [
          7.442349645486258,
          48.41026849635002
        ]
      }
    },
    {
      "type": "Feature",
      "properties": {
        "node": "n_geo_alsace_grand_cru_zotzenberg",
        "name": "Alsace Grand Cru Zotzenberg",
        "source_url": "https://www.data.gouv.fr/datasets/delimitation-parcellaire-des-aoc-viticoles-de-linao/",
        "source_resource": "https://static.data.gouv.fr/resources/delimitation-parcellaire-des-aoc-viticoles-de-linao/20260921-213954/2026-09-21-delim-parcellaire-aoc-shp.zip",
        "source_edition": "2026-09-21",
        "source_sha256": "6f84e0622c2a27d35fc1ad7b39629856bc5038aa38b9d629758c2fb873801d81",
        "license": "Licence Ouverte 2.0",
        "id_denom": [
          53
        ],
        "marker_basis": "Interior label point of INAO parcel union; informational geometry, legal specification and municipal delimitation plans prevail",
        "accessed_on": "2026-09-26"
      },
      "geometry": {
        "type": "Point",
        "coordinates": [
          7.438948341573072,
          48.399781958086685
        ]
      }
    },
    {
      "type": "Feature",
      "properties": {
        "node": "n_geo_alsace_grand_cru_kaefferkopf",
        "name": "Alsace Grand Cru Kaefferkopf",
        "source_url": "https://www.data.gouv.fr/datasets/delimitation-parcellaire-des-aoc-viticoles-de-linao/",
        "source_resource": "https://static.data.gouv.fr/resources/delimitation-parcellaire-des-aoc-viticoles-de-linao/20260921-213954/2026-09-21-delim-parcellaire-aoc-shp.zip",
        "source_edition": "2026-09-21",
        "source_sha256": "6f84e0622c2a27d35fc1ad7b39629856bc5038aa38b9d629758c2fb873801d81",
        "license": "Licence Ouverte 2.0",
        "id_denom": [
          1765
        ],
        "marker_basis": "Interior label point of INAO parcel union; informational geometry, legal specification and municipal delimitation plans prevail",
        "accessed_on": "2026-09-26"
      },
      "geometry": {
        "type": "Point",
        "coordinates": [
          7.285095503222577,
          48.116024959944795
        ]
      }
    },
    {
      "type": "Feature",
      "properties": {
        "node": "n_geo_alsace_grand_cru_altenberg_de_bergheim",
        "name": "Alsace Grand Cru Altenberg de Bergheim",
        "source_url": "https://www.data.gouv.fr/datasets/delimitation-parcellaire-des-aoc-viticoles-de-linao/",
        "source_resource": "https://static.data.gouv.fr/resources/delimitation-parcellaire-des-aoc-viticoles-de-linao/20260921-213954/2026-09-21-delim-parcellaire-aoc-shp.zip",
        "source_edition": "2026-09-21",
        "source_sha256": "6f84e0622c2a27d35fc1ad7b39629856bc5038aa38b9d629758c2fb873801d81",
        "license": "Licence Ouverte 2.0",
        "id_denom": [
          5
        ],
        "marker_basis": "Interior label point of INAO parcel union; informational geometry, legal specification and municipal delimitation plans prevail",
        "accessed_on": "2026-09-26"
      },
      "geometry": {
        "type": "Point",
        "coordinates": [
          7.356440417415444,
          48.20999505979197
        ]
      }
    },
    {
      "type": "Feature",
      "properties": {
        "node": "n_geo_alsace_grand_cru_brand",
        "name": "Alsace Grand Cru Brand",
        "source_url": "https://www.data.gouv.fr/datasets/delimitation-parcellaire-des-aoc-viticoles-de-linao/",
        "source_resource": "https://static.data.gouv.fr/resources/delimitation-parcellaire-des-aoc-viticoles-de-linao/20260921-213954/2026-09-21-delim-parcellaire-aoc-shp.zip",
        "source_edition": "2026-09-21",
        "source_sha256": "6f84e0622c2a27d35fc1ad7b39629856bc5038aa38b9d629758c2fb873801d81",
        "license": "Licence Ouverte 2.0",
        "id_denom": [
          7
        ],
        "marker_basis": "Interior label point of INAO parcel union; informational geometry, legal specification and municipal delimitation plans prevail",
        "accessed_on": "2026-09-26"
      },
      "geometry": {
        "type": "Point",
        "coordinates": [
          7.274163684725144,
          48.08911638008144
        ]
      }
    },
    {
      "type": "Feature",
      "properties": {
        "node": "n_geo_alsace_grand_cru_rosacker",
        "name": "Alsace Grand Cru Rosacker",
        "source_url": "https://www.data.gouv.fr/datasets/delimitation-parcellaire-des-aoc-viticoles-de-linao/",
        "source_resource": "https://static.data.gouv.fr/resources/delimitation-parcellaire-des-aoc-viticoles-de-linao/20260921-213954/2026-09-21-delim-parcellaire-aoc-shp.zip",
        "source_edition": "2026-09-21",
        "source_sha256": "6f84e0622c2a27d35fc1ad7b39629856bc5038aa38b9d629758c2fb873801d81",
        "license": "Licence Ouverte 2.0",
        "id_denom": [
          37
        ],
        "marker_basis": "Interior label point of INAO parcel union; informational geometry, legal specification and municipal delimitation plans prevail",
        "accessed_on": "2026-09-26"
      },
      "geometry": {
        "type": "Point",
        "coordinates": [
          7.307012393401235,
          48.18257338716932
        ]
      }
    },
    {
      "type": "Feature",
      "properties": {
        "node": "n_geo_alsace_grand_cru_schoenenbourg",
        "name": "Alsace Grand Cru Schoenenbourg",
        "source_url": "https://www.data.gouv.fr/datasets/delimitation-parcellaire-des-aoc-viticoles-de-linao/",
        "source_resource": "https://static.data.gouv.fr/resources/delimitation-parcellaire-des-aoc-viticoles-de-linao/20260921-213954/2026-09-21-delim-parcellaire-aoc-shp.zip",
        "source_edition": "2026-09-21",
        "source_sha256": "6f84e0622c2a27d35fc1ad7b39629856bc5038aa38b9d629758c2fb873801d81",
        "license": "Licence Ouverte 2.0",
        "id_denom": [
          40
        ],
        "marker_basis": "Interior label point of INAO parcel union; informational geometry, legal specification and municipal delimitation plans prevail",
        "accessed_on": "2026-09-26"
      },
      "geometry": {
        "type": "Point",
        "coordinates": [
          7.303876149873553,
          48.16872210431055
        ]
      }
    },
    {
      "type": "Feature",
      "properties": {
        "node": "n_geo_jura",
        "name": "Jura",
        "source_url": "https://www.data.gouv.fr/datasets/delimitation-parcellaire-des-aoc-viticoles-de-linao/",
        "source_resource": "https://static.data.gouv.fr/resources/delimitation-parcellaire-des-aoc-viticoles-de-linao/20260921-213954/2026-09-21-delim-parcellaire-aoc-shp.zip",
        "source_edition": "2026-09-21",
        "source_sha256": "6f84e0622c2a27d35fc1ad7b39629856bc5038aa38b9d629758c2fb873801d81",
        "license": "Licence Ouverte 2.0",
        "id_denom": [
          559
        ],
        "marker_basis": "Representative Côtes du Jura appellation parcel point within Jura, not a region boundary",
        "accessed_on": "2026-09-26"
      },
      "geometry": {
        "type": "Point",
        "coordinates": [
          5.607254977780927,
          46.73318033564376
        ]
      }
    },
    {
      "type": "Feature",
      "properties": {
        "node": "n_geo_cotes_du_jura",
        "name": "Côtes du Jura",
        "source_url": "https://www.data.gouv.fr/datasets/delimitation-parcellaire-des-aoc-viticoles-de-linao/",
        "source_resource": "https://static.data.gouv.fr/resources/delimitation-parcellaire-des-aoc-viticoles-de-linao/20260921-213954/2026-09-21-delim-parcellaire-aoc-shp.zip",
        "source_edition": "2026-09-21",
        "source_sha256": "6f84e0622c2a27d35fc1ad7b39629856bc5038aa38b9d629758c2fb873801d81",
        "license": "Licence Ouverte 2.0",
        "id_denom": [
          559
        ],
        "marker_basis": "Interior label point of INAO parcel union; informational geometry, legal specification and municipal delimitation plans prevail",
        "accessed_on": "2026-09-26"
      },
      "geometry": {
        "type": "Point",
        "coordinates": [
          5.607254977780927,
          46.73318033564376
        ]
      }
    },
    {
      "type": "Feature",
      "properties": {
        "node": "n_geo_cremant_du_jura",
        "name": "Crémant du Jura",
        "source_url": "https://www.data.gouv.fr/datasets/delimitation-parcellaire-des-aoc-viticoles-de-linao/",
        "source_resource": "https://static.data.gouv.fr/resources/delimitation-parcellaire-des-aoc-viticoles-de-linao/20260921-213954/2026-09-21-delim-parcellaire-aoc-shp.zip",
        "source_edition": "2026-09-21",
        "source_sha256": "6f84e0622c2a27d35fc1ad7b39629856bc5038aa38b9d629758c2fb873801d81",
        "license": "Licence Ouverte 2.0",
        "id_denom": [
          562
        ],
        "marker_basis": "Interior label point of INAO parcel union; informational geometry, legal specification and municipal delimitation plans prevail",
        "accessed_on": "2026-09-26"
      },
      "geometry": {
        "type": "Point",
        "coordinates": [
          5.624556297334897,
          46.87687457078033
        ]
      }
    },
    {
      "type": "Feature",
      "properties": {
        "node": "n_geo_macvin_du_jura",
        "name": "Macvin du Jura",
        "source_url": "https://www.data.gouv.fr/datasets/delimitation-parcellaire-des-aoc-viticoles-de-linao/",
        "source_resource": "https://static.data.gouv.fr/resources/delimitation-parcellaire-des-aoc-viticoles-de-linao/20260921-213954/2026-09-21-delim-parcellaire-aoc-shp.zip",
        "source_edition": "2026-09-21",
        "source_sha256": "6f84e0622c2a27d35fc1ad7b39629856bc5038aa38b9d629758c2fb873801d81",
        "license": "Licence Ouverte 2.0",
        "id_denom": [
          1285
        ],
        "marker_basis": "Interior label point of INAO parcel union; informational geometry, legal specification and municipal delimitation plans prevail",
        "accessed_on": "2026-09-26"
      },
      "geometry": {
        "type": "Point",
        "coordinates": [
          5.495322645710461,
          46.630578887960546
        ]
      }
    },
    {
      "type": "Feature",
      "properties": {
        "node": "n_geo_southwest_france",
        "name": "Southwest France",
        "source_url": "https://www.data.gouv.fr/datasets/delimitation-parcellaire-des-aoc-viticoles-de-linao/",
        "source_resource": "https://static.data.gouv.fr/resources/delimitation-parcellaire-des-aoc-viticoles-de-linao/20260921-213954/2026-09-21-delim-parcellaire-aoc-shp.zip",
        "source_edition": "2026-09-21",
        "source_sha256": "6f84e0622c2a27d35fc1ad7b39629856bc5038aa38b9d629758c2fb873801d81",
        "license": "Licence Ouverte 2.0",
        "id_denom": [
          110
        ],
        "marker_basis": "Representative Marcillac appellation parcel point within Southwest France, not a region boundary",
        "accessed_on": "2026-09-26"
      },
      "geometry": {
        "type": "Point",
        "coordinates": [
          2.436812774573068,
          44.47905777496033
        ]
      }
    },
    {
      "type": "Feature",
      "properties": {
        "node": "n_geo_marcillac",
        "name": "Marcillac",
        "source_url": "https://www.data.gouv.fr/datasets/delimitation-parcellaire-des-aoc-viticoles-de-linao/",
        "source_resource": "https://static.data.gouv.fr/resources/delimitation-parcellaire-des-aoc-viticoles-de-linao/20260921-213954/2026-09-21-delim-parcellaire-aoc-shp.zip",
        "source_edition": "2026-09-21",
        "source_sha256": "6f84e0622c2a27d35fc1ad7b39629856bc5038aa38b9d629758c2fb873801d81",
        "license": "Licence Ouverte 2.0",
        "id_denom": [
          110
        ],
        "marker_basis": "Interior label point of INAO parcel union; informational geometry, legal specification and municipal delimitation plans prevail",
        "accessed_on": "2026-09-26"
      },
      "geometry": {
        "type": "Point",
        "coordinates": [
          2.436812774573068,
          44.47905777496033
        ]
      }
    }
  ]
}
