{
  "type": "FeatureCollection",
  "features": [
    {
      "type": "Feature",
      "properties": {
        "node": "n_geo_chablis_pc_cote_de_fontenay",
        "name": "Côte de Fontenay",
        "source_url": "https://www.wikidata.org/wiki/Special:EntityData/Q1139642.json",
        "source_place_name": "Fontenay-près-Chablis",
        "wikidata_id": "Q1139642",
        "license": "CC0 1.0",
        "marker_basis": "Representative locality marker for Fontenay-près-Chablis; not a vineyard marker or a boundary of Côte de Fontenay. Precise climat geometry is unavailable in the pinned sources.",
        "name_association_source": "https://www.inao.gouv.fr/produit/chablis-premier-cru-fourchaume-23059",
        "accessed_on": "2026-09-26"
      },
      "geometry": {
        "type": "Point",
        "coordinates": [
          3.8108333333333,
          47.847222222222
        ]
      }
    }
  ]
}
