{
  "type": "FeatureCollection",
  "features": [
    {
      "type": "Feature",
      "properties": {
        "node": "n_geo_chablis_pc_vaupulent",
        "name": "Vaupulent",
        "source_url": "https://www.data.gouv.fr/datasets/delimitation-parcellaire-des-aoc-viticoles-de-linao/",
        "source_resource": "https://static.data.gouv.fr/resources/delimitation-parcellaire-des-aoc-viticoles-de-linao/20260921-213954/2026-09-21-delim-parcellaire-aoc-shp.zip",
        "source_edition": "2026-09-21",
        "source_sha256": "6f84e0622c2a27d35fc1ad7b39629856bc5038aa38b9d629758c2fb873801d81",
        "license": "Licence Ouverte 2.0",
        "id_denom": [
          435
        ],
        "marker_basis": "Interior point of INAO parcel union; location reference, not a legal boundary",
        "accessed_on": "2026-09-26"
      },
      "geometry": {
        "type": "Point",
        "coordinates": [
          3.7880096608075067,
          47.837399895378645
        ]
      }
    },
    {
      "type": "Feature",
      "properties": {
        "node": "n_geo_chablis_pc_vaugiraut",
        "name": "Vaugiraut",
        "source_url": "https://www.data.gouv.fr/datasets/delimitation-parcellaire-des-aoc-viticoles-de-linao/",
        "source_resource": "https://static.data.gouv.fr/resources/delimitation-parcellaire-des-aoc-viticoles-de-linao/20260921-213954/2026-09-21-delim-parcellaire-aoc-shp.zip",
        "source_edition": "2026-09-21",
        "source_sha256": "6f84e0622c2a27d35fc1ad7b39629856bc5038aa38b9d629758c2fb873801d81",
        "license": "Licence Ouverte 2.0",
        "id_denom": [
          433
        ],
        "marker_basis": "Interior point of INAO parcel union; location reference, not a legal boundary",
        "accessed_on": "2026-09-26"
      },
      "geometry": {
        "type": "Point",
        "coordinates": [
          3.8103618417165834,
          47.79358426322164
        ]
      }
    },
    {
      "type": "Feature",
      "properties": {
        "node": "n_geo_chablis_pc_les_fourneaux",
        "name": "Les Fourneaux",
        "source_url": "https://www.data.gouv.fr/datasets/delimitation-parcellaire-des-aoc-viticoles-de-linao/",
        "source_resource": "https://static.data.gouv.fr/resources/delimitation-parcellaire-des-aoc-viticoles-de-linao/20260921-213954/2026-09-21-delim-parcellaire-aoc-shp.zip",
        "source_edition": "2026-09-21",
        "source_sha256": "6f84e0622c2a27d35fc1ad7b39629856bc5038aa38b9d629758c2fb873801d81",
        "license": "Licence Ouverte 2.0",
        "id_denom": [
          418
        ],
        "marker_basis": "Interior point of INAO parcel union; location reference, not a legal boundary",
        "accessed_on": "2026-09-26"
      },
      "geometry": {
        "type": "Point",
        "coordinates": [
          3.8668101897019898,
          47.817580936587134
        ]
      }
    },
    {
      "type": "Feature",
      "properties": {
        "node": "n_geo_chablis_pc_chaume_de_talvat",
        "name": "Chaume de Talvat",
        "source_url": "https://www.data.gouv.fr/datasets/delimitation-parcellaire-des-aoc-viticoles-de-linao/",
        "source_resource": "https://static.data.gouv.fr/resources/delimitation-parcellaire-des-aoc-viticoles-de-linao/20260921-213954/2026-09-21-delim-parcellaire-aoc-shp.zip",
        "source_edition": "2026-09-21",
        "source_sha256": "6f84e0622c2a27d35fc1ad7b39629856bc5038aa38b9d629758c2fb873801d81",
        "license": "Licence Ouverte 2.0",
        "id_denom": [
          404
        ],
        "marker_basis": "Interior point of INAO parcel union; location reference, not a legal boundary",
        "accessed_on": "2026-09-26"
      },
      "geometry": {
        "type": "Point",
        "coordinates": [
          3.7481922229841502,
          47.77818910792387
        ]
      }
    },
    {
      "type": "Feature",
      "properties": {
        "node": "n_geo_chablis_pc_cote_de_jouan",
        "name": "Côte de Jouan",
        "source_url": "https://www.data.gouv.fr/datasets/delimitation-parcellaire-des-aoc-viticoles-de-linao/",
        "source_resource": "https://static.data.gouv.fr/resources/delimitation-parcellaire-des-aoc-viticoles-de-linao/20260921-213954/2026-09-21-delim-parcellaire-aoc-shp.zip",
        "source_edition": "2026-09-21",
        "source_sha256": "6f84e0622c2a27d35fc1ad7b39629856bc5038aa38b9d629758c2fb873801d81",
        "license": "Licence Ouverte 2.0",
        "id_denom": [
          408
        ],
        "marker_basis": "Interior point of INAO parcel union; location reference, not a legal boundary",
        "accessed_on": "2026-09-26"
      },
      "geometry": {
        "type": "Point",
        "coordinates": [
          3.7500299115247278,
          47.777154217864506
        ]
      }
    },
    {
      "type": "Feature",
      "properties": {
        "node": "n_geo_chablis_pc_les_beauregards",
        "name": "Les Beauregards",
        "source_url": "https://www.data.gouv.fr/datasets/delimitation-parcellaire-des-aoc-viticoles-de-linao/",
        "source_resource": "https://static.data.gouv.fr/resources/delimitation-parcellaire-des-aoc-viticoles-de-linao/20260921-213954/2026-09-21-delim-parcellaire-aoc-shp.zip",
        "source_edition": "2026-09-21",
        "source_sha256": "6f84e0622c2a27d35fc1ad7b39629856bc5038aa38b9d629758c2fb873801d81",
        "license": "Licence Ouverte 2.0",
        "id_denom": [
          416
        ],
        "marker_basis": "Interior point of INAO parcel union; location reference, not a legal boundary",
        "accessed_on": "2026-09-26"
      },
      "geometry": {
        "type": "Point",
        "coordinates": [
          3.74862803940142,
          47.76815310398439
        ]
      }
    },
    {
      "type": "Feature",
      "properties": {
        "node": "n_geo_alsace_grand_cru_altenberg_de_bergbieten",
        "name": "Alsace Grand Cru Altenberg de Bergbieten",
        "source_url": "https://www.data.gouv.fr/datasets/delimitation-parcellaire-des-aoc-viticoles-de-linao/",
        "source_resource": "https://static.data.gouv.fr/resources/delimitation-parcellaire-des-aoc-viticoles-de-linao/20260921-213954/2026-09-21-delim-parcellaire-aoc-shp.zip",
        "source_edition": "2026-09-21",
        "source_sha256": "6f84e0622c2a27d35fc1ad7b39629856bc5038aa38b9d629758c2fb873801d81",
        "license": "Licence Ouverte 2.0",
        "id_denom": [
          4
        ],
        "marker_basis": "Interior point of INAO parcel union; location reference, not a legal boundary",
        "accessed_on": "2026-09-26"
      },
      "geometry": {
        "type": "Point",
        "coordinates": [
          7.462014506119102,
          48.58593711343929
        ]
      }
    },
    {
      "type": "Feature",
      "properties": {
        "node": "n_geo_alsace_grand_cru_altenberg_de_wolxheim",
        "name": "Alsace Grand Cru Altenberg de Wolxheim",
        "source_url": "https://www.data.gouv.fr/datasets/delimitation-parcellaire-des-aoc-viticoles-de-linao/",
        "source_resource": "https://static.data.gouv.fr/resources/delimitation-parcellaire-des-aoc-viticoles-de-linao/20260921-213954/2026-09-21-delim-parcellaire-aoc-shp.zip",
        "source_edition": "2026-09-21",
        "source_sha256": "6f84e0622c2a27d35fc1ad7b39629856bc5038aa38b9d629758c2fb873801d81",
        "license": "Licence Ouverte 2.0",
        "id_denom": [
          6
        ],
        "marker_basis": "Interior point of INAO parcel union; location reference, not a legal boundary",
        "accessed_on": "2026-09-26"
      },
      "geometry": {
        "type": "Point",
        "coordinates": [
          7.507907226799124,
          48.57216771936894
        ]
      }
    },
    {
      "type": "Feature",
      "properties": {
        "node": "n_geo_alsace_grand_cru_bruderthal",
        "name": "Alsace Grand Cru Bruderthal",
        "source_url": "https://www.data.gouv.fr/datasets/delimitation-parcellaire-des-aoc-viticoles-de-linao/",
        "source_resource": "https://static.data.gouv.fr/resources/delimitation-parcellaire-des-aoc-viticoles-de-linao/20260921-213954/2026-09-21-delim-parcellaire-aoc-shp.zip",
        "source_edition": "2026-09-21",
        "source_sha256": "6f84e0622c2a27d35fc1ad7b39629856bc5038aa38b9d629758c2fb873801d81",
        "license": "Licence Ouverte 2.0",
        "id_denom": [
          8
        ],
        "marker_basis": "Interior point of INAO parcel union; location reference, not a legal boundary",
        "accessed_on": "2026-09-26"
      },
      "geometry": {
        "type": "Point",
        "coordinates": [
          7.482965314261749,
          48.54872807520433
        ]
      }
    },
    {
      "type": "Feature",
      "properties": {
        "node": "n_geo_alsace_grand_cru_eichberg",
        "name": "Alsace Grand Cru Eichberg",
        "source_url": "https://www.data.gouv.fr/datasets/delimitation-parcellaire-des-aoc-viticoles-de-linao/",
        "source_resource": "https://static.data.gouv.fr/resources/delimitation-parcellaire-des-aoc-viticoles-de-linao/20260921-213954/2026-09-21-delim-parcellaire-aoc-shp.zip",
        "source_edition": "2026-09-21",
        "source_sha256": "6f84e0622c2a27d35fc1ad7b39629856bc5038aa38b9d629758c2fb873801d81",
        "license": "Licence Ouverte 2.0",
        "id_denom": [
          9
        ],
        "marker_basis": "Interior point of INAO parcel union; location reference, not a legal boundary",
        "accessed_on": "2026-09-26"
      },
      "geometry": {
        "type": "Point",
        "coordinates": [
          7.293423863250808,
          48.03113204912578
        ]
      }
    },
    {
      "type": "Feature",
      "properties": {
        "node": "n_geo_alsace_grand_cru_engelberg",
        "name": "Alsace Grand Cru Engelberg",
        "source_url": "https://www.data.gouv.fr/datasets/delimitation-parcellaire-des-aoc-viticoles-de-linao/",
        "source_resource": "https://static.data.gouv.fr/resources/delimitation-parcellaire-des-aoc-viticoles-de-linao/20260921-213954/2026-09-21-delim-parcellaire-aoc-shp.zip",
        "source_edition": "2026-09-21",
        "source_sha256": "6f84e0622c2a27d35fc1ad7b39629856bc5038aa38b9d629758c2fb873801d81",
        "license": "Licence Ouverte 2.0",
        "id_denom": [
          10
        ],
        "marker_basis": "Interior point of INAO parcel union; location reference, not a legal boundary",
        "accessed_on": "2026-09-26"
      },
      "geometry": {
        "type": "Point",
        "coordinates": [
          7.494234670323664,
          48.58276196309727
        ]
      }
    },
    {
      "type": "Feature",
      "properties": {
        "node": "n_geo_alsace_grand_cru_florimont",
        "name": "Alsace Grand Cru Florimont",
        "source_url": "https://www.data.gouv.fr/datasets/delimitation-parcellaire-des-aoc-viticoles-de-linao/",
        "source_resource": "https://static.data.gouv.fr/resources/delimitation-parcellaire-des-aoc-viticoles-de-linao/20260921-213954/2026-09-21-delim-parcellaire-aoc-shp.zip",
        "source_edition": "2026-09-21",
        "source_sha256": "6f84e0622c2a27d35fc1ad7b39629856bc5038aa38b9d629758c2fb873801d81",
        "license": "Licence Ouverte 2.0",
        "id_denom": [
          11
        ],
        "marker_basis": "Interior point of INAO parcel union; location reference, not a legal boundary",
        "accessed_on": "2026-09-26"
      },
      "geometry": {
        "type": "Point",
        "coordinates": [
          7.295229411973231,
          48.10174492990084
        ]
      }
    },
    {
      "type": "Feature",
      "properties": {
        "node": "n_geo_alsace_grand_cru_frankstein",
        "name": "Alsace Grand Cru Frankstein",
        "source_url": "https://www.data.gouv.fr/datasets/delimitation-parcellaire-des-aoc-viticoles-de-linao/",
        "source_resource": "https://static.data.gouv.fr/resources/delimitation-parcellaire-des-aoc-viticoles-de-linao/20260921-213954/2026-09-21-delim-parcellaire-aoc-shp.zip",
        "source_edition": "2026-09-21",
        "source_sha256": "6f84e0622c2a27d35fc1ad7b39629856bc5038aa38b9d629758c2fb873801d81",
        "license": "Licence Ouverte 2.0",
        "id_denom": [
          12
        ],
        "marker_basis": "Interior point of INAO parcel union; location reference, not a legal boundary",
        "accessed_on": "2026-09-26"
      },
      "geometry": {
        "type": "Point",
        "coordinates": [
          7.41423585065467,
          48.32277911564511
        ]
      }
    },
    {
      "type": "Feature",
      "properties": {
        "node": "n_geo_alsace_grand_cru_froehn",
        "name": "Alsace Grand Cru Froehn",
        "source_url": "https://www.data.gouv.fr/datasets/delimitation-parcellaire-des-aoc-viticoles-de-linao/",
        "source_resource": "https://static.data.gouv.fr/resources/delimitation-parcellaire-des-aoc-viticoles-de-linao/20260921-213954/2026-09-21-delim-parcellaire-aoc-shp.zip",
        "source_edition": "2026-09-21",
        "source_sha256": "6f84e0622c2a27d35fc1ad7b39629856bc5038aa38b9d629758c2fb873801d81",
        "license": "Licence Ouverte 2.0",
        "id_denom": [
          13
        ],
        "marker_basis": "Interior point of INAO parcel union; location reference, not a legal boundary",
        "accessed_on": "2026-09-26"
      },
      "geometry": {
        "type": "Point",
        "coordinates": [
          7.3206087636768755,
          48.16675596727691
        ]
      }
    },
    {
      "type": "Feature",
      "properties": {
        "node": "n_geo_alsace_grand_cru_furstentum",
        "name": "Alsace Grand Cru Furstentum",
        "source_url": "https://www.data.gouv.fr/datasets/delimitation-parcellaire-des-aoc-viticoles-de-linao/",
        "source_resource": "https://static.data.gouv.fr/resources/delimitation-parcellaire-des-aoc-viticoles-de-linao/20260921-213954/2026-09-21-delim-parcellaire-aoc-shp.zip",
        "source_edition": "2026-09-21",
        "source_sha256": "6f84e0622c2a27d35fc1ad7b39629856bc5038aa38b9d629758c2fb873801d81",
        "license": "Licence Ouverte 2.0",
        "id_denom": [
          14
        ],
        "marker_basis": "Interior point of INAO parcel union; location reference, not a legal boundary",
        "accessed_on": "2026-09-26"
      },
      "geometry": {
        "type": "Point",
        "coordinates": [
          7.292476775970331,
          48.146025264322496
        ]
      }
    },
    {
      "type": "Feature",
      "properties": {
        "node": "n_geo_alsace_grand_cru_geisberg",
        "name": "Alsace Grand Cru Geisberg",
        "source_url": "https://www.data.gouv.fr/datasets/delimitation-parcellaire-des-aoc-viticoles-de-linao/",
        "source_resource": "https://static.data.gouv.fr/resources/delimitation-parcellaire-des-aoc-viticoles-de-linao/20260921-213954/2026-09-21-delim-parcellaire-aoc-shp.zip",
        "source_edition": "2026-09-21",
        "source_sha256": "6f84e0622c2a27d35fc1ad7b39629856bc5038aa38b9d629758c2fb873801d81",
        "license": "Licence Ouverte 2.0",
        "id_denom": [
          15
        ],
        "marker_basis": "Interior point of INAO parcel union; location reference, not a legal boundary",
        "accessed_on": "2026-09-26"
      },
      "geometry": {
        "type": "Point",
        "coordinates": [
          7.322882842919899,
          48.1960903975631
        ]
      }
    },
    {
      "type": "Feature",
      "properties": {
        "node": "n_geo_alsace_grand_cru_gloeckelberg",
        "name": "Alsace Grand Cru Gloeckelberg",
        "source_url": "https://www.data.gouv.fr/datasets/delimitation-parcellaire-des-aoc-viticoles-de-linao/",
        "source_resource": "https://static.data.gouv.fr/resources/delimitation-parcellaire-des-aoc-viticoles-de-linao/20260921-213954/2026-09-21-delim-parcellaire-aoc-shp.zip",
        "source_edition": "2026-09-21",
        "source_sha256": "6f84e0622c2a27d35fc1ad7b39629856bc5038aa38b9d629758c2fb873801d81",
        "license": "Licence Ouverte 2.0",
        "id_denom": [
          16
        ],
        "marker_basis": "Interior point of INAO parcel union; location reference, not a legal boundary",
        "accessed_on": "2026-09-26"
      },
      "geometry": {
        "type": "Point",
        "coordinates": [
          7.349367758121083,
          48.228796267733415
        ]
      }
    },
    {
      "type": "Feature",
      "properties": {
        "node": "n_geo_alsace_grand_cru_goldert",
        "name": "Alsace Grand Cru Goldert",
        "source_url": "https://www.data.gouv.fr/datasets/delimitation-parcellaire-des-aoc-viticoles-de-linao/",
        "source_resource": "https://static.data.gouv.fr/resources/delimitation-parcellaire-des-aoc-viticoles-de-linao/20260921-213954/2026-09-21-delim-parcellaire-aoc-shp.zip",
        "source_edition": "2026-09-21",
        "source_sha256": "6f84e0622c2a27d35fc1ad7b39629856bc5038aa38b9d629758c2fb873801d81",
        "license": "Licence Ouverte 2.0",
        "id_denom": [
          17
        ],
        "marker_basis": "Interior point of INAO parcel union; location reference, not a legal boundary",
        "accessed_on": "2026-09-26"
      },
      "geometry": {
        "type": "Point",
        "coordinates": [
          7.277625643144247,
          48.01110495465974
        ]
      }
    },
    {
      "type": "Feature",
      "properties": {
        "node": "n_geo_alsace_grand_cru_hatschbourg",
        "name": "Alsace Grand Cru Hatschbourg",
        "source_url": "https://www.data.gouv.fr/datasets/delimitation-parcellaire-des-aoc-viticoles-de-linao/",
        "source_resource": "https://static.data.gouv.fr/resources/delimitation-parcellaire-des-aoc-viticoles-de-linao/20260921-213954/2026-09-21-delim-parcellaire-aoc-shp.zip",
        "source_edition": "2026-09-21",
        "source_sha256": "6f84e0622c2a27d35fc1ad7b39629856bc5038aa38b9d629758c2fb873801d81",
        "license": "Licence Ouverte 2.0",
        "id_denom": [
          18
        ],
        "marker_basis": "Interior point of INAO parcel union; location reference, not a legal boundary",
        "accessed_on": "2026-09-26"
      },
      "geometry": {
        "type": "Point",
        "coordinates": [
          7.283941709402961,
          48.0163928608468
        ]
      }
    },
    {
      "type": "Feature",
      "properties": {
        "node": "n_geo_alsace_grand_cru_kanzlerberg",
        "name": "Alsace Grand Cru Kanzlerberg",
        "source_url": "https://www.data.gouv.fr/datasets/delimitation-parcellaire-des-aoc-viticoles-de-linao/",
        "source_resource": "https://static.data.gouv.fr/resources/delimitation-parcellaire-des-aoc-viticoles-de-linao/20260921-213954/2026-09-21-delim-parcellaire-aoc-shp.zip",
        "source_edition": "2026-09-21",
        "source_sha256": "6f84e0622c2a27d35fc1ad7b39629856bc5038aa38b9d629758c2fb873801d81",
        "license": "Licence Ouverte 2.0",
        "id_denom": [
          20
        ],
        "marker_basis": "Interior point of INAO parcel union; location reference, not a legal boundary",
        "accessed_on": "2026-09-26"
      },
      "geometry": {
        "type": "Point",
        "coordinates": [
          7.346512261720135,
          48.20945816799846
        ]
      }
    },
    {
      "type": "Feature",
      "properties": {
        "node": "n_geo_alsace_grand_cru_kastelberg",
        "name": "Alsace Grand Cru Kastelberg",
        "source_url": "https://www.data.gouv.fr/datasets/delimitation-parcellaire-des-aoc-viticoles-de-linao/",
        "source_resource": "https://static.data.gouv.fr/resources/delimitation-parcellaire-des-aoc-viticoles-de-linao/20260921-213954/2026-09-21-delim-parcellaire-aoc-shp.zip",
        "source_edition": "2026-09-21",
        "source_sha256": "6f84e0622c2a27d35fc1ad7b39629856bc5038aa38b9d629758c2fb873801d81",
        "license": "Licence Ouverte 2.0",
        "id_denom": [
          2481
        ],
        "marker_basis": "Interior point of INAO parcel union; location reference, not a legal boundary",
        "accessed_on": "2026-09-26"
      },
      "geometry": {
        "type": "Point",
        "coordinates": [
          7.4183108012676815,
          48.38862885923288
        ]
      }
    },
    {
      "type": "Feature",
      "properties": {
        "node": "n_geo_alsace_grand_cru_kessler",
        "name": "Alsace Grand Cru Kessler",
        "source_url": "https://www.data.gouv.fr/datasets/delimitation-parcellaire-des-aoc-viticoles-de-linao/",
        "source_resource": "https://static.data.gouv.fr/resources/delimitation-parcellaire-des-aoc-viticoles-de-linao/20260921-213954/2026-09-21-delim-parcellaire-aoc-shp.zip",
        "source_edition": "2026-09-21",
        "source_sha256": "6f84e0622c2a27d35fc1ad7b39629856bc5038aa38b9d629758c2fb873801d81",
        "license": "Licence Ouverte 2.0",
        "id_denom": [
          22
        ],
        "marker_basis": "Interior point of INAO parcel union; location reference, not a legal boundary",
        "accessed_on": "2026-09-26"
      },
      "geometry": {
        "type": "Point",
        "coordinates": [
          7.229422496634953,
          47.912580939096266
        ]
      }
    },
    {
      "type": "Feature",
      "properties": {
        "node": "n_geo_alsace_grand_cru_kirchberg_de_ribeauville",
        "name": "Alsace Grand Cru Kirchberg de Ribeauvillé",
        "source_url": "https://www.data.gouv.fr/datasets/delimitation-parcellaire-des-aoc-viticoles-de-linao/",
        "source_resource": "https://static.data.gouv.fr/resources/delimitation-parcellaire-des-aoc-viticoles-de-linao/20260921-213954/2026-09-21-delim-parcellaire-aoc-shp.zip",
        "source_edition": "2026-09-21",
        "source_sha256": "6f84e0622c2a27d35fc1ad7b39629856bc5038aa38b9d629758c2fb873801d81",
        "license": "Licence Ouverte 2.0",
        "id_denom": [
          24
        ],
        "marker_basis": "Interior point of INAO parcel union; location reference, not a legal boundary",
        "accessed_on": "2026-09-26"
      },
      "geometry": {
        "type": "Point",
        "coordinates": [
          7.320747786321847,
          48.19834878753266
        ]
      }
    },
    {
      "type": "Feature",
      "properties": {
        "node": "n_geo_alsace_grand_cru_kitterle",
        "name": "Alsace Grand Cru Kitterlé",
        "source_url": "https://www.data.gouv.fr/datasets/delimitation-parcellaire-des-aoc-viticoles-de-linao/",
        "source_resource": "https://static.data.gouv.fr/resources/delimitation-parcellaire-des-aoc-viticoles-de-linao/20260921-213954/2026-09-21-delim-parcellaire-aoc-shp.zip",
        "source_edition": "2026-09-21",
        "source_sha256": "6f84e0622c2a27d35fc1ad7b39629856bc5038aa38b9d629758c2fb873801d81",
        "license": "Licence Ouverte 2.0",
        "id_denom": [
          25
        ],
        "marker_basis": "Interior point of INAO parcel union; location reference, not a legal boundary",
        "accessed_on": "2026-09-26"
      },
      "geometry": {
        "type": "Point",
        "coordinates": [
          7.224390659511646,
          47.906002280921626
        ]
      }
    },
    {
      "type": "Feature",
      "properties": {
        "node": "n_geo_alsace_grand_cru_mambourg",
        "name": "Alsace Grand Cru Mambourg",
        "source_url": "https://www.data.gouv.fr/datasets/delimitation-parcellaire-des-aoc-viticoles-de-linao/",
        "source_resource": "https://static.data.gouv.fr/resources/delimitation-parcellaire-des-aoc-viticoles-de-linao/20260921-213954/2026-09-21-delim-parcellaire-aoc-shp.zip",
        "source_edition": "2026-09-21",
        "source_sha256": "6f84e0622c2a27d35fc1ad7b39629856bc5038aa38b9d629758c2fb873801d81",
        "license": "Licence Ouverte 2.0",
        "id_denom": [
          26
        ],
        "marker_basis": "Interior point of INAO parcel union; location reference, not a legal boundary",
        "accessed_on": "2026-09-26"
      },
      "geometry": {
        "type": "Point",
        "coordinates": [
          7.311011296135409,
          48.1369512746772
        ]
      }
    },
    {
      "type": "Feature",
      "properties": {
        "node": "n_geo_alsace_grand_cru_mandelberg",
        "name": "Alsace Grand Cru Mandelberg",
        "source_url": "https://www.data.gouv.fr/datasets/delimitation-parcellaire-des-aoc-viticoles-de-linao/",
        "source_resource": "https://static.data.gouv.fr/resources/delimitation-parcellaire-des-aoc-viticoles-de-linao/20260921-213954/2026-09-21-delim-parcellaire-aoc-shp.zip",
        "source_edition": "2026-09-21",
        "source_sha256": "6f84e0622c2a27d35fc1ad7b39629856bc5038aa38b9d629758c2fb873801d81",
        "license": "Licence Ouverte 2.0",
        "id_denom": [
          27
        ],
        "marker_basis": "Interior point of INAO parcel union; location reference, not a legal boundary",
        "accessed_on": "2026-09-26"
      },
      "geometry": {
        "type": "Point",
        "coordinates": [
          7.327373925579432,
          48.15118594575941
        ]
      }
    },
    {
      "type": "Feature",
      "properties": {
        "node": "n_geo_alsace_grand_cru_marckrain",
        "name": "Alsace Grand Cru Marckrain",
        "source_url": "https://www.data.gouv.fr/datasets/delimitation-parcellaire-des-aoc-viticoles-de-linao/",
        "source_resource": "https://static.data.gouv.fr/resources/delimitation-parcellaire-des-aoc-viticoles-de-linao/20260921-213954/2026-09-21-delim-parcellaire-aoc-shp.zip",
        "source_edition": "2026-09-21",
        "source_sha256": "6f84e0622c2a27d35fc1ad7b39629856bc5038aa38b9d629758c2fb873801d81",
        "license": "Licence Ouverte 2.0",
        "id_denom": [
          28
        ],
        "marker_basis": "Interior point of INAO parcel union; location reference, not a legal boundary",
        "accessed_on": "2026-09-26"
      },
      "geometry": {
        "type": "Point",
        "coordinates": [
          7.31961474236907,
          48.13971783457247
        ]
      }
    },
    {
      "type": "Feature",
      "properties": {
        "node": "n_geo_alsace_grand_cru_moenchberg",
        "name": "Alsace Grand Cru Moenchberg",
        "source_url": "https://www.data.gouv.fr/datasets/delimitation-parcellaire-des-aoc-viticoles-de-linao/",
        "source_resource": "https://static.data.gouv.fr/resources/delimitation-parcellaire-des-aoc-viticoles-de-linao/20260921-213954/2026-09-21-delim-parcellaire-aoc-shp.zip",
        "source_edition": "2026-09-21",
        "source_sha256": "6f84e0622c2a27d35fc1ad7b39629856bc5038aa38b9d629758c2fb873801d81",
        "license": "Licence Ouverte 2.0",
        "id_denom": [
          29
        ],
        "marker_basis": "Interior point of INAO parcel union; location reference, not a legal boundary",
        "accessed_on": "2026-09-26"
      },
      "geometry": {
        "type": "Point",
        "coordinates": [
          7.435410287447695,
          48.38296759282266
        ]
      }
    },
    {
      "type": "Feature",
      "properties": {
        "node": "n_geo_alsace_grand_cru_muenchberg",
        "name": "Alsace Grand Cru Muenchberg",
        "source_url": "https://www.data.gouv.fr/datasets/delimitation-parcellaire-des-aoc-viticoles-de-linao/",
        "source_resource": "https://static.data.gouv.fr/resources/delimitation-parcellaire-des-aoc-viticoles-de-linao/20260921-213954/2026-09-21-delim-parcellaire-aoc-shp.zip",
        "source_edition": "2026-09-21",
        "source_sha256": "6f84e0622c2a27d35fc1ad7b39629856bc5038aa38b9d629758c2fb873801d81",
        "license": "Licence Ouverte 2.0",
        "id_denom": [
          30
        ],
        "marker_basis": "Interior point of INAO parcel union; location reference, not a legal boundary",
        "accessed_on": "2026-09-26"
      },
      "geometry": {
        "type": "Point",
        "coordinates": [
          7.4152556166200325,
          48.3599244580357
        ]
      }
    },
    {
      "type": "Feature",
      "properties": {
        "node": "n_geo_alsace_grand_cru_ollwiller",
        "name": "Alsace Grand Cru Ollwiller",
        "source_url": "https://www.data.gouv.fr/datasets/delimitation-parcellaire-des-aoc-viticoles-de-linao/",
        "source_resource": "https://static.data.gouv.fr/resources/delimitation-parcellaire-des-aoc-viticoles-de-linao/20260921-213954/2026-09-21-delim-parcellaire-aoc-shp.zip",
        "source_edition": "2026-09-21",
        "source_sha256": "6f84e0622c2a27d35fc1ad7b39629856bc5038aa38b9d629758c2fb873801d81",
        "license": "Licence Ouverte 2.0",
        "id_denom": [
          31
        ],
        "marker_basis": "Interior point of INAO parcel union; location reference, not a legal boundary",
        "accessed_on": "2026-09-26"
      },
      "geometry": {
        "type": "Point",
        "coordinates": [
          7.202826602603998,
          47.86893068660149
        ]
      }
    },
    {
      "type": "Feature",
      "properties": {
        "node": "n_geo_alsace_grand_cru_osterberg",
        "name": "Alsace Grand Cru Osterberg",
        "source_url": "https://www.data.gouv.fr/datasets/delimitation-parcellaire-des-aoc-viticoles-de-linao/",
        "source_resource": "https://static.data.gouv.fr/resources/delimitation-parcellaire-des-aoc-viticoles-de-linao/20260921-213954/2026-09-21-delim-parcellaire-aoc-shp.zip",
        "source_edition": "2026-09-21",
        "source_sha256": "6f84e0622c2a27d35fc1ad7b39629856bc5038aa38b9d629758c2fb873801d81",
        "license": "Licence Ouverte 2.0",
        "id_denom": [
          32
        ],
        "marker_basis": "Interior point of INAO parcel union; location reference, not a legal boundary",
        "accessed_on": "2026-09-26"
      },
      "geometry": {
        "type": "Point",
        "coordinates": [
          7.326421088902859,
          48.197710189718364
        ]
      }
    },
    {
      "type": "Feature",
      "properties": {
        "node": "n_geo_alsace_grand_cru_pfersigberg",
        "name": "Alsace Grand Cru Pfersigberg",
        "source_url": "https://www.data.gouv.fr/datasets/delimitation-parcellaire-des-aoc-viticoles-de-linao/",
        "source_resource": "https://static.data.gouv.fr/resources/delimitation-parcellaire-des-aoc-viticoles-de-linao/20260921-213954/2026-09-21-delim-parcellaire-aoc-shp.zip",
        "source_edition": "2026-09-21",
        "source_sha256": "6f84e0622c2a27d35fc1ad7b39629856bc5038aa38b9d629758c2fb873801d81",
        "license": "Licence Ouverte 2.0",
        "id_denom": [
          33
        ],
        "marker_basis": "Interior point of INAO parcel union; location reference, not a legal boundary",
        "accessed_on": "2026-09-26"
      },
      "geometry": {
        "type": "Point",
        "coordinates": [
          7.294166679006729,
          48.04590706315941
        ]
      }
    },
    {
      "type": "Feature",
      "properties": {
        "node": "n_geo_alsace_grand_cru_pfingstberg",
        "name": "Alsace Grand Cru Pfingstberg",
        "source_url": "https://www.data.gouv.fr/datasets/delimitation-parcellaire-des-aoc-viticoles-de-linao/",
        "source_resource": "https://static.data.gouv.fr/resources/delimitation-parcellaire-des-aoc-viticoles-de-linao/20260921-213954/2026-09-21-delim-parcellaire-aoc-shp.zip",
        "source_edition": "2026-09-21",
        "source_sha256": "6f84e0622c2a27d35fc1ad7b39629856bc5038aa38b9d629758c2fb873801d81",
        "license": "Licence Ouverte 2.0",
        "id_denom": [
          34
        ],
        "marker_basis": "Interior point of INAO parcel union; location reference, not a legal boundary",
        "accessed_on": "2026-09-26"
      },
      "geometry": {
        "type": "Point",
        "coordinates": [
          7.233019295608857,
          47.943460991309685
        ]
      }
    },
    {
      "type": "Feature",
      "properties": {
        "node": "n_geo_alsace_grand_cru_praelatenberg",
        "name": "Alsace Grand Cru Praelatenberg",
        "source_url": "https://www.data.gouv.fr/datasets/delimitation-parcellaire-des-aoc-viticoles-de-linao/",
        "source_resource": "https://static.data.gouv.fr/resources/delimitation-parcellaire-des-aoc-viticoles-de-linao/20260921-213954/2026-09-21-delim-parcellaire-aoc-shp.zip",
        "source_edition": "2026-09-21",
        "source_sha256": "6f84e0622c2a27d35fc1ad7b39629856bc5038aa38b9d629758c2fb873801d81",
        "license": "Licence Ouverte 2.0",
        "id_denom": [
          35
        ],
        "marker_basis": "Interior point of INAO parcel union; location reference, not a legal boundary",
        "accessed_on": "2026-09-26"
      },
      "geometry": {
        "type": "Point",
        "coordinates": [
          7.380909737749113,
          48.24571355944073
        ]
      }
    },
    {
      "type": "Feature",
      "properties": {
        "node": "n_geo_alsace_grand_cru_saering",
        "name": "Alsace Grand Cru Saering",
        "source_url": "https://www.data.gouv.fr/datasets/delimitation-parcellaire-des-aoc-viticoles-de-linao/",
        "source_resource": "https://static.data.gouv.fr/resources/delimitation-parcellaire-des-aoc-viticoles-de-linao/20260921-213954/2026-09-21-delim-parcellaire-aoc-shp.zip",
        "source_edition": "2026-09-21",
        "source_sha256": "6f84e0622c2a27d35fc1ad7b39629856bc5038aa38b9d629758c2fb873801d81",
        "license": "Licence Ouverte 2.0",
        "id_denom": [
          38
        ],
        "marker_basis": "Interior point of INAO parcel union; location reference, not a legal boundary",
        "accessed_on": "2026-09-26"
      },
      "geometry": {
        "type": "Point",
        "coordinates": [
          7.234275855114502,
          47.90861675314588
        ]
      }
    },
    {
      "type": "Feature",
      "properties": {
        "node": "n_geo_alsace_grand_cru_sommerberg",
        "name": "Alsace Grand Cru Sommerberg",
        "source_url": "https://www.data.gouv.fr/datasets/delimitation-parcellaire-des-aoc-viticoles-de-linao/",
        "source_resource": "https://static.data.gouv.fr/resources/delimitation-parcellaire-des-aoc-viticoles-de-linao/20260921-213954/2026-09-21-delim-parcellaire-aoc-shp.zip",
        "source_edition": "2026-09-21",
        "source_sha256": "6f84e0622c2a27d35fc1ad7b39629856bc5038aa38b9d629758c2fb873801d81",
        "license": "Licence Ouverte 2.0",
        "id_denom": [
          41
        ],
        "marker_basis": "Interior point of INAO parcel union; location reference, not a legal boundary",
        "accessed_on": "2026-09-26"
      },
      "geometry": {
        "type": "Point",
        "coordinates": [
          7.279286089008538,
          48.10196286709348
        ]
      }
    },
    {
      "type": "Feature",
      "properties": {
        "node": "n_geo_alsace_grand_cru_sonnenglanz",
        "name": "Alsace Grand Cru Sonnenglanz",
        "source_url": "https://www.data.gouv.fr/datasets/delimitation-parcellaire-des-aoc-viticoles-de-linao/",
        "source_resource": "https://static.data.gouv.fr/resources/delimitation-parcellaire-des-aoc-viticoles-de-linao/20260921-213954/2026-09-21-delim-parcellaire-aoc-shp.zip",
        "source_edition": "2026-09-21",
        "source_sha256": "6f84e0622c2a27d35fc1ad7b39629856bc5038aa38b9d629758c2fb873801d81",
        "license": "Licence Ouverte 2.0",
        "id_denom": [
          42
        ],
        "marker_basis": "Interior point of INAO parcel union; location reference, not a legal boundary",
        "accessed_on": "2026-09-26"
      },
      "geometry": {
        "type": "Point",
        "coordinates": [
          7.322874551460485,
          48.16110129462904
        ]
      }
    },
    {
      "type": "Feature",
      "properties": {
        "node": "n_geo_alsace_grand_cru_spiegel",
        "name": "Alsace Grand Cru Spiegel",
        "source_url": "https://www.data.gouv.fr/datasets/delimitation-parcellaire-des-aoc-viticoles-de-linao/",
        "source_resource": "https://static.data.gouv.fr/resources/delimitation-parcellaire-des-aoc-viticoles-de-linao/20260921-213954/2026-09-21-delim-parcellaire-aoc-shp.zip",
        "source_edition": "2026-09-21",
        "source_sha256": "6f84e0622c2a27d35fc1ad7b39629856bc5038aa38b9d629758c2fb873801d81",
        "license": "Licence Ouverte 2.0",
        "id_denom": [
          43
        ],
        "marker_basis": "Interior point of INAO parcel union; location reference, not a legal boundary",
        "accessed_on": "2026-09-26"
      },
      "geometry": {
        "type": "Point",
        "coordinates": [
          7.236182755585188,
          47.91811924998337
        ]
      }
    },
    {
      "type": "Feature",
      "properties": {
        "node": "n_geo_alsace_grand_cru_sporen",
        "name": "Alsace Grand Cru Sporen",
        "source_url": "https://www.data.gouv.fr/datasets/delimitation-parcellaire-des-aoc-viticoles-de-linao/",
        "source_resource": "https://static.data.gouv.fr/resources/delimitation-parcellaire-des-aoc-viticoles-de-linao/20260921-213954/2026-09-21-delim-parcellaire-aoc-shp.zip",
        "source_edition": "2026-09-21",
        "source_sha256": "6f84e0622c2a27d35fc1ad7b39629856bc5038aa38b9d629758c2fb873801d81",
        "license": "Licence Ouverte 2.0",
        "id_denom": [
          44
        ],
        "marker_basis": "Interior point of INAO parcel union; location reference, not a legal boundary",
        "accessed_on": "2026-09-26"
      },
      "geometry": {
        "type": "Point",
        "coordinates": [
          7.303582069884303,
          48.15852157896725
        ]
      }
    },
    {
      "type": "Feature",
      "properties": {
        "node": "n_geo_alsace_grand_cru_steinert",
        "name": "Alsace Grand Cru Steinert",
        "source_url": "https://www.data.gouv.fr/datasets/delimitation-parcellaire-des-aoc-viticoles-de-linao/",
        "source_resource": "https://static.data.gouv.fr/resources/delimitation-parcellaire-des-aoc-viticoles-de-linao/20260921-213954/2026-09-21-delim-parcellaire-aoc-shp.zip",
        "source_edition": "2026-09-21",
        "source_sha256": "6f84e0622c2a27d35fc1ad7b39629856bc5038aa38b9d629758c2fb873801d81",
        "license": "Licence Ouverte 2.0",
        "id_denom": [
          45
        ],
        "marker_basis": "Interior point of INAO parcel union; location reference, not a legal boundary",
        "accessed_on": "2026-09-26"
      },
      "geometry": {
        "type": "Point",
        "coordinates": [
          7.2804949466679565,
          47.980789917197036
        ]
      }
    },
    {
      "type": "Feature",
      "properties": {
        "node": "n_geo_alsace_grand_cru_steingrubler",
        "name": "Alsace Grand Cru Steingrubler",
        "source_url": "https://www.data.gouv.fr/datasets/delimitation-parcellaire-des-aoc-viticoles-de-linao/",
        "source_resource": "https://static.data.gouv.fr/resources/delimitation-parcellaire-des-aoc-viticoles-de-linao/20260921-213954/2026-09-21-delim-parcellaire-aoc-shp.zip",
        "source_edition": "2026-09-21",
        "source_sha256": "6f84e0622c2a27d35fc1ad7b39629856bc5038aa38b9d629758c2fb873801d81",
        "license": "Licence Ouverte 2.0",
        "id_denom": [
          46
        ],
        "marker_basis": "Interior point of INAO parcel union; location reference, not a legal boundary",
        "accessed_on": "2026-09-26"
      },
      "geometry": {
        "type": "Point",
        "coordinates": [
          7.289188787410654,
          48.056278990940385
        ]
      }
    },
    {
      "type": "Feature",
      "properties": {
        "node": "n_geo_alsace_grand_cru_steinklotz",
        "name": "Alsace Grand Cru Steinklotz",
        "source_url": "https://www.data.gouv.fr/datasets/delimitation-parcellaire-des-aoc-viticoles-de-linao/",
        "source_resource": "https://static.data.gouv.fr/resources/delimitation-parcellaire-des-aoc-viticoles-de-linao/20260921-213954/2026-09-21-delim-parcellaire-aoc-shp.zip",
        "source_edition": "2026-09-21",
        "source_sha256": "6f84e0622c2a27d35fc1ad7b39629856bc5038aa38b9d629758c2fb873801d81",
        "license": "Licence Ouverte 2.0",
        "id_denom": [
          47
        ],
        "marker_basis": "Interior point of INAO parcel union; location reference, not a legal boundary",
        "accessed_on": "2026-09-26"
      },
      "geometry": {
        "type": "Point",
        "coordinates": [
          7.486707723104077,
          48.62604879746499
        ]
      }
    },
    {
      "type": "Feature",
      "properties": {
        "node": "n_geo_alsace_grand_cru_vorbourg",
        "name": "Alsace Grand Cru Vorbourg",
        "source_url": "https://www.data.gouv.fr/datasets/delimitation-parcellaire-des-aoc-viticoles-de-linao/",
        "source_resource": "https://static.data.gouv.fr/resources/delimitation-parcellaire-des-aoc-viticoles-de-linao/20260921-213954/2026-09-21-delim-parcellaire-aoc-shp.zip",
        "source_edition": "2026-09-21",
        "source_sha256": "6f84e0622c2a27d35fc1ad7b39629856bc5038aa38b9d629758c2fb873801d81",
        "license": "Licence Ouverte 2.0",
        "id_denom": [
          48
        ],
        "marker_basis": "Interior point of INAO parcel union; location reference, not a legal boundary",
        "accessed_on": "2026-09-26"
      },
      "geometry": {
        "type": "Point",
        "coordinates": [
          7.283414849371819,
          47.95618925304768
        ]
      }
    },
    {
      "type": "Feature",
      "properties": {
        "node": "n_geo_alsace_grand_cru_wiebelsberg",
        "name": "Alsace Grand Cru Wiebelsberg",
        "source_url": "https://www.data.gouv.fr/datasets/delimitation-parcellaire-des-aoc-viticoles-de-linao/",
        "source_resource": "https://static.data.gouv.fr/resources/delimitation-parcellaire-des-aoc-viticoles-de-linao/20260921-213954/2026-09-21-delim-parcellaire-aoc-shp.zip",
        "source_edition": "2026-09-21",
        "source_sha256": "6f84e0622c2a27d35fc1ad7b39629856bc5038aa38b9d629758c2fb873801d81",
        "license": "Licence Ouverte 2.0",
        "id_denom": [
          49
        ],
        "marker_basis": "Interior point of INAO parcel union; location reference, not a legal boundary",
        "accessed_on": "2026-09-26"
      },
      "geometry": {
        "type": "Point",
        "coordinates": [
          7.424561312198149,
          48.38979959359488
        ]
      }
    },
    {
      "type": "Feature",
      "properties": {
        "node": "n_geo_alsace_grand_cru_wineck_schlossberg",
        "name": "Alsace Grand Cru Wineck-Schlossberg",
        "source_url": "https://www.data.gouv.fr/datasets/delimitation-parcellaire-des-aoc-viticoles-de-linao/",
        "source_resource": "https://static.data.gouv.fr/resources/delimitation-parcellaire-des-aoc-viticoles-de-linao/20260921-213954/2026-09-21-delim-parcellaire-aoc-shp.zip",
        "source_edition": "2026-09-21",
        "source_sha256": "6f84e0622c2a27d35fc1ad7b39629856bc5038aa38b9d629758c2fb873801d81",
        "license": "Licence Ouverte 2.0",
        "id_denom": [
          50
        ],
        "marker_basis": "Interior point of INAO parcel union; location reference, not a legal boundary",
        "accessed_on": "2026-09-26"
      },
      "geometry": {
        "type": "Point",
        "coordinates": [
          7.279501893193439,
          48.11102840858178
        ]
      }
    },
    {
      "type": "Feature",
      "properties": {
        "node": "n_geo_alsace_grand_cru_winzenberg",
        "name": "Alsace Grand Cru Winzenberg",
        "source_url": "https://www.data.gouv.fr/datasets/delimitation-parcellaire-des-aoc-viticoles-de-linao/",
        "source_resource": "https://static.data.gouv.fr/resources/delimitation-parcellaire-des-aoc-viticoles-de-linao/20260921-213954/2026-09-21-delim-parcellaire-aoc-shp.zip",
        "source_edition": "2026-09-21",
        "source_sha256": "6f84e0622c2a27d35fc1ad7b39629856bc5038aa38b9d629758c2fb873801d81",
        "license": "Licence Ouverte 2.0",
        "id_denom": [
          51
        ],
        "marker_basis": "Interior point of INAO parcel union; location reference, not a legal boundary",
        "accessed_on": "2026-09-26"
      },
      "geometry": {
        "type": "Point",
        "coordinates": [
          7.415037905653035,
          48.3467312552434
        ]
      }
    },
    {
      "type": "Feature",
      "properties": {
        "node": "n_geo_alsace_grand_cru_zinnkoepfle",
        "name": "Alsace Grand Cru Zinnkoepfle",
        "source_url": "https://www.data.gouv.fr/datasets/delimitation-parcellaire-des-aoc-viticoles-de-linao/",
        "source_resource": "https://static.data.gouv.fr/resources/delimitation-parcellaire-des-aoc-viticoles-de-linao/20260921-213954/2026-09-21-delim-parcellaire-aoc-shp.zip",
        "source_edition": "2026-09-21",
        "source_sha256": "6f84e0622c2a27d35fc1ad7b39629856bc5038aa38b9d629758c2fb873801d81",
        "license": "Licence Ouverte 2.0",
        "id_denom": [
          52
        ],
        "marker_basis": "Interior point of INAO parcel union; location reference, not a legal boundary",
        "accessed_on": "2026-09-26"
      },
      "geometry": {
        "type": "Point",
        "coordinates": [
          7.247904675165781,
          47.961410364522564
        ]
      }
    }
  ]
}
