{
  "type": "FeatureCollection",
  "metadata": {
    "description": "Champagne traditional wine area point markers; area names and geographical grouping are cited in the curriculum from Comité Champagne. Coordinates from IGN 2026 and Wikidata CC0, retrieved 2026-09-26. Town representative points do not delimit traditional areas.",
    "attribution": "IGN – ADMIN EXPRESS COG CARTO, edition 1 January 2026; Wikidata (CC0)."
  },
  "features": [
    {
      "type": "Feature",
      "properties": {
        "node": "n_geo_vallee_de_la_marne",
        "name": "Vallée de la Marne",
        "source_url": "https://data.geopf.fr/telechargement/download/ADMIN-EXPRESS-COG-CARTO/ADMIN-EXPRESS-COG-CARTO_4-0__GPKG_LAMB93_FXX_2026-01-01/ADMIN-EXPRESS-COG-CARTO_4-0__GPKG_LAMB93_FXX_2026-01-01.7z",
        "edition": "2026-01-01",
        "license": "Licence Ouverte / Open Licence 2.0 (Etalab)",
        "marker_basis": "Representative commune label point: Cumières; this traditional wine area is not represented by a boundary.",
        "code_insee": "51202",
        "accessed_on": "2026-09-26"
      },
      "geometry": {
        "type": "Point",
        "coordinates": [
          3.910744058847725,
          49.06813518217162
        ]
      }
    },
    {
      "type": "Feature",
      "properties": {
        "node": "n_geo_cote_des_bar",
        "name": "Côte des Bar",
        "source_url": "https://data.geopf.fr/telechargement/download/ADMIN-EXPRESS-COG-CARTO/ADMIN-EXPRESS-COG-CARTO_4-0__GPKG_LAMB93_FXX_2026-01-01/ADMIN-EXPRESS-COG-CARTO_4-0__GPKG_LAMB93_FXX_2026-01-01.7z",
        "edition": "2026-01-01",
        "license": "Licence Ouverte / Open Licence 2.0 (Etalab)",
        "marker_basis": "Representative commune label point: Bar-sur-Aube; this traditional wine area is not represented by a boundary.",
        "code_insee": "10033",
        "accessed_on": "2026-09-26"
      },
      "geometry": {
        "type": "Point",
        "coordinates": [
          4.715575186512486,
          48.23493150845584
        ]
      }
    },
    {
      "type": "Feature",
      "properties": {
        "node": "n_geo_montagne_de_reims",
        "name": "Montagne de Reims",
        "source_url": "https://www.wikidata.org/wiki/Q3322288",
        "wikidata_id": "Q3322288",
        "license": "CC0 1.0 Universal",
        "marker_basis": "Sourced gazetteer coordinate for a traditional wine area; no boundary is asserted.",
        "accessed_on": "2026-09-26"
      },
      "geometry": {
        "type": "Point",
        "coordinates": [
          4.14838,
          49.1421
        ]
      }
    },
    {
      "type": "Feature",
      "properties": {
        "node": "n_geo_cote_des_blancs",
        "name": "Côte des Blancs",
        "source_url": "https://www.wikidata.org/wiki/Q3010689",
        "wikidata_id": "Q3010689",
        "license": "CC0 1.0 Universal",
        "marker_basis": "Sourced gazetteer coordinate for a traditional wine area; no boundary is asserted.",
        "accessed_on": "2026-09-26"
      },
      "geometry": {
        "type": "Point",
        "coordinates": [
          4.02,
          48.96
        ]
      }
    }
  ]
}
