{
  "type": "FeatureCollection",
  "features": [
    {
      "type": "Feature",
      "properties": {
        "node": "n_geo_niagara_escarpment_ontario",
        "node_id": "n_geo_niagara_escarpment_ontario",
        "name": "Niagara Escarpment (Ontario regional appellation)",
        "parent_node_id": "n_geo_niagara_peninsula",
        "country_node_id": "n_geo_canada",
        "retrieved_on": "2026-09-26",
        "point_role": "qualified_named_locality_or_terrain_reference",
        "point_place_name": "Rockway",
        "geonames_id": "6126530",
        "geonames_feature_class": "P",
        "geonames_feature_code": "PPL",
        "geonames_modified_on": "2026-08-02",
        "source_url": "https://www.geonames.org/6126530/",
        "source_coordinate_url": "https://download.geonames.org/export/dump/CA.zip",
        "source_file_sha256": "3715e892de87dacb72ddfa4089542fd7200e97f86fb458a8ab0a0687172c9639",
        "license": "CC-BY-4.0",
        "attribution": "Contains GeoNames geographical data, licensed under Creative Commons Attribution 4.0. Exact named references and WGS84 coordinates; no boundaries derived.",
        "label_note": "Named reference: Rockway. This is an orientation locality or terrain feature, not an official wine-area centroid; municipality and wine boundaries may differ."
      },
      "geometry": {
        "type": "Point",
        "coordinates": [
          -79.32687,
          43.11152
        ]
      }
    },
    {
      "type": "Feature",
      "properties": {
        "node": "n_geo_niagara_on_the_lake_appellation",
        "node_id": "n_geo_niagara_on_the_lake_appellation",
        "name": "Niagara-on-the-Lake (regional appellation)",
        "parent_node_id": "n_geo_niagara_peninsula",
        "country_node_id": "n_geo_canada",
        "retrieved_on": "2026-09-26",
        "point_role": "qualified_named_locality_or_terrain_reference",
        "point_place_name": "Niagara-On-The-Lake",
        "geonames_id": "13680267",
        "geonames_feature_class": "A",
        "geonames_feature_code": "ADM3",
        "geonames_modified_on": "2026-07-26",
        "source_url": "https://www.geonames.org/13680267/",
        "source_coordinate_url": "https://download.geonames.org/export/dump/CA.zip",
        "source_file_sha256": "3715e892de87dacb72ddfa4089542fd7200e97f86fb458a8ab0a0687172c9639",
        "license": "CC-BY-4.0",
        "attribution": "Contains GeoNames geographical data, licensed under Creative Commons Attribution 4.0. Exact named references and WGS84 coordinates; no boundaries derived.",
        "label_note": "Named reference: Niagara-On-The-Lake. This is an orientation locality or terrain feature, not an official wine-area centroid; municipality and wine boundaries may differ."
      },
      "geometry": {
        "type": "Point",
        "coordinates": [
          -79.12351,
          43.19893
        ]
      }
    },
    {
      "type": "Feature",
      "properties": {
        "node": "n_geo_beamsville_bench",
        "node_id": "n_geo_beamsville_bench",
        "name": "Beamsville Bench",
        "parent_node_id": "n_geo_niagara_peninsula",
        "country_node_id": "n_geo_canada",
        "retrieved_on": "2026-09-26",
        "point_role": "qualified_named_locality_or_terrain_reference",
        "point_place_name": "Beamsville",
        "geonames_id": "5895710",
        "geonames_feature_class": "P",
        "geonames_feature_code": "PPL",
        "geonames_modified_on": "2026-08-02",
        "source_url": "https://www.geonames.org/5895710/",
        "source_coordinate_url": "https://download.geonames.org/export/dump/CA.zip",
        "source_file_sha256": "3715e892de87dacb72ddfa4089542fd7200e97f86fb458a8ab0a0687172c9639",
        "license": "CC-BY-4.0",
        "attribution": "Contains GeoNames geographical data, licensed under Creative Commons Attribution 4.0. Exact named references and WGS84 coordinates; no boundaries derived.",
        "label_note": "Named reference: Beamsville. This is an orientation locality or terrain feature, not an official wine-area centroid; municipality and wine boundaries may differ."
      },
      "geometry": {
        "type": "Point",
        "coordinates": [
          -79.48291,
          43.16681
        ]
      }
    },
    {
      "type": "Feature",
      "properties": {
        "node": "n_geo_twenty_mile_bench",
        "node_id": "n_geo_twenty_mile_bench",
        "name": "Twenty Mile Bench",
        "parent_node_id": "n_geo_niagara_peninsula",
        "country_node_id": "n_geo_canada",
        "retrieved_on": "2026-09-26",
        "point_role": "qualified_named_locality_or_terrain_reference",
        "point_place_name": "Vineland",
        "geonames_id": "6174406",
        "geonames_feature_class": "P",
        "geonames_feature_code": "PPL",
        "geonames_modified_on": "2026-08-02",
        "source_url": "https://www.geonames.org/6174406/",
        "source_coordinate_url": "https://download.geonames.org/export/dump/CA.zip",
        "source_file_sha256": "3715e892de87dacb72ddfa4089542fd7200e97f86fb458a8ab0a0687172c9639",
        "license": "CC-BY-4.0",
        "attribution": "Contains GeoNames geographical data, licensed under Creative Commons Attribution 4.0. Exact named references and WGS84 coordinates; no boundaries derived.",
        "label_note": "Named reference: Vineland. This is an orientation locality or terrain feature, not an official wine-area centroid; municipality and wine boundaries may differ."
      },
      "geometry": {
        "type": "Point",
        "coordinates": [
          -79.39449,
          43.15132
        ]
      }
    },
    {
      "type": "Feature",
      "properties": {
        "node": "n_geo_short_hills_bench",
        "node_id": "n_geo_short_hills_bench",
        "name": "Short Hills Bench",
        "parent_node_id": "n_geo_niagara_peninsula",
        "country_node_id": "n_geo_canada",
        "retrieved_on": "2026-09-26",
        "point_role": "qualified_named_locality_or_terrain_reference",
        "point_place_name": "Short Hills",
        "geonames_id": "6147056",
        "geonames_feature_class": "T",
        "geonames_feature_code": "HLLS",
        "geonames_modified_on": "2006-01-18",
        "source_url": "https://www.geonames.org/6147056/",
        "source_coordinate_url": "https://download.geonames.org/export/dump/CA.zip",
        "source_file_sha256": "3715e892de87dacb72ddfa4089542fd7200e97f86fb458a8ab0a0687172c9639",
        "license": "CC-BY-4.0",
        "attribution": "Contains GeoNames geographical data, licensed under Creative Commons Attribution 4.0. Exact named references and WGS84 coordinates; no boundaries derived.",
        "label_note": "Named reference: Short Hills. This is an orientation locality or terrain feature, not an official wine-area centroid; municipality and wine boundaries may differ."
      },
      "geometry": {
        "type": "Point",
        "coordinates": [
          -79.29739,
          43.09732
        ]
      }
    },
    {
      "type": "Feature",
      "properties": {
        "node": "n_geo_st_davids_bench",
        "node_id": "n_geo_st_davids_bench",
        "name": "St. David’s Bench",
        "parent_node_id": "n_geo_niagara_peninsula",
        "country_node_id": "n_geo_canada",
        "retrieved_on": "2026-09-26",
        "point_role": "qualified_named_locality_or_terrain_reference",
        "point_place_name": "St. Davids",
        "geonames_id": "6155789",
        "geonames_feature_class": "L",
        "geonames_feature_code": "AREA",
        "geonames_modified_on": "2006-01-18",
        "source_url": "https://www.geonames.org/6155789/",
        "source_coordinate_url": "https://download.geonames.org/export/dump/CA.zip",
        "source_file_sha256": "3715e892de87dacb72ddfa4089542fd7200e97f86fb458a8ab0a0687172c9639",
        "license": "CC-BY-4.0",
        "attribution": "Contains GeoNames geographical data, licensed under Creative Commons Attribution 4.0. Exact named references and WGS84 coordinates; no boundaries derived.",
        "label_note": "Named reference: St. Davids. This is an orientation locality or terrain feature, not an official wine-area centroid; municipality and wine boundaries may differ."
      },
      "geometry": {
        "type": "Point",
        "coordinates": [
          -79.11627,
          43.16682
        ]
      }
    },
    {
      "type": "Feature",
      "properties": {
        "node": "n_geo_lincoln_lakeshore",
        "node_id": "n_geo_lincoln_lakeshore",
        "name": "Lincoln Lakeshore",
        "parent_node_id": "n_geo_niagara_peninsula",
        "country_node_id": "n_geo_canada",
        "retrieved_on": "2026-09-26",
        "point_role": "qualified_named_locality_or_terrain_reference",
        "point_place_name": "Vineland Station",
        "geonames_id": "6174407",
        "geonames_feature_class": "P",
        "geonames_feature_code": "PPL",
        "geonames_modified_on": "2026-08-02",
        "source_url": "https://www.geonames.org/6174407/",
        "source_coordinate_url": "https://download.geonames.org/export/dump/CA.zip",
        "source_file_sha256": "3715e892de87dacb72ddfa4089542fd7200e97f86fb458a8ab0a0687172c9639",
        "license": "CC-BY-4.0",
        "attribution": "Contains GeoNames geographical data, licensed under Creative Commons Attribution 4.0. Exact named references and WGS84 coordinates; no boundaries derived.",
        "label_note": "Named reference: Vineland Station. This is an orientation locality or terrain feature, not an official wine-area centroid; municipality and wine boundaries may differ."
      },
      "geometry": {
        "type": "Point",
        "coordinates": [
          -79.38889,
          43.16861
        ]
      }
    },
    {
      "type": "Feature",
      "properties": {
        "node": "n_geo_niagara_lakeshore",
        "node_id": "n_geo_niagara_lakeshore",
        "name": "Niagara Lakeshore",
        "parent_node_id": "n_geo_niagara_peninsula",
        "country_node_id": "n_geo_canada",
        "retrieved_on": "2026-09-26",
        "point_role": "qualified_named_locality_or_terrain_reference",
        "point_place_name": "Mississauga Point",
        "geonames_id": "6075361",
        "geonames_feature_class": "T",
        "geonames_feature_code": "PT",
        "geonames_modified_on": "2006-01-18",
        "source_url": "https://www.geonames.org/6075361/",
        "source_coordinate_url": "https://download.geonames.org/export/dump/CA.zip",
        "source_file_sha256": "3715e892de87dacb72ddfa4089542fd7200e97f86fb458a8ab0a0687172c9639",
        "license": "CC-BY-4.0",
        "attribution": "Contains GeoNames geographical data, licensed under Creative Commons Attribution 4.0. Exact named references and WGS84 coordinates; no boundaries derived.",
        "label_note": "Named reference: Mississauga Point. This is an orientation locality or terrain feature, not an official wine-area centroid; municipality and wine boundaries may differ."
      },
      "geometry": {
        "type": "Point",
        "coordinates": [
          -79.08287,
          43.26682
        ]
      }
    },
    {
      "type": "Feature",
      "properties": {
        "node": "n_geo_niagara_river_ontario",
        "node_id": "n_geo_niagara_river_ontario",
        "name": "Niagara River (Ontario sub-appellation)",
        "parent_node_id": "n_geo_niagara_peninsula",
        "country_node_id": "n_geo_canada",
        "retrieved_on": "2026-09-26",
        "point_role": "qualified_named_locality_or_terrain_reference",
        "point_place_name": "Niagara-on-the-Lake",
        "geonames_id": "6087905",
        "geonames_feature_class": "P",
        "geonames_feature_code": "PPL",
        "geonames_modified_on": "2026-08-02",
        "source_url": "https://www.geonames.org/6087905/",
        "source_coordinate_url": "https://download.geonames.org/export/dump/CA.zip",
        "source_file_sha256": "3715e892de87dacb72ddfa4089542fd7200e97f86fb458a8ab0a0687172c9639",
        "license": "CC-BY-4.0",
        "attribution": "Contains GeoNames geographical data, licensed under Creative Commons Attribution 4.0. Exact named references and WGS84 coordinates; no boundaries derived.",
        "label_note": "Named reference: Niagara-on-the-Lake. This is an orientation locality or terrain feature, not an official wine-area centroid; municipality and wine boundaries may differ."
      },
      "geometry": {
        "type": "Point",
        "coordinates": [
          -79.08527,
          43.25655
        ]
      }
    },
    {
      "type": "Feature",
      "properties": {
        "node": "n_geo_four_mile_creek",
        "node_id": "n_geo_four_mile_creek",
        "name": "Four Mile Creek",
        "parent_node_id": "n_geo_niagara_peninsula",
        "country_node_id": "n_geo_canada",
        "retrieved_on": "2026-09-26",
        "point_role": "qualified_named_locality_or_terrain_reference",
        "point_place_name": "Virgil",
        "geonames_id": "6174462",
        "geonames_feature_class": "P",
        "geonames_feature_code": "PPL",
        "geonames_modified_on": "2026-08-02",
        "source_url": "https://www.geonames.org/6174462/",
        "source_coordinate_url": "https://download.geonames.org/export/dump/CA.zip",
        "source_file_sha256": "3715e892de87dacb72ddfa4089542fd7200e97f86fb458a8ab0a0687172c9639",
        "license": "CC-BY-4.0",
        "attribution": "Contains GeoNames geographical data, licensed under Creative Commons Attribution 4.0. Exact named references and WGS84 coordinates; no boundaries derived.",
        "label_note": "Named reference: Virgil. This is an orientation locality or terrain feature, not an official wine-area centroid; municipality and wine boundaries may differ."
      },
      "geometry": {
        "type": "Point",
        "coordinates": [
          -79.13288,
          43.21682
        ]
      }
    },
    {
      "type": "Feature",
      "properties": {
        "node": "n_geo_creek_shores",
        "node_id": "n_geo_creek_shores",
        "name": "Creek Shores",
        "parent_node_id": "n_geo_niagara_peninsula",
        "country_node_id": "n_geo_canada",
        "retrieved_on": "2026-09-26",
        "point_role": "qualified_named_locality_or_terrain_reference",
        "point_place_name": "Jordan Station",
        "geonames_id": "5987916",
        "geonames_feature_class": "P",
        "geonames_feature_code": "PPL",
        "geonames_modified_on": "2026-08-02",
        "source_url": "https://www.geonames.org/5987916/",
        "source_coordinate_url": "https://download.geonames.org/export/dump/CA.zip",
        "source_file_sha256": "3715e892de87dacb72ddfa4089542fd7200e97f86fb458a8ab0a0687172c9639",
        "license": "CC-BY-4.0",
        "attribution": "Contains GeoNames geographical data, licensed under Creative Commons Attribution 4.0. Exact named references and WGS84 coordinates; no boundaries derived.",
        "label_note": "Named reference: Jordan Station. This is an orientation locality or terrain feature, not an official wine-area centroid; municipality and wine boundaries may differ."
      },
      "geometry": {
        "type": "Point",
        "coordinates": [
          -79.36391,
          43.16267
        ]
      }
    },
    {
      "type": "Feature",
      "properties": {
        "node": "n_geo_vinemount_ridge",
        "node_id": "n_geo_vinemount_ridge",
        "name": "Vinemount Ridge",
        "parent_node_id": "n_geo_niagara_peninsula",
        "country_node_id": "n_geo_canada",
        "retrieved_on": "2026-09-26",
        "point_role": "qualified_named_locality_or_terrain_reference",
        "point_place_name": "Fonthill",
        "geonames_id": "5955278",
        "geonames_feature_class": "P",
        "geonames_feature_code": "PPL",
        "geonames_modified_on": "2026-08-02",
        "source_url": "https://www.geonames.org/5955278/",
        "source_coordinate_url": "https://download.geonames.org/export/dump/CA.zip",
        "source_file_sha256": "3715e892de87dacb72ddfa4089542fd7200e97f86fb458a8ab0a0687172c9639",
        "license": "CC-BY-4.0",
        "attribution": "Contains GeoNames geographical data, licensed under Creative Commons Attribution 4.0. Exact named references and WGS84 coordinates; no boundaries derived.",
        "label_note": "Named reference: Fonthill. This is an orientation locality or terrain feature, not an official wine-area centroid; municipality and wine boundaries may differ."
      },
      "geometry": {
        "type": "Point",
        "coordinates": [
          -79.28507,
          43.04468
        ]
      }
    },
    {
      "type": "Feature",
      "properties": {
        "node": "n_geo_west_niagara",
        "node_id": "n_geo_west_niagara",
        "name": "West Niagara",
        "parent_node_id": "n_geo_niagara_peninsula",
        "country_node_id": "n_geo_canada",
        "retrieved_on": "2026-09-26",
        "point_role": "qualified_named_locality_or_terrain_reference",
        "point_place_name": "Jordan Harbour",
        "geonames_id": "5987884",
        "geonames_feature_class": "P",
        "geonames_feature_code": "PPL",
        "geonames_modified_on": "2026-08-02",
        "source_url": "https://www.geonames.org/5987884/",
        "source_coordinate_url": "https://download.geonames.org/export/dump/CA.zip",
        "source_file_sha256": "3715e892de87dacb72ddfa4089542fd7200e97f86fb458a8ab0a0687172c9639",
        "license": "CC-BY-4.0",
        "attribution": "Contains GeoNames geographical data, licensed under Creative Commons Attribution 4.0. Exact named references and WGS84 coordinates; no boundaries derived.",
        "label_note": "Named reference: Jordan Harbour. This is an orientation locality or terrain feature, not an official wine-area centroid; municipality and wine boundaries may differ."
      },
      "geometry": {
        "type": "Point",
        "coordinates": [
          -79.36514,
          43.18235
        ]
      }
    },
    {
      "type": "Feature",
      "properties": {
        "node": "n_geo_south_islands_ontario",
        "node_id": "n_geo_south_islands_ontario",
        "name": "South Islands",
        "parent_node_id": "n_geo_lake_erie_north_shore",
        "country_node_id": "n_geo_canada",
        "retrieved_on": "2026-09-26",
        "point_role": "qualified_named_locality_or_terrain_reference",
        "point_place_name": "Pelee Island",
        "geonames_id": "6100621",
        "geonames_feature_class": "T",
        "geonames_feature_code": "ISL",
        "geonames_modified_on": "2018-08-17",
        "source_url": "https://www.geonames.org/6100621/",
        "source_coordinate_url": "https://download.geonames.org/export/dump/CA.zip",
        "source_file_sha256": "3715e892de87dacb72ddfa4089542fd7200e97f86fb458a8ab0a0687172c9639",
        "license": "CC-BY-4.0",
        "attribution": "Contains GeoNames geographical data, licensed under Creative Commons Attribution 4.0. Exact named references and WGS84 coordinates; no boundaries derived.",
        "label_note": "Named reference: Pelee Island. This is an orientation locality or terrain feature, not an official wine-area centroid; municipality and wine boundaries may differ."
      },
      "geometry": {
        "type": "Point",
        "coordinates": [
          -82.6665,
          41.78338
        ]
      }
    },
    {
      "type": "Feature",
      "properties": {
        "node": "n_geo_fraser_valley_wine",
        "node_id": "n_geo_fraser_valley_wine",
        "name": "Fraser Valley (wine GI)",
        "parent_node_id": "n_geo_british_columbia",
        "country_node_id": "n_geo_canada",
        "retrieved_on": "2026-09-26",
        "point_role": "qualified_named_locality_or_terrain_reference",
        "point_place_name": "Abbotsford",
        "geonames_id": "5881791",
        "geonames_feature_class": "P",
        "geonames_feature_code": "PPL",
        "geonames_modified_on": "2026-03-21",
        "source_url": "https://www.geonames.org/5881791/",
        "source_coordinate_url": "https://download.geonames.org/export/dump/CA.zip",
        "source_file_sha256": "3715e892de87dacb72ddfa4089542fd7200e97f86fb458a8ab0a0687172c9639",
        "license": "CC-BY-4.0",
        "attribution": "Contains GeoNames geographical data, licensed under Creative Commons Attribution 4.0. Exact named references and WGS84 coordinates; no boundaries derived.",
        "label_note": "Named reference: Abbotsford. This is an orientation locality or terrain feature, not an official wine-area centroid; municipality and wine boundaries may differ."
      },
      "geometry": {
        "type": "Point",
        "coordinates": [
          -122.25257,
          49.05798
        ]
      }
    },
    {
      "type": "Feature",
      "properties": {
        "node": "n_geo_gulf_islands_wine",
        "node_id": "n_geo_gulf_islands_wine",
        "name": "Gulf Islands (wine GI)",
        "parent_node_id": "n_geo_british_columbia",
        "country_node_id": "n_geo_canada",
        "retrieved_on": "2026-09-26",
        "point_role": "qualified_named_locality_or_terrain_reference",
        "point_place_name": "Salt Spring Island",
        "geonames_id": "12042098",
        "geonames_feature_class": "T",
        "geonames_feature_code": "ISL",
        "geonames_modified_on": "2025-06-09",
        "source_url": "https://www.geonames.org/12042098/",
        "source_coordinate_url": "https://download.geonames.org/export/dump/CA.zip",
        "source_file_sha256": "3715e892de87dacb72ddfa4089542fd7200e97f86fb458a8ab0a0687172c9639",
        "license": "CC-BY-4.0",
        "attribution": "Contains GeoNames geographical data, licensed under Creative Commons Attribution 4.0. Exact named references and WGS84 coordinates; no boundaries derived.",
        "label_note": "Named reference: Salt Spring Island. This is an orientation locality or terrain feature, not an official wine-area centroid; municipality and wine boundaries may differ."
      },
      "geometry": {
        "type": "Point",
        "coordinates": [
          -123.49061,
          48.81852
        ]
      }
    },
    {
      "type": "Feature",
      "properties": {
        "node": "n_geo_lillooet_wine",
        "node_id": "n_geo_lillooet_wine",
        "name": "Lillooet (wine GI)",
        "parent_node_id": "n_geo_british_columbia",
        "country_node_id": "n_geo_canada",
        "retrieved_on": "2026-09-26",
        "point_role": "qualified_named_locality_or_terrain_reference",
        "point_place_name": "Lillooet",
        "geonames_id": "6945979",
        "geonames_feature_class": "P",
        "geonames_feature_code": "PPL",
        "geonames_modified_on": "2021-12-27",
        "source_url": "https://www.geonames.org/6945979/",
        "source_coordinate_url": "https://download.geonames.org/export/dump/CA.zip",
        "source_file_sha256": "3715e892de87dacb72ddfa4089542fd7200e97f86fb458a8ab0a0687172c9639",
        "license": "CC-BY-4.0",
        "attribution": "Contains GeoNames geographical data, licensed under Creative Commons Attribution 4.0. Exact named references and WGS84 coordinates; no boundaries derived.",
        "label_note": "Named reference: Lillooet. This is an orientation locality or terrain feature, not an official wine-area centroid; municipality and wine boundaries may differ."
      },
      "geometry": {
        "type": "Point",
        "coordinates": [
          -121.942,
          50.6856
        ]
      }
    },
    {
      "type": "Feature",
      "properties": {
        "node": "n_geo_kootenays_wine",
        "node_id": "n_geo_kootenays_wine",
        "name": "Kootenays (wine GI)",
        "parent_node_id": "n_geo_british_columbia",
        "country_node_id": "n_geo_canada",
        "retrieved_on": "2026-09-26",
        "point_role": "qualified_named_locality_or_terrain_reference",
        "point_place_name": "Creston",
        "geonames_id": "5932311",
        "geonames_feature_class": "P",
        "geonames_feature_code": "PPL",
        "geonames_modified_on": "2025-07-19",
        "source_url": "https://www.geonames.org/5932311/",
        "source_coordinate_url": "https://download.geonames.org/export/dump/CA.zip",
        "source_file_sha256": "3715e892de87dacb72ddfa4089542fd7200e97f86fb458a8ab0a0687172c9639",
        "license": "CC-BY-4.0",
        "attribution": "Contains GeoNames geographical data, licensed under Creative Commons Attribution 4.0. Exact named references and WGS84 coordinates; no boundaries derived.",
        "label_note": "Named reference: Creston. This is an orientation locality or terrain feature, not an official wine-area centroid; municipality and wine boundaries may differ."
      },
      "geometry": {
        "type": "Point",
        "coordinates": [
          -116.50211,
          49.09987
        ]
      }
    },
    {
      "type": "Feature",
      "properties": {
        "node": "n_geo_shuswap_wine",
        "node_id": "n_geo_shuswap_wine",
        "name": "Shuswap (wine GI)",
        "parent_node_id": "n_geo_british_columbia",
        "country_node_id": "n_geo_canada",
        "retrieved_on": "2026-09-26",
        "point_role": "qualified_named_locality_or_terrain_reference",
        "point_place_name": "Salmon Arm",
        "geonames_id": "6139417",
        "geonames_feature_class": "P",
        "geonames_feature_code": "PPL",
        "geonames_modified_on": "2026-08-31",
        "source_url": "https://www.geonames.org/6139417/",
        "source_coordinate_url": "https://download.geonames.org/export/dump/CA.zip",
        "source_file_sha256": "3715e892de87dacb72ddfa4089542fd7200e97f86fb458a8ab0a0687172c9639",
        "license": "CC-BY-4.0",
        "attribution": "Contains GeoNames geographical data, licensed under Creative Commons Attribution 4.0. Exact named references and WGS84 coordinates; no boundaries derived.",
        "label_note": "Named reference: Salmon Arm. This is an orientation locality or terrain feature, not an official wine-area centroid; municipality and wine boundaries may differ."
      },
      "geometry": {
        "type": "Point",
        "coordinates": [
          -119.26907,
          50.69981
        ]
      }
    },
    {
      "type": "Feature",
      "properties": {
        "node": "n_geo_thompson_valley_wine",
        "node_id": "n_geo_thompson_valley_wine",
        "name": "Thompson Valley (wine GI)",
        "parent_node_id": "n_geo_british_columbia",
        "country_node_id": "n_geo_canada",
        "retrieved_on": "2026-09-26",
        "point_role": "qualified_named_locality_or_terrain_reference",
        "point_place_name": "Kamloops",
        "geonames_id": "5989045",
        "geonames_feature_class": "P",
        "geonames_feature_code": "PPL",
        "geonames_modified_on": "2025-08-04",
        "source_url": "https://www.geonames.org/5989045/",
        "source_coordinate_url": "https://download.geonames.org/export/dump/CA.zip",
        "source_file_sha256": "3715e892de87dacb72ddfa4089542fd7200e97f86fb458a8ab0a0687172c9639",
        "license": "CC-BY-4.0",
        "attribution": "Contains GeoNames geographical data, licensed under Creative Commons Attribution 4.0. Exact named references and WGS84 coordinates; no boundaries derived.",
        "label_note": "Named reference: Kamloops. This is an orientation locality or terrain feature, not an official wine-area centroid; municipality and wine boundaries may differ."
      },
      "geometry": {
        "type": "Point",
        "coordinates": [
          -120.3192,
          50.66648
        ]
      }
    },
    {
      "type": "Feature",
      "properties": {
        "node": "n_geo_vancouver_island_wine",
        "node_id": "n_geo_vancouver_island_wine",
        "name": "Vancouver Island (wine GI)",
        "parent_node_id": "n_geo_british_columbia",
        "country_node_id": "n_geo_canada",
        "retrieved_on": "2026-09-26",
        "point_role": "qualified_named_locality_or_terrain_reference",
        "point_place_name": "Vancouver Island",
        "geonames_id": "6173336",
        "geonames_feature_class": "T",
        "geonames_feature_code": "ISL",
        "geonames_modified_on": "2020-05-18",
        "source_url": "https://www.geonames.org/6173336/",
        "source_coordinate_url": "https://download.geonames.org/export/dump/CA.zip",
        "source_file_sha256": "3715e892de87dacb72ddfa4089542fd7200e97f86fb458a8ab0a0687172c9639",
        "license": "CC-BY-4.0",
        "attribution": "Contains GeoNames geographical data, licensed under Creative Commons Attribution 4.0. Exact named references and WGS84 coordinates; no boundaries derived.",
        "label_note": "Named reference: Vancouver Island. This is an orientation locality or terrain feature, not an official wine-area centroid; municipality and wine boundaries may differ."
      },
      "geometry": {
        "type": "Point",
        "coordinates": [
          -125.44939,
          49.65064
        ]
      }
    },
    {
      "type": "Feature",
      "properties": {
        "node": "n_geo_cowichan_valley_wine",
        "node_id": "n_geo_cowichan_valley_wine",
        "name": "Cowichan Valley (wine sub-GI)",
        "parent_node_id": "n_geo_vancouver_island_wine",
        "country_node_id": "n_geo_canada",
        "retrieved_on": "2026-09-26",
        "point_role": "qualified_named_locality_or_terrain_reference",
        "point_place_name": "Duncan",
        "geonames_id": "5943865",
        "geonames_feature_class": "P",
        "geonames_feature_code": "PPL",
        "geonames_modified_on": "2022-01-21",
        "source_url": "https://www.geonames.org/5943865/",
        "source_coordinate_url": "https://download.geonames.org/export/dump/CA.zip",
        "source_file_sha256": "3715e892de87dacb72ddfa4089542fd7200e97f86fb458a8ab0a0687172c9639",
        "license": "CC-BY-4.0",
        "attribution": "Contains GeoNames geographical data, licensed under Creative Commons Attribution 4.0. Exact named references and WGS84 coordinates; no boundaries derived.",
        "label_note": "Named reference: Duncan. This is an orientation locality or terrain feature, not an official wine-area centroid; municipality and wine boundaries may differ."
      },
      "geometry": {
        "type": "Point",
        "coordinates": [
          -123.70266,
          48.78293
        ]
      }
    },
    {
      "type": "Feature",
      "properties": {
        "node": "n_geo_east_kelowna_slopes",
        "node_id": "n_geo_east_kelowna_slopes",
        "name": "East Kelowna Slopes",
        "parent_node_id": "n_geo_okanagan_valley",
        "country_node_id": "n_geo_canada",
        "retrieved_on": "2026-09-26",
        "point_role": "qualified_named_locality_or_terrain_reference",
        "point_place_name": "East Kelowna",
        "geonames_id": "5945769",
        "geonames_feature_class": "P",
        "geonames_feature_code": "PPL",
        "geonames_modified_on": "2019-02-26",
        "source_url": "https://www.geonames.org/5945769/",
        "source_coordinate_url": "https://download.geonames.org/export/dump/CA.zip",
        "source_file_sha256": "3715e892de87dacb72ddfa4089542fd7200e97f86fb458a8ab0a0687172c9639",
        "license": "CC-BY-4.0",
        "attribution": "Contains GeoNames geographical data, licensed under Creative Commons Attribution 4.0. Exact named references and WGS84 coordinates; no boundaries derived.",
        "label_note": "Named reference: East Kelowna. This is an orientation locality or terrain feature, not an official wine-area centroid; municipality and wine boundaries may differ."
      },
      "geometry": {
        "type": "Point",
        "coordinates": [
          -119.425,
          49.8625
        ]
      }
    },
    {
      "type": "Feature",
      "properties": {
        "node": "n_geo_golden_mile_slopes",
        "node_id": "n_geo_golden_mile_slopes",
        "name": "Golden Mile Slopes",
        "parent_node_id": "n_geo_okanagan_valley",
        "country_node_id": "n_geo_canada",
        "retrieved_on": "2026-09-26",
        "point_role": "qualified_named_locality_or_terrain_reference",
        "point_place_name": "Oliver",
        "geonames_id": "6093514",
        "geonames_feature_class": "P",
        "geonames_feature_code": "PPL",
        "geonames_modified_on": "2025-06-08",
        "source_url": "https://www.geonames.org/6093514/",
        "source_coordinate_url": "https://download.geonames.org/export/dump/CA.zip",
        "source_file_sha256": "3715e892de87dacb72ddfa4089542fd7200e97f86fb458a8ab0a0687172c9639",
        "license": "CC-BY-4.0",
        "attribution": "Contains GeoNames geographical data, licensed under Creative Commons Attribution 4.0. Exact named references and WGS84 coordinates; no boundaries derived.",
        "label_note": "Named reference: Oliver. This is an orientation locality or terrain feature, not an official wine-area centroid; municipality and wine boundaries may differ."
      },
      "geometry": {
        "type": "Point",
        "coordinates": [
          -119.5524,
          49.18306
        ]
      }
    },
    {
      "type": "Feature",
      "properties": {
        "node": "n_geo_lake_country_wine",
        "node_id": "n_geo_lake_country_wine",
        "name": "Lake Country (wine sub-GI)",
        "parent_node_id": "n_geo_okanagan_valley",
        "country_node_id": "n_geo_canada",
        "retrieved_on": "2026-09-26",
        "point_role": "qualified_named_locality_or_terrain_reference",
        "point_place_name": "Lake Country",
        "geonames_id": "6048314",
        "geonames_feature_class": "A",
        "geonames_feature_code": "ADM3",
        "geonames_modified_on": "2019-02-26",
        "source_url": "https://www.geonames.org/6048314/",
        "source_coordinate_url": "https://download.geonames.org/export/dump/CA.zip",
        "source_file_sha256": "3715e892de87dacb72ddfa4089542fd7200e97f86fb458a8ab0a0687172c9639",
        "license": "CC-BY-4.0",
        "attribution": "Contains GeoNames geographical data, licensed under Creative Commons Attribution 4.0. Exact named references and WGS84 coordinates; no boundaries derived.",
        "label_note": "Named reference: Lake Country. This is an orientation locality or terrain feature, not an official wine-area centroid; municipality and wine boundaries may differ."
      },
      "geometry": {
        "type": "Point",
        "coordinates": [
          -119.36907,
          50.10808
        ]
      }
    },
    {
      "type": "Feature",
      "properties": {
        "node": "n_geo_naramata_bench",
        "node_id": "n_geo_naramata_bench",
        "name": "Naramata Bench",
        "parent_node_id": "n_geo_okanagan_valley",
        "country_node_id": "n_geo_canada",
        "retrieved_on": "2026-09-26",
        "point_role": "qualified_named_locality_or_terrain_reference",
        "point_place_name": "Naramata",
        "geonames_id": "8449722",
        "geonames_feature_class": "P",
        "geonames_feature_code": "PPL",
        "geonames_modified_on": "2025-09-30",
        "source_url": "https://www.geonames.org/8449722/",
        "source_coordinate_url": "https://download.geonames.org/export/dump/CA.zip",
        "source_file_sha256": "3715e892de87dacb72ddfa4089542fd7200e97f86fb458a8ab0a0687172c9639",
        "license": "CC-BY-4.0",
        "attribution": "Contains GeoNames geographical data, licensed under Creative Commons Attribution 4.0. Exact named references and WGS84 coordinates; no boundaries derived.",
        "label_note": "Named reference: Naramata. This is an orientation locality or terrain feature, not an official wine-area centroid; municipality and wine boundaries may differ."
      },
      "geometry": {
        "type": "Point",
        "coordinates": [
          -119.59442,
          49.59513
        ]
      }
    },
    {
      "type": "Feature",
      "properties": {
        "node": "n_geo_okanagan_falls_wine",
        "node_id": "n_geo_okanagan_falls_wine",
        "name": "Okanagan Falls (wine sub-GI)",
        "parent_node_id": "n_geo_okanagan_valley",
        "country_node_id": "n_geo_canada",
        "retrieved_on": "2026-09-26",
        "point_role": "qualified_named_locality_or_terrain_reference",
        "point_place_name": "Okanagan Falls",
        "geonames_id": "6092889",
        "geonames_feature_class": "P",
        "geonames_feature_code": "PPL",
        "geonames_modified_on": "2025-08-21",
        "source_url": "https://www.geonames.org/6092889/",
        "source_coordinate_url": "https://download.geonames.org/export/dump/CA.zip",
        "source_file_sha256": "3715e892de87dacb72ddfa4089542fd7200e97f86fb458a8ab0a0687172c9639",
        "license": "CC-BY-4.0",
        "attribution": "Contains GeoNames geographical data, licensed under Creative Commons Attribution 4.0. Exact named references and WGS84 coordinates; no boundaries derived.",
        "label_note": "Named reference: Okanagan Falls. This is an orientation locality or terrain feature, not an official wine-area centroid; municipality and wine boundaries may differ."
      },
      "geometry": {
        "type": "Point",
        "coordinates": [
          -119.56667,
          49.35
        ]
      }
    },
    {
      "type": "Feature",
      "properties": {
        "node": "n_geo_skaha_bench",
        "node_id": "n_geo_skaha_bench",
        "name": "Skaha Bench",
        "parent_node_id": "n_geo_okanagan_valley",
        "country_node_id": "n_geo_canada",
        "retrieved_on": "2026-09-26",
        "point_role": "qualified_named_locality_or_terrain_reference",
        "point_place_name": "Penticton",
        "geonames_id": "6101141",
        "geonames_feature_class": "P",
        "geonames_feature_code": "PPL",
        "geonames_modified_on": "2021-11-11",
        "source_url": "https://www.geonames.org/6101141/",
        "source_coordinate_url": "https://download.geonames.org/export/dump/CA.zip",
        "source_file_sha256": "3715e892de87dacb72ddfa4089542fd7200e97f86fb458a8ab0a0687172c9639",
        "license": "CC-BY-4.0",
        "attribution": "Contains GeoNames geographical data, licensed under Creative Commons Attribution 4.0. Exact named references and WGS84 coordinates; no boundaries derived.",
        "label_note": "Named reference: Penticton. This is an orientation locality or terrain feature, not an official wine-area centroid; municipality and wine boundaries may differ."
      },
      "geometry": {
        "type": "Point",
        "coordinates": [
          -119.58584,
          49.48062
        ]
      }
    },
    {
      "type": "Feature",
      "properties": {
        "node": "n_geo_south_kelowna_slopes",
        "node_id": "n_geo_south_kelowna_slopes",
        "name": "South Kelowna Slopes",
        "parent_node_id": "n_geo_okanagan_valley",
        "country_node_id": "n_geo_canada",
        "retrieved_on": "2026-09-26",
        "point_role": "qualified_named_locality_or_terrain_reference",
        "point_place_name": "Okanagan Mission",
        "geonames_id": "6092896",
        "geonames_feature_class": "P",
        "geonames_feature_code": "PPLX",
        "geonames_modified_on": "2025-08-26",
        "source_url": "https://www.geonames.org/6092896/",
        "source_coordinate_url": "https://download.geonames.org/export/dump/CA.zip",
        "source_file_sha256": "3715e892de87dacb72ddfa4089542fd7200e97f86fb458a8ab0a0687172c9639",
        "license": "CC-BY-4.0",
        "attribution": "Contains GeoNames geographical data, licensed under Creative Commons Attribution 4.0. Exact named references and WGS84 coordinates; no boundaries derived.",
        "label_note": "Named reference: Okanagan Mission. This is an orientation locality or terrain feature, not an official wine-area centroid; municipality and wine boundaries may differ."
      },
      "geometry": {
        "type": "Point",
        "coordinates": [
          -119.48333,
          49.81667
        ]
      }
    },
    {
      "type": "Feature",
      "properties": {
        "node": "n_geo_summerland_bench",
        "node_id": "n_geo_summerland_bench",
        "name": "Summerland Bench",
        "parent_node_id": "n_geo_okanagan_valley",
        "country_node_id": "n_geo_canada",
        "retrieved_on": "2026-09-26",
        "point_role": "qualified_named_locality_or_terrain_reference",
        "point_place_name": "Summerland",
        "geonames_id": "6159232",
        "geonames_feature_class": "P",
        "geonames_feature_code": "PPL",
        "geonames_modified_on": "2021-12-27",
        "source_url": "https://www.geonames.org/6159232/",
        "source_coordinate_url": "https://download.geonames.org/export/dump/CA.zip",
        "source_file_sha256": "3715e892de87dacb72ddfa4089542fd7200e97f86fb458a8ab0a0687172c9639",
        "license": "CC-BY-4.0",
        "attribution": "Contains GeoNames geographical data, licensed under Creative Commons Attribution 4.0. Exact named references and WGS84 coordinates; no boundaries derived.",
        "label_note": "Named reference: Summerland. This is an orientation locality or terrain feature, not an official wine-area centroid; municipality and wine boundaries may differ."
      },
      "geometry": {
        "type": "Point",
        "coordinates": [
          -119.66911,
          49.59977
        ]
      }
    },
    {
      "type": "Feature",
      "properties": {
        "node": "n_geo_summerland_lakefront",
        "node_id": "n_geo_summerland_lakefront",
        "name": "Summerland Lakefront",
        "parent_node_id": "n_geo_okanagan_valley",
        "country_node_id": "n_geo_canada",
        "retrieved_on": "2026-09-26",
        "point_role": "qualified_named_locality_or_terrain_reference",
        "point_place_name": "Trout Creek",
        "geonames_id": "6169289",
        "geonames_feature_class": "P",
        "geonames_feature_code": "PPL",
        "geonames_modified_on": "2024-02-27",
        "source_url": "https://www.geonames.org/6169289/",
        "source_coordinate_url": "https://download.geonames.org/export/dump/CA.zip",
        "source_file_sha256": "3715e892de87dacb72ddfa4089542fd7200e97f86fb458a8ab0a0687172c9639",
        "license": "CC-BY-4.0",
        "attribution": "Contains GeoNames geographical data, licensed under Creative Commons Attribution 4.0. Exact named references and WGS84 coordinates; no boundaries derived.",
        "label_note": "Named reference: Trout Creek. This is an orientation locality or terrain feature, not an official wine-area centroid; municipality and wine boundaries may differ."
      },
      "geometry": {
        "type": "Point",
        "coordinates": [
          -119.61667,
          49.56667
        ]
      }
    },
    {
      "type": "Feature",
      "properties": {
        "node": "n_geo_summerland_valleys",
        "node_id": "n_geo_summerland_valleys",
        "name": "Summerland Valleys",
        "parent_node_id": "n_geo_okanagan_valley",
        "country_node_id": "n_geo_canada",
        "retrieved_on": "2026-09-26",
        "point_role": "qualified_named_locality_or_terrain_reference",
        "point_place_name": "Garnet Valley",
        "geonames_id": "5959722",
        "geonames_feature_class": "P",
        "geonames_feature_code": "PPL",
        "geonames_modified_on": "2019-02-26",
        "source_url": "https://www.geonames.org/5959722/",
        "source_coordinate_url": "https://download.geonames.org/export/dump/CA.zip",
        "source_file_sha256": "3715e892de87dacb72ddfa4089542fd7200e97f86fb458a8ab0a0687172c9639",
        "license": "CC-BY-4.0",
        "attribution": "Contains GeoNames geographical data, licensed under Creative Commons Attribution 4.0. Exact named references and WGS84 coordinates; no boundaries derived.",
        "label_note": "Named reference: Garnet Valley. This is an orientation locality or terrain feature, not an official wine-area centroid; municipality and wine boundaries may differ."
      },
      "geometry": {
        "type": "Point",
        "coordinates": [
          -119.70833,
          49.64167
        ]
      }
    },
    {
      "type": "Feature",
      "properties": {
        "node": "n_geo_valle_de_zonda",
        "node_id": "n_geo_valle_de_zonda",
        "name": "Valle de Zonda",
        "parent_node_id": "n_geo_san_juan_argentina",
        "country_node_id": "n_geo_argentina",
        "retrieved_on": "2026-09-26",
        "point_role": "qualified_named_locality_or_terrain_reference",
        "point_place_name": "Villa Basilio Nievas",
        "geonames_id": "3832080",
        "geonames_feature_class": "P",
        "geonames_feature_code": "PPLA2",
        "geonames_modified_on": "2026-04-16",
        "source_url": "https://www.geonames.org/3832080/",
        "source_coordinate_url": "https://download.geonames.org/export/dump/AR.zip",
        "source_file_sha256": "4b33f774103c9390525ad774e59371d5244ebeffcd709fde5559751cf49ac688",
        "license": "CC-BY-4.0",
        "attribution": "Contains GeoNames geographical data, licensed under Creative Commons Attribution 4.0. Exact named references and WGS84 coordinates; no boundaries derived.",
        "label_note": "Named reference: Villa Basilio Nievas. This is an orientation locality or terrain feature, not an official wine-area centroid; municipality and wine boundaries may differ."
      },
      "geometry": {
        "type": "Point",
        "coordinates": [
          -68.73333,
          -31.55
        ]
      }
    },
    {
      "type": "Feature",
      "properties": {
        "node": "n_geo_valle_de_calingasta",
        "node_id": "n_geo_valle_de_calingasta",
        "name": "Valle de Calingasta",
        "parent_node_id": "n_geo_san_juan_argentina",
        "country_node_id": "n_geo_argentina",
        "retrieved_on": "2026-09-26",
        "point_role": "qualified_named_locality_or_terrain_reference",
        "point_place_name": "Calingasta",
        "geonames_id": "3863362",
        "geonames_feature_class": "P",
        "geonames_feature_code": "PPL",
        "geonames_modified_on": "2026-07-06",
        "source_url": "https://www.geonames.org/3863362/",
        "source_coordinate_url": "https://download.geonames.org/export/dump/AR.zip",
        "source_file_sha256": "4b33f774103c9390525ad774e59371d5244ebeffcd709fde5559751cf49ac688",
        "license": "CC-BY-4.0",
        "attribution": "Contains GeoNames geographical data, licensed under Creative Commons Attribution 4.0. Exact named references and WGS84 coordinates; no boundaries derived.",
        "label_note": "Named reference: Calingasta. This is an orientation locality or terrain feature, not an official wine-area centroid; municipality and wine boundaries may differ."
      },
      "geometry": {
        "type": "Point",
        "coordinates": [
          -69.4208,
          -31.33394
        ]
      }
    },
    {
      "type": "Feature",
      "properties": {
        "node": "n_geo_barreal",
        "node_id": "n_geo_barreal",
        "name": "Barreal",
        "parent_node_id": "n_geo_valle_de_calingasta",
        "country_node_id": "n_geo_argentina",
        "retrieved_on": "2026-09-26",
        "point_role": "qualified_named_locality_or_terrain_reference",
        "point_place_name": "Barreal",
        "geonames_id": "3864688",
        "geonames_feature_class": "P",
        "geonames_feature_code": "PPL",
        "geonames_modified_on": "2026-07-06",
        "source_url": "https://www.geonames.org/3864688/",
        "source_coordinate_url": "https://download.geonames.org/export/dump/AR.zip",
        "source_file_sha256": "4b33f774103c9390525ad774e59371d5244ebeffcd709fde5559751cf49ac688",
        "license": "CC-BY-4.0",
        "attribution": "Contains GeoNames geographical data, licensed under Creative Commons Attribution 4.0. Exact named references and WGS84 coordinates; no boundaries derived.",
        "label_note": "Named reference: Barreal. This is an orientation locality or terrain feature, not an official wine-area centroid; municipality and wine boundaries may differ."
      },
      "geometry": {
        "type": "Point",
        "coordinates": [
          -69.47224,
          -31.64996
        ]
      }
    },
    {
      "type": "Feature",
      "properties": {
        "node": "n_geo_cachi_wine",
        "node_id": "n_geo_cachi_wine",
        "name": "Cachi (wine GI)",
        "parent_node_id": "n_geo_salta",
        "country_node_id": "n_geo_argentina",
        "retrieved_on": "2026-09-26",
        "point_role": "qualified_named_locality_or_terrain_reference",
        "point_place_name": "Cachi",
        "geonames_id": "3863557",
        "geonames_feature_class": "P",
        "geonames_feature_code": "PPLA2",
        "geonames_modified_on": "2026-04-16",
        "source_url": "https://www.geonames.org/3863557/",
        "source_coordinate_url": "https://download.geonames.org/export/dump/AR.zip",
        "source_file_sha256": "4b33f774103c9390525ad774e59371d5244ebeffcd709fde5559751cf49ac688",
        "license": "CC-BY-4.0",
        "attribution": "Contains GeoNames geographical data, licensed under Creative Commons Attribution 4.0. Exact named references and WGS84 coordinates; no boundaries derived.",
        "label_note": "Named reference: Cachi. This is an orientation locality or terrain feature, not an official wine-area centroid; municipality and wine boundaries may differ."
      },
      "geometry": {
        "type": "Point",
        "coordinates": [
          -66.1627,
          -25.12083
        ]
      }
    },
    {
      "type": "Feature",
      "properties": {
        "node": "n_geo_alto_valle_rio_negro",
        "node_id": "n_geo_alto_valle_rio_negro",
        "name": "Alto Valle de Río Negro",
        "parent_node_id": "n_geo_rio_negro",
        "country_node_id": "n_geo_argentina",
        "retrieved_on": "2026-09-26",
        "point_role": "qualified_named_locality_or_terrain_reference",
        "point_place_name": "General Roca",
        "geonames_id": "3855065",
        "geonames_feature_class": "P",
        "geonames_feature_code": "PPL",
        "geonames_modified_on": "2015-04-22",
        "source_url": "https://www.geonames.org/3855065/",
        "source_coordinate_url": "https://download.geonames.org/export/dump/AR.zip",
        "source_file_sha256": "4b33f774103c9390525ad774e59371d5244ebeffcd709fde5559751cf49ac688",
        "license": "CC-BY-4.0",
        "attribution": "Contains GeoNames geographical data, licensed under Creative Commons Attribution 4.0. Exact named references and WGS84 coordinates; no boundaries derived.",
        "label_note": "Named reference: General Roca. This is an orientation locality or terrain feature, not an official wine-area centroid; municipality and wine boundaries may differ."
      },
      "geometry": {
        "type": "Point",
        "coordinates": [
          -67.58333,
          -39.03333
        ]
      }
    },
    {
      "type": "Feature",
      "properties": {
        "node": "n_geo_chapadmalal_wine",
        "node_id": "n_geo_chapadmalal_wine",
        "name": "Chapadmalal (wine GI)",
        "parent_node_id": "n_geo_buenos_aires_province",
        "country_node_id": "n_geo_argentina",
        "retrieved_on": "2026-09-26",
        "point_role": "qualified_named_locality_or_terrain_reference",
        "point_place_name": "Colonia Chapadmalal",
        "geonames_id": "3435335",
        "geonames_feature_class": "P",
        "geonames_feature_code": "PPL",
        "geonames_modified_on": "2016-01-30",
        "source_url": "https://www.geonames.org/3435335/",
        "source_coordinate_url": "https://download.geonames.org/export/dump/AR.zip",
        "source_file_sha256": "4b33f774103c9390525ad774e59371d5244ebeffcd709fde5559751cf49ac688",
        "license": "CC-BY-4.0",
        "attribution": "Contains GeoNames geographical data, licensed under Creative Commons Attribution 4.0. Exact named references and WGS84 coordinates; no boundaries derived.",
        "label_note": "Named reference: Colonia Chapadmalal. This is an orientation locality or terrain feature, not an official wine-area centroid; municipality and wine boundaries may differ."
      },
      "geometry": {
        "type": "Point",
        "coordinates": [
          -57.70446,
          -38.19772
        ]
      }
    },
    {
      "type": "Feature",
      "properties": {
        "node": "n_geo_villa_ventana_wine",
        "node_id": "n_geo_villa_ventana_wine",
        "name": "Villa Ventana (wine GI)",
        "parent_node_id": "n_geo_buenos_aires_province",
        "country_node_id": "n_geo_argentina",
        "retrieved_on": "2026-09-26",
        "point_role": "qualified_named_locality_or_terrain_reference",
        "point_place_name": "Villa Ventana",
        "geonames_id": "7646806",
        "geonames_feature_class": "P",
        "geonames_feature_code": "PPL",
        "geonames_modified_on": "2016-01-30",
        "source_url": "https://www.geonames.org/7646806/",
        "source_coordinate_url": "https://download.geonames.org/export/dump/AR.zip",
        "source_file_sha256": "4b33f774103c9390525ad774e59371d5244ebeffcd709fde5559751cf49ac688",
        "license": "CC-BY-4.0",
        "attribution": "Contains GeoNames geographical data, licensed under Creative Commons Attribution 4.0. Exact named references and WGS84 coordinates; no boundaries derived.",
        "label_note": "Named reference: Villa Ventana. This is an orientation locality or terrain feature, not an official wine-area centroid; municipality and wine boundaries may differ."
      },
      "geometry": {
        "type": "Point",
        "coordinates": [
          -61.9356,
          -38.08485
        ]
      }
    },
    {
      "type": "Feature",
      "properties": {
        "node": "n_geo_colonia_caroya",
        "node_id": "n_geo_colonia_caroya",
        "name": "Colonia Caroya",
        "parent_node_id": "n_geo_cordoba_argentina",
        "country_node_id": "n_geo_argentina",
        "retrieved_on": "2026-09-26",
        "point_role": "qualified_named_locality_or_terrain_reference",
        "point_place_name": "Colonia Caroya",
        "geonames_id": "3860801",
        "geonames_feature_class": "P",
        "geonames_feature_code": "PPL",
        "geonames_modified_on": "2026-07-06",
        "source_url": "https://www.geonames.org/3860801/",
        "source_coordinate_url": "https://download.geonames.org/export/dump/AR.zip",
        "source_file_sha256": "4b33f774103c9390525ad774e59371d5244ebeffcd709fde5559751cf49ac688",
        "license": "CC-BY-4.0",
        "attribution": "Contains GeoNames geographical data, licensed under Creative Commons Attribution 4.0. Exact named references and WGS84 coordinates; no boundaries derived.",
        "label_note": "Named reference: Colonia Caroya. This is an orientation locality or terrain feature, not an official wine-area centroid; municipality and wine boundaries may differ."
      },
      "geometry": {
        "type": "Point",
        "coordinates": [
          -64.06172,
          -31.02202
        ]
      }
    },
    {
      "type": "Feature",
      "properties": {
        "node": "n_geo_barrancas_maipu",
        "node_id": "n_geo_barrancas_maipu",
        "name": "Barrancas (Maipú)",
        "parent_node_id": "n_geo_maipu",
        "country_node_id": "n_geo_argentina",
        "retrieved_on": "2026-09-26",
        "point_role": "qualified_named_locality_or_terrain_reference",
        "point_place_name": "Barrancas",
        "geonames_id": "3864730",
        "geonames_feature_class": "P",
        "geonames_feature_code": "PPL",
        "geonames_modified_on": "2019-03-24",
        "source_url": "https://www.geonames.org/3864730/",
        "source_coordinate_url": "https://download.geonames.org/export/dump/AR.zip",
        "source_file_sha256": "4b33f774103c9390525ad774e59371d5244ebeffcd709fde5559751cf49ac688",
        "license": "CC-BY-4.0",
        "attribution": "Contains GeoNames geographical data, licensed under Creative Commons Attribution 4.0. Exact named references and WGS84 coordinates; no boundaries derived.",
        "label_note": "Named reference: Barrancas. This is an orientation locality or terrain feature, not an official wine-area centroid; municipality and wine boundaries may differ."
      },
      "geometry": {
        "type": "Point",
        "coordinates": [
          -68.72984,
          -33.084
        ]
      }
    },
    {
      "type": "Feature",
      "properties": {
        "node": "n_geo_distrito_medrano",
        "node_id": "n_geo_distrito_medrano",
        "name": "Distrito Medrano",
        "parent_node_id": "n_geo_mendoza",
        "country_node_id": "n_geo_argentina",
        "retrieved_on": "2026-09-26",
        "point_role": "qualified_named_locality_or_terrain_reference",
        "point_place_name": "Medrano",
        "geonames_id": "3844473",
        "geonames_feature_class": "P",
        "geonames_feature_code": "PPL",
        "geonames_modified_on": "2023-10-06",
        "source_url": "https://www.geonames.org/3844473/",
        "source_coordinate_url": "https://download.geonames.org/export/dump/AR.zip",
        "source_file_sha256": "4b33f774103c9390525ad774e59371d5244ebeffcd709fde5559751cf49ac688",
        "license": "CC-BY-4.0",
        "attribution": "Contains GeoNames geographical data, licensed under Creative Commons Attribution 4.0. Exact named references and WGS84 coordinates; no boundaries derived.",
        "label_note": "Named reference: Medrano. This is an orientation locality or terrain feature, not an official wine-area centroid; municipality and wine boundaries may differ."
      },
      "geometry": {
        "type": "Point",
        "coordinates": [
          -68.61452,
          -33.17922
        ]
      }
    },
    {
      "type": "Feature",
      "properties": {
        "node": "n_geo_junin_mendoza",
        "node_id": "n_geo_junin_mendoza",
        "name": "Junín (Mendoza)",
        "parent_node_id": "n_geo_mendoza",
        "country_node_id": "n_geo_argentina",
        "retrieved_on": "2026-09-26",
        "point_role": "qualified_named_locality_or_terrain_reference",
        "point_place_name": "Junín",
        "geonames_id": "3853355",
        "geonames_feature_class": "P",
        "geonames_feature_code": "PPLA2",
        "geonames_modified_on": "2026-07-06",
        "source_url": "https://www.geonames.org/3853355/",
        "source_coordinate_url": "https://download.geonames.org/export/dump/AR.zip",
        "source_file_sha256": "4b33f774103c9390525ad774e59371d5244ebeffcd709fde5559751cf49ac688",
        "license": "CC-BY-4.0",
        "attribution": "Contains GeoNames geographical data, licensed under Creative Commons Attribution 4.0. Exact named references and WGS84 coordinates; no boundaries derived.",
        "label_note": "Named reference: Junín. This is an orientation locality or terrain feature, not an official wine-area centroid; municipality and wine boundaries may differ."
      },
      "geometry": {
        "type": "Point",
        "coordinates": [
          -68.48727,
          -33.14653
        ]
      }
    },
    {
      "type": "Feature",
      "properties": {
        "node": "n_geo_teno_valley",
        "node_id": "n_geo_teno_valley",
        "name": "Teno Valley",
        "parent_node_id": "n_geo_curico",
        "country_node_id": "n_geo_chile",
        "retrieved_on": "2026-09-26",
        "point_role": "qualified_named_locality_or_terrain_reference",
        "point_place_name": "Teno",
        "geonames_id": "3869979",
        "geonames_feature_class": "P",
        "geonames_feature_code": "PPL",
        "geonames_modified_on": "2026-09-02",
        "source_url": "https://www.geonames.org/3869979/",
        "source_coordinate_url": "https://download.geonames.org/export/dump/CL.zip",
        "source_file_sha256": "8073778743e096619f023343c3e372102986122e72aee812973507a5669ceb5b",
        "license": "CC-BY-4.0",
        "attribution": "Contains GeoNames geographical data, licensed under Creative Commons Attribution 4.0. Exact named references and WGS84 coordinates; no boundaries derived.",
        "label_note": "Named reference: Teno. This is an orientation locality or terrain feature, not an official wine-area centroid; municipality and wine boundaries may differ."
      },
      "geometry": {
        "type": "Point",
        "coordinates": [
          -71.16219,
          -34.87055
        ]
      }
    },
    {
      "type": "Feature",
      "properties": {
        "node": "n_geo_buin_wine",
        "node_id": "n_geo_buin_wine",
        "name": "Buin (wine area)",
        "parent_node_id": "n_geo_maipo",
        "country_node_id": "n_geo_chile",
        "retrieved_on": "2026-09-26",
        "point_role": "qualified_named_locality_or_terrain_reference",
        "point_place_name": "Buin",
        "geonames_id": "3897774",
        "geonames_feature_class": "P",
        "geonames_feature_code": "PPL",
        "geonames_modified_on": "2025-11-04",
        "source_url": "https://www.geonames.org/3897774/",
        "source_coordinate_url": "https://download.geonames.org/export/dump/CL.zip",
        "source_file_sha256": "8073778743e096619f023343c3e372102986122e72aee812973507a5669ceb5b",
        "license": "CC-BY-4.0",
        "attribution": "Contains GeoNames geographical data, licensed under Creative Commons Attribution 4.0. Exact named references and WGS84 coordinates; no boundaries derived.",
        "label_note": "Named reference: Buin. This is an orientation locality or terrain feature, not an official wine-area centroid; municipality and wine boundaries may differ."
      },
      "geometry": {
        "type": "Point",
        "coordinates": [
          -70.74281,
          -33.73257
        ]
      }
    },
    {
      "type": "Feature",
      "properties": {
        "node": "n_geo_lo_abarca_wine",
        "node_id": "n_geo_lo_abarca_wine",
        "name": "Lo Abarca (wine area)",
        "parent_node_id": "n_geo_san_antonio_valley",
        "country_node_id": "n_geo_chile",
        "retrieved_on": "2026-09-26",
        "point_role": "qualified_named_locality_or_terrain_reference",
        "point_place_name": "Lo Abarca",
        "geonames_id": "3882820",
        "geonames_feature_class": "P",
        "geonames_feature_code": "PPLX",
        "geonames_modified_on": "2023-05-04",
        "source_url": "https://www.geonames.org/3882820/",
        "source_coordinate_url": "https://download.geonames.org/export/dump/CL.zip",
        "source_file_sha256": "8073778743e096619f023343c3e372102986122e72aee812973507a5669ceb5b",
        "license": "CC-BY-4.0",
        "attribution": "Contains GeoNames geographical data, licensed under Creative Commons Attribution 4.0. Exact named references and WGS84 coordinates; no boundaries derived.",
        "label_note": "Named reference: Lo Abarca. This is an orientation locality or terrain feature, not an official wine-area centroid; municipality and wine boundaries may differ."
      },
      "geometry": {
        "type": "Point",
        "coordinates": [
          -71.54338,
          -33.52181
        ]
      }
    },
    {
      "type": "Feature",
      "properties": {
        "node": "n_geo_los_lingues_wine",
        "node_id": "n_geo_los_lingues_wine",
        "name": "Los Lingues (wine area)",
        "parent_node_id": "n_geo_colchagua",
        "country_node_id": "n_geo_chile",
        "retrieved_on": "2026-09-26",
        "point_role": "qualified_named_locality_or_terrain_reference",
        "point_place_name": "Los Lingues",
        "geonames_id": "3881947",
        "geonames_feature_class": "P",
        "geonames_feature_code": "PPLX",
        "geonames_modified_on": "2023-05-04",
        "source_url": "https://www.geonames.org/3881947/",
        "source_coordinate_url": "https://download.geonames.org/export/dump/CL.zip",
        "source_file_sha256": "8073778743e096619f023343c3e372102986122e72aee812973507a5669ceb5b",
        "license": "CC-BY-4.0",
        "attribution": "Contains GeoNames geographical data, licensed under Creative Commons Attribution 4.0. Exact named references and WGS84 coordinates; no boundaries derived.",
        "label_note": "Named reference: Los Lingues. This is an orientation locality or terrain feature, not an official wine-area centroid; municipality and wine boundaries may differ."
      },
      "geometry": {
        "type": "Point",
        "coordinates": [
          -70.88485,
          -34.51919
        ]
      }
    }
  ]
}
