{
  "type": "FeatureCollection",
  "features": [
    {
      "type": "Feature",
      "properties": {
        "node": "n_geo_banghoek",
        "node_id": "n_geo_banghoek",
        "name": "Banghoek",
        "parent_node_id": "n_geo_stellenbosch",
        "country_node_id": "n_geo_south_africa",
        "point_role": "named_locality_or_terrain_reference_point",
        "point_place_name": "Banghoek",
        "source_url": "https://www.geonames.org/3370221/",
        "source_coordinate_url": "https://download.geonames.org/export/dump/ZA.zip",
        "source_file_sha256": "65ab612c4c2ef21c25e6dc33ce0c9714d38fe9e777e36412c478166f1e543be8",
        "geonames_id": "3370221",
        "geonames_feature_class": "P",
        "geonames_feature_code": "PPL",
        "geonames_modified_on": "2012-07-11",
        "retrieved_on": "2026-09-26",
        "license": "CC-BY-4.0",
        "attribution": "Contains GeoNames geographical data, licensed under Creative Commons Attribution 4.0. Reference names and WGS84 coordinates selected from the national gazetteer; no boundaries derived.",
        "label_note": "Reference point: Banghoek (PPL). A nearby named locality or terrain feature provides orientation; this is not the wine-area boundary or an official wine-area centroid."
      },
      "geometry": {
        "type": "Point",
        "coordinates": [
          18.91667,
          -33.91667
        ]
      }
    },
    {
      "type": "Feature",
      "properties": {
        "node": "n_geo_bottelary",
        "node_id": "n_geo_bottelary",
        "name": "Bottelary",
        "parent_node_id": "n_geo_stellenbosch",
        "country_node_id": "n_geo_south_africa",
        "point_role": "named_locality_or_terrain_reference_point",
        "point_place_name": "Bottelaryberg",
        "source_url": "https://www.geonames.org/3369564/",
        "source_coordinate_url": "https://download.geonames.org/export/dump/ZA.zip",
        "source_file_sha256": "65ab612c4c2ef21c25e6dc33ce0c9714d38fe9e777e36412c478166f1e543be8",
        "geonames_id": "3369564",
        "geonames_feature_class": "T",
        "geonames_feature_code": "MT",
        "geonames_modified_on": "2018-12-05",
        "retrieved_on": "2026-09-26",
        "license": "CC-BY-4.0",
        "attribution": "Contains GeoNames geographical data, licensed under Creative Commons Attribution 4.0. Reference names and WGS84 coordinates selected from the national gazetteer; no boundaries derived.",
        "label_note": "Reference point: Bottelaryberg (MT). A nearby named locality or terrain feature provides orientation; this is not the wine-area boundary or an official wine-area centroid."
      },
      "geometry": {
        "type": "Point",
        "coordinates": [
          18.77778,
          -33.90781
        ]
      }
    },
    {
      "type": "Feature",
      "properties": {
        "node": "n_geo_devon_valley",
        "node_id": "n_geo_devon_valley",
        "name": "Devon Valley",
        "parent_node_id": "n_geo_stellenbosch",
        "country_node_id": "n_geo_south_africa",
        "point_role": "named_locality_or_terrain_reference_point",
        "point_place_name": "Protea Hotel Devon Valley",
        "source_url": "https://www.geonames.org/6465157/",
        "source_coordinate_url": "https://download.geonames.org/export/dump/ZA.zip",
        "source_file_sha256": "65ab612c4c2ef21c25e6dc33ce0c9714d38fe9e777e36412c478166f1e543be8",
        "geonames_id": "6465157",
        "geonames_feature_class": "S",
        "geonames_feature_code": "HTL",
        "geonames_modified_on": "2012-07-12",
        "retrieved_on": "2026-09-26",
        "license": "CC-BY-4.0",
        "attribution": "Contains GeoNames geographical data, licensed under Creative Commons Attribution 4.0. Reference names and WGS84 coordinates selected from the national gazetteer; no boundaries derived.",
        "label_note": "Reference point: Protea Hotel Devon Valley (HTL). A nearby named locality or terrain feature provides orientation; this is not the wine-area boundary or an official wine-area centroid."
      },
      "geometry": {
        "type": "Point",
        "coordinates": [
          18.8094,
          -33.8943
        ]
      }
    },
    {
      "type": "Feature",
      "properties": {
        "node": "n_geo_jonkershoek_valley",
        "node_id": "n_geo_jonkershoek_valley",
        "name": "Jonkershoek Valley",
        "parent_node_id": "n_geo_stellenbosch",
        "country_node_id": "n_geo_south_africa",
        "point_role": "named_locality_or_terrain_reference_point",
        "point_place_name": "Jonkershoek Bosboustasie",
        "source_url": "https://www.geonames.org/3366448/",
        "source_coordinate_url": "https://download.geonames.org/export/dump/ZA.zip",
        "source_file_sha256": "65ab612c4c2ef21c25e6dc33ce0c9714d38fe9e777e36412c478166f1e543be8",
        "geonames_id": "3366448",
        "geonames_feature_class": "S",
        "geonames_feature_code": "STNF",
        "geonames_modified_on": "2012-07-12",
        "retrieved_on": "2026-09-26",
        "license": "CC-BY-4.0",
        "attribution": "Contains GeoNames geographical data, licensed under Creative Commons Attribution 4.0. Reference names and WGS84 coordinates selected from the national gazetteer; no boundaries derived.",
        "label_note": "Reference point: Jonkershoek Bosboustasie (STNF). A nearby named locality or terrain feature provides orientation; this is not the wine-area boundary or an official wine-area centroid."
      },
      "geometry": {
        "type": "Point",
        "coordinates": [
          18.93117,
          -33.96381
        ]
      }
    },
    {
      "type": "Feature",
      "properties": {
        "node": "n_geo_papegaaiberg",
        "node_id": "n_geo_papegaaiberg",
        "name": "Papegaaiberg",
        "parent_node_id": "n_geo_stellenbosch",
        "country_node_id": "n_geo_south_africa",
        "point_role": "named_locality_or_terrain_reference_point",
        "point_place_name": "Papegaaiberg",
        "source_url": "https://www.geonames.org/3363045/",
        "source_coordinate_url": "https://download.geonames.org/export/dump/ZA.zip",
        "source_file_sha256": "65ab612c4c2ef21c25e6dc33ce0c9714d38fe9e777e36412c478166f1e543be8",
        "geonames_id": "3363045",
        "geonames_feature_class": "T",
        "geonames_feature_code": "HLL",
        "geonames_modified_on": "2018-12-05",
        "retrieved_on": "2026-09-26",
        "license": "CC-BY-4.0",
        "attribution": "Contains GeoNames geographical data, licensed under Creative Commons Attribution 4.0. Reference names and WGS84 coordinates selected from the national gazetteer; no boundaries derived.",
        "label_note": "Reference point: Papegaaiberg (HLL). A nearby named locality or terrain feature provides orientation; this is not the wine-area boundary or an official wine-area centroid."
      },
      "geometry": {
        "type": "Point",
        "coordinates": [
          18.8447,
          -33.93342
        ]
      }
    },
    {
      "type": "Feature",
      "properties": {
        "node": "n_geo_polkadraai_hills",
        "node_id": "n_geo_polkadraai_hills",
        "name": "Polkadraai Hills",
        "parent_node_id": "n_geo_stellenbosch",
        "country_node_id": "n_geo_south_africa",
        "point_role": "named_locality_or_terrain_reference_point",
        "point_place_name": "Saxenburg",
        "source_url": "https://www.geonames.org/3361771/",
        "source_coordinate_url": "https://download.geonames.org/export/dump/ZA.zip",
        "source_file_sha256": "65ab612c4c2ef21c25e6dc33ce0c9714d38fe9e777e36412c478166f1e543be8",
        "geonames_id": "3361771",
        "geonames_feature_class": "S",
        "geonames_feature_code": "FRM",
        "geonames_modified_on": "2014-10-01",
        "retrieved_on": "2026-09-26",
        "license": "CC-BY-4.0",
        "attribution": "Contains GeoNames geographical data, licensed under Creative Commons Attribution 4.0. Reference names and WGS84 coordinates selected from the national gazetteer; no boundaries derived.",
        "label_note": "Reference point: Saxenburg (FRM). A nearby named locality or terrain feature provides orientation; this is not the wine-area boundary or an official wine-area centroid."
      },
      "geometry": {
        "type": "Point",
        "coordinates": [
          18.72023,
          -33.9473
        ]
      }
    },
    {
      "type": "Feature",
      "properties": {
        "node": "n_geo_vlottenburg",
        "node_id": "n_geo_vlottenburg",
        "name": "Vlottenburg",
        "parent_node_id": "n_geo_stellenbosch",
        "country_node_id": "n_geo_south_africa",
        "point_role": "named_locality_or_terrain_reference_point",
        "point_place_name": "Vlottenburg",
        "source_url": "https://www.geonames.org/7576587/",
        "source_coordinate_url": "https://download.geonames.org/export/dump/ZA.zip",
        "source_file_sha256": "65ab612c4c2ef21c25e6dc33ce0c9714d38fe9e777e36412c478166f1e543be8",
        "geonames_id": "7576587",
        "geonames_feature_class": "P",
        "geonames_feature_code": "PPL",
        "geonames_modified_on": "2012-07-12",
        "retrieved_on": "2026-09-26",
        "license": "CC-BY-4.0",
        "attribution": "Contains GeoNames geographical data, licensed under Creative Commons Attribution 4.0. Reference names and WGS84 coordinates selected from the national gazetteer; no boundaries derived.",
        "label_note": "Reference point: Vlottenburg (PPL). A nearby named locality or terrain feature provides orientation; this is not the wine-area boundary or an official wine-area centroid."
      },
      "geometry": {
        "type": "Point",
        "coordinates": [
          18.79834,
          -33.95952
        ]
      }
    },
    {
      "type": "Feature",
      "properties": {
        "node": "n_geo_upper_hemel_en_aarde",
        "node_id": "n_geo_upper_hemel_en_aarde",
        "name": "Upper Hemel-en-Aarde Valley",
        "parent_node_id": "n_geo_walker_bay",
        "country_node_id": "n_geo_south_africa",
        "point_role": "named_locality_or_terrain_reference_point",
        "point_place_name": "Hemel en Aarde",
        "source_url": "https://www.geonames.org/3366895/",
        "source_coordinate_url": "https://download.geonames.org/export/dump/ZA.zip",
        "source_file_sha256": "65ab612c4c2ef21c25e6dc33ce0c9714d38fe9e777e36412c478166f1e543be8",
        "geonames_id": "3366895",
        "geonames_feature_class": "S",
        "geonames_feature_code": "FRM",
        "geonames_modified_on": "2012-07-11",
        "retrieved_on": "2026-09-26",
        "license": "CC-BY-4.0",
        "attribution": "Contains GeoNames geographical data, licensed under Creative Commons Attribution 4.0. Reference names and WGS84 coordinates selected from the national gazetteer; no boundaries derived.",
        "label_note": "Reference point: Hemel en Aarde (FRM). A nearby named locality or terrain feature provides orientation; this is not the wine-area boundary or an official wine-area centroid."
      },
      "geometry": {
        "type": "Point",
        "coordinates": [
          19.26461,
          -34.35171
        ]
      }
    },
    {
      "type": "Feature",
      "properties": {
        "node": "n_geo_hemel_en_aarde_ridge",
        "node_id": "n_geo_hemel_en_aarde_ridge",
        "name": "Hemel-en-Aarde Ridge",
        "parent_node_id": "n_geo_walker_bay",
        "country_node_id": "n_geo_south_africa",
        "point_role": "named_locality_or_terrain_reference_point",
        "point_place_name": "Mount Babylon",
        "source_url": "https://www.geonames.org/3363910/",
        "source_coordinate_url": "https://download.geonames.org/export/dump/ZA.zip",
        "source_file_sha256": "65ab612c4c2ef21c25e6dc33ce0c9714d38fe9e777e36412c478166f1e543be8",
        "geonames_id": "3363910",
        "geonames_feature_class": "S",
        "geonames_feature_code": "FRM",
        "geonames_modified_on": "2012-07-12",
        "retrieved_on": "2026-09-26",
        "license": "CC-BY-4.0",
        "attribution": "Contains GeoNames geographical data, licensed under Creative Commons Attribution 4.0. Reference names and WGS84 coordinates selected from the national gazetteer; no boundaries derived.",
        "label_note": "Reference point: Mount Babylon (FRM). A nearby named locality or terrain feature provides orientation; this is not the wine-area boundary or an official wine-area centroid."
      },
      "geometry": {
        "type": "Point",
        "coordinates": [
          19.29852,
          -34.30602
        ]
      }
    },
    {
      "type": "Feature",
      "properties": {
        "node": "n_geo_san_pablo_mendoza",
        "node_id": "n_geo_san_pablo_mendoza",
        "name": "San Pablo (Mendoza)",
        "parent_node_id": "n_geo_tunuyan",
        "country_node_id": "n_geo_argentina",
        "point_role": "named_locality_or_terrain_reference_point",
        "point_place_name": "San Pablo",
        "source_url": "https://www.geonames.org/3836827/",
        "source_coordinate_url": "https://download.geonames.org/export/dump/AR.zip",
        "source_file_sha256": "4b33f774103c9390525ad774e59371d5244ebeffcd709fde5559751cf49ac688",
        "geonames_id": "3836827",
        "geonames_feature_class": "P",
        "geonames_feature_code": "PPL",
        "geonames_modified_on": "2023-10-06",
        "retrieved_on": "2026-09-26",
        "license": "CC-BY-4.0",
        "attribution": "Contains GeoNames geographical data, licensed under Creative Commons Attribution 4.0. Reference names and WGS84 coordinates selected from the national gazetteer; no boundaries derived.",
        "label_note": "Reference point: San Pablo (PPL). A nearby named locality or terrain feature provides orientation; this is not the wine-area boundary or an official wine-area centroid."
      },
      "geometry": {
        "type": "Point",
        "coordinates": [
          -69.32192,
          -33.44605
        ]
      }
    },
    {
      "type": "Feature",
      "properties": {
        "node": "n_geo_agrelo",
        "node_id": "n_geo_agrelo",
        "name": "Agrelo",
        "parent_node_id": "n_geo_lujan_de_cuyo",
        "country_node_id": "n_geo_argentina",
        "point_role": "named_locality_or_terrain_reference_point",
        "point_place_name": "Agrelo",
        "source_url": "https://www.geonames.org/3866905/",
        "source_coordinate_url": "https://download.geonames.org/export/dump/AR.zip",
        "source_file_sha256": "4b33f774103c9390525ad774e59371d5244ebeffcd709fde5559751cf49ac688",
        "geonames_id": "3866905",
        "geonames_feature_class": "P",
        "geonames_feature_code": "PPL",
        "geonames_modified_on": "2023-10-06",
        "retrieved_on": "2026-09-26",
        "license": "CC-BY-4.0",
        "attribution": "Contains GeoNames geographical data, licensed under Creative Commons Attribution 4.0. Reference names and WGS84 coordinates selected from the national gazetteer; no boundaries derived.",
        "label_note": "Reference point: Agrelo (PPL). A nearby named locality or terrain feature provides orientation; this is not the wine-area boundary or an official wine-area centroid."
      },
      "geometry": {
        "type": "Point",
        "coordinates": [
          -68.88912,
          -33.12029
        ]
      }
    },
    {
      "type": "Feature",
      "properties": {
        "node": "n_geo_las_compuertas",
        "node_id": "n_geo_las_compuertas",
        "name": "Las Compuertas",
        "parent_node_id": "n_geo_lujan_de_cuyo",
        "country_node_id": "n_geo_argentina",
        "point_role": "named_locality_or_terrain_reference_point",
        "point_place_name": "Las Compuertas",
        "source_url": "https://www.geonames.org/3848533/",
        "source_coordinate_url": "https://download.geonames.org/export/dump/AR.zip",
        "source_file_sha256": "4b33f774103c9390525ad774e59371d5244ebeffcd709fde5559751cf49ac688",
        "geonames_id": "3848533",
        "geonames_feature_class": "P",
        "geonames_feature_code": "PPL",
        "geonames_modified_on": "2019-03-24",
        "retrieved_on": "2026-09-26",
        "license": "CC-BY-4.0",
        "attribution": "Contains GeoNames geographical data, licensed under Creative Commons Attribution 4.0. Reference names and WGS84 coordinates selected from the national gazetteer; no boundaries derived.",
        "label_note": "Reference point: Las Compuertas (PPL). A nearby named locality or terrain feature provides orientation; this is not the wine-area boundary or an official wine-area centroid."
      },
      "geometry": {
        "type": "Point",
        "coordinates": [
          -68.97337,
          -33.03639
        ]
      }
    },
    {
      "type": "Feature",
      "properties": {
        "node": "n_geo_gualtallary",
        "node_id": "n_geo_gualtallary",
        "name": "Gualtallary",
        "parent_node_id": "n_geo_tupungato",
        "country_node_id": "n_geo_argentina",
        "point_role": "named_locality_or_terrain_reference_point",
        "point_place_name": "Gualtallary",
        "source_url": "https://www.geonames.org/12594563/",
        "source_coordinate_url": "https://download.geonames.org/export/dump/AR.zip",
        "source_file_sha256": "4b33f774103c9390525ad774e59371d5244ebeffcd709fde5559751cf49ac688",
        "geonames_id": "12594563",
        "geonames_feature_class": "P",
        "geonames_feature_code": "PPL",
        "geonames_modified_on": "2023-10-16",
        "retrieved_on": "2026-09-26",
        "license": "CC-BY-4.0",
        "attribution": "Contains GeoNames geographical data, licensed under Creative Commons Attribution 4.0. Reference names and WGS84 coordinates selected from the national gazetteer; no boundaries derived.",
        "label_note": "Reference point: Gualtallary (PPL). A nearby named locality or terrain feature provides orientation; this is not the wine-area boundary or an official wine-area centroid."
      },
      "geometry": {
        "type": "Point",
        "coordinates": [
          -69.26463,
          -33.40016
        ]
      }
    }
  ]
}
