{
  "type": "FeatureCollection",
  "features": [
    {
      "type": "Feature",
      "properties": {
        "node": "n_geo_au_adelaide_super_zone",
        "node_id": "n_geo_au_adelaide_super_zone",
        "name": "Adelaide (super zone)",
        "parent_node_id": "n_geo_south_australia",
        "country_node_id": "n_geo_australia",
        "point_role": "qualified_locality_or_terrain_reference_point",
        "point_place_name": "Adelaide",
        "point_description": "capital city of South Australia",
        "source_url": "https://www.wikidata.org/wiki/Q5112",
        "source_coordinate_url": "https://www.wikidata.org/wiki/Special:EntityData/Q5112.json",
        "wikidata_id": "Q5112",
        "wikidata_coordinate_claim": "q5112$0FBC5F51-2A4B-4FC2-9F6D-2F5C5774C547",
        "source_entity_sha256": "da79dd870097889582adb6db984205de2d7436d8cd88a92ac41e9cb9709d6a45",
        "coordinate_precision": 0.0002777777777777778,
        "retrieved_on": "2026-09-26",
        "license": "CC0-1.0",
        "label_note": "Reference location: Adelaide. This qualified named locality, administrative area or terrain reference provides orientation; it is not the wine-area boundary or an official centroid."
      },
      "geometry": {
        "type": "Point",
        "coordinates": [
          138.6,
          -34.9275
        ]
      }
    },
    {
      "type": "Feature",
      "properties": {
        "node": "n_geo_au_northern_territory",
        "node_id": "n_geo_au_northern_territory",
        "name": "Northern Territory",
        "parent_node_id": "n_geo_australia",
        "country_node_id": "n_geo_australia",
        "point_role": "gazetteer_reference_point",
        "point_place_name": "Northern Territory",
        "point_description": "federal territory of Australia",
        "source_url": "https://www.wikidata.org/wiki/Q3235",
        "source_coordinate_url": "https://www.wikidata.org/wiki/Special:EntityData/Q3235.json",
        "wikidata_id": "Q3235",
        "wikidata_coordinate_claim": "q3235$7CF4A3B5-C49D-4DAF-BC26-6B2C50DD400E",
        "source_entity_sha256": "31799f0cf09b798a63e79007f6750c4cdf6935bd769991794da0ead5bf90eaf6",
        "coordinate_precision": 1,
        "retrieved_on": "2026-09-26",
        "license": "CC0-1.0",
        "label_note": "Reference location: Northern Territory. This qualified named locality, administrative area or terrain reference provides orientation; it is not the wine-area boundary or an official centroid."
      },
      "geometry": {
        "type": "Point",
        "coordinates": [
          133,
          -20
        ]
      }
    },
    {
      "type": "Feature",
      "properties": {
        "node": "n_geo_au_australian_capital_territory",
        "node_id": "n_geo_au_australian_capital_territory",
        "name": "Australian Capital Territory",
        "parent_node_id": "n_geo_australia",
        "country_node_id": "n_geo_australia",
        "point_role": "gazetteer_reference_point",
        "point_place_name": "Australian Capital Territory",
        "point_description": "federal territory of Australia, containing the capital city, Canberra",
        "source_url": "https://www.wikidata.org/wiki/Q3258",
        "source_coordinate_url": "https://www.wikidata.org/wiki/Special:EntityData/Q3258.json",
        "wikidata_id": "Q3258",
        "wikidata_coordinate_claim": "q3258$0F3FAA2E-6FE7-49DD-A008-EFC909A978D9",
        "source_entity_sha256": "66bc03a3d9507656c01e2ad01c41a12c98647acaa0a538091927f7e57a3c6d05",
        "coordinate_precision": 0.00027777777777778,
        "retrieved_on": "2026-09-26",
        "license": "CC0-1.0",
        "label_note": "Reference location: Australian Capital Territory. This qualified named locality, administrative area or terrain reference provides orientation; it is not the wine-area boundary or an official centroid."
      },
      "geometry": {
        "type": "Point",
        "coordinates": [
          148.98055555556,
          -35.45
        ]
      }
    },
    {
      "type": "Feature",
      "properties": {
        "node": "n_geo_za_greater_cape",
        "node_id": "n_geo_za_greater_cape",
        "name": "Greater Cape",
        "parent_node_id": "n_geo_south_africa",
        "country_node_id": "n_geo_south_africa",
        "point_role": "qualified_locality_or_terrain_reference_point",
        "point_place_name": "Beaufort West",
        "point_description": "town in the Western Cape, South Africa",
        "source_url": "https://www.wikidata.org/wiki/Q813395",
        "source_coordinate_url": "https://www.wikidata.org/wiki/Special:EntityData/Q813395.json",
        "wikidata_id": "Q813395",
        "wikidata_coordinate_claim": "q813395$BEB7411D-6569-449C-9B83-BBF70E9D7317",
        "source_entity_sha256": "63383f14db50203ee5500d5fcf885c7379f4fedfe77a6d46b67863e8117afdc3",
        "coordinate_precision": 0.016666666666667,
        "retrieved_on": "2026-09-26",
        "license": "CC0-1.0",
        "label_note": "Reference location: Beaufort West. This qualified named locality, administrative area or terrain reference provides orientation; it is not the wine-area boundary or an official centroid."
      },
      "geometry": {
        "type": "Point",
        "coordinates": [
          22.583333333333,
          -32.35
        ]
      }
    },
    {
      "type": "Feature",
      "properties": {
        "node": "n_geo_za_cape_coast",
        "node_id": "n_geo_za_cape_coast",
        "name": "Cape Coast",
        "parent_node_id": "n_geo_western_cape",
        "country_node_id": "n_geo_south_africa",
        "point_role": "qualified_locality_or_terrain_reference_point",
        "point_place_name": "Caledon",
        "point_description": "town in the Western Cape, South Africa",
        "source_url": "https://www.wikidata.org/wiki/Q777884",
        "source_coordinate_url": "https://www.wikidata.org/wiki/Special:EntityData/Q777884.json",
        "wikidata_id": "Q777884",
        "wikidata_coordinate_claim": "q777884$72C8D544-2BEA-42CE-9196-C8560C9F0EDB",
        "source_entity_sha256": "a23fce6ceb1001dc39e518ee7fae8cc7ea38528d737729f5820f42ae62c3c287",
        "coordinate_precision": 0.00027777777777778,
        "retrieved_on": "2026-09-26",
        "license": "CC0-1.0",
        "label_note": "Reference location: Caledon, South Africa. This qualified named locality, administrative area or terrain reference provides orientation; it is not the wine-area boundary or an official centroid."
      },
      "geometry": {
        "type": "Point",
        "coordinates": [
          19.428333333333,
          -34.23
        ]
      }
    },
    {
      "type": "Feature",
      "properties": {
        "node": "n_geo_za_northern_cape",
        "node_id": "n_geo_za_northern_cape",
        "name": "Northern Cape",
        "parent_node_id": "n_geo_south_africa",
        "country_node_id": "n_geo_south_africa",
        "point_role": "qualified_locality_or_terrain_reference_point",
        "point_place_name": "Northern Cape",
        "point_description": "province of South Africa",
        "source_url": "https://www.wikidata.org/wiki/Q132418",
        "source_coordinate_url": "https://www.wikidata.org/wiki/Special:EntityData/Q132418.json",
        "wikidata_id": "Q132418",
        "wikidata_coordinate_claim": "q132418$30341005-CAF1-4E44-BC46-E8F5E0BFC6EB",
        "source_entity_sha256": "8b3d965cf02a3d01858fdb8331e65fc67fb48d215271079c5d2048b9102994bf",
        "coordinate_precision": 1,
        "retrieved_on": "2026-09-26",
        "license": "CC0-1.0",
        "label_note": "Reference location: Northern Cape. This qualified named locality, administrative area or terrain reference provides orientation; it is not the wine-area boundary or an official centroid."
      },
      "geometry": {
        "type": "Point",
        "coordinates": [
          22,
          -30
        ]
      }
    },
    {
      "type": "Feature",
      "properties": {
        "node": "n_geo_za_eastern_cape",
        "node_id": "n_geo_za_eastern_cape",
        "name": "Eastern Cape",
        "parent_node_id": "n_geo_south_africa",
        "country_node_id": "n_geo_south_africa",
        "point_role": "qualified_locality_or_terrain_reference_point",
        "point_place_name": "Eastern Cape",
        "point_description": "province of South Africa formed in 1994, comprising former Xhosa bantustans Transkei and Ciskei; capital Bhisho, largest city Gqeberha; traditional homeland of the Xhosa people",
        "source_url": "https://www.wikidata.org/wiki/Q130840",
        "source_coordinate_url": "https://www.wikidata.org/wiki/Special:EntityData/Q130840.json",
        "wikidata_id": "Q130840",
        "wikidata_coordinate_claim": "q130840$9E7DDA9A-66C2-47D0-8BD0-07415AEAD341",
        "source_entity_sha256": "a0384b544186ab689869ee4218f69efb962edc6e943a0fbf8243af4bbc3adaf8",
        "coordinate_precision": 1,
        "retrieved_on": "2026-09-26",
        "license": "CC0-1.0",
        "label_note": "Reference location: Eastern Cape. This qualified named locality, administrative area or terrain reference provides orientation; it is not the wine-area boundary or an official centroid."
      },
      "geometry": {
        "type": "Point",
        "coordinates": [
          27,
          -32
        ]
      }
    },
    {
      "type": "Feature",
      "properties": {
        "node": "n_geo_za_kwazulu_natal",
        "node_id": "n_geo_za_kwazulu_natal",
        "name": "KwaZulu-Natal",
        "parent_node_id": "n_geo_south_africa",
        "country_node_id": "n_geo_south_africa",
        "point_role": "qualified_locality_or_terrain_reference_point",
        "point_place_name": "KwaZulu-Natal",
        "point_description": "province of South Africa",
        "source_url": "https://www.wikidata.org/wiki/Q81725",
        "source_coordinate_url": "https://www.wikidata.org/wiki/Special:EntityData/Q81725.json",
        "wikidata_id": "Q81725",
        "wikidata_coordinate_claim": "q81725$03DE5350-B453-4E55-8E67-CB360AECF75A",
        "source_entity_sha256": "95e73ad1acf6043e878f30bd88bd867edf0dd571ef59a114451062e2090885f9",
        "coordinate_precision": 1,
        "retrieved_on": "2026-09-26",
        "license": "CC0-1.0",
        "label_note": "Reference location: KwaZulu-Natal. This qualified named locality, administrative area or terrain reference provides orientation; it is not the wine-area boundary or an official centroid."
      },
      "geometry": {
        "type": "Point",
        "coordinates": [
          31,
          -29
        ]
      }
    },
    {
      "type": "Feature",
      "properties": {
        "node": "n_geo_za_free_state",
        "node_id": "n_geo_za_free_state",
        "name": "Free State",
        "parent_node_id": "n_geo_south_africa",
        "country_node_id": "n_geo_south_africa",
        "point_role": "qualified_locality_or_terrain_reference_point",
        "point_place_name": "Free State",
        "point_description": "province of South Africa",
        "source_url": "https://www.wikidata.org/wiki/Q160284",
        "source_coordinate_url": "https://www.wikidata.org/wiki/Special:EntityData/Q160284.json",
        "wikidata_id": "Q160284",
        "wikidata_coordinate_claim": "q160284$C7E213F0-FA7D-4DD3-A172-47DD9EEA8A21",
        "source_entity_sha256": "a775438fab233008a7a86819a95b1c042f138c856bea6b1e046d082c0161dbe2",
        "coordinate_precision": 1,
        "retrieved_on": "2026-09-26",
        "license": "CC0-1.0",
        "label_note": "Reference location: Free State (province). This qualified named locality, administrative area or terrain reference provides orientation; it is not the wine-area boundary or an official centroid."
      },
      "geometry": {
        "type": "Point",
        "coordinates": [
          27,
          -28
        ]
      }
    },
    {
      "type": "Feature",
      "properties": {
        "node": "n_geo_za_limpopo",
        "node_id": "n_geo_za_limpopo",
        "name": "Limpopo",
        "parent_node_id": "n_geo_south_africa",
        "country_node_id": "n_geo_south_africa",
        "point_role": "qualified_locality_or_terrain_reference_point",
        "point_place_name": "Limpopo",
        "point_description": "northernmost province of South Africa",
        "source_url": "https://www.wikidata.org/wiki/Q134907",
        "source_coordinate_url": "https://www.wikidata.org/wiki/Special:EntityData/Q134907.json",
        "wikidata_id": "Q134907",
        "wikidata_coordinate_claim": "q134907$84D28184-D179-4E08-8E7B-BD1839672A73",
        "source_entity_sha256": "d7e5d3d03c53d2796e654d18d89f368c7794eb17e32b5194db3e71363331f4c0",
        "coordinate_precision": 0.016666666666667,
        "retrieved_on": "2026-09-26",
        "license": "CC0-1.0",
        "label_note": "Reference location: Limpopo. This qualified named locality, administrative area or terrain reference provides orientation; it is not the wine-area boundary or an official centroid."
      },
      "geometry": {
        "type": "Point",
        "coordinates": [
          29.5,
          -24
        ]
      }
    },
    {
      "type": "Feature",
      "properties": {
        "node": "n_geo_za_north_west",
        "node_id": "n_geo_za_north_west",
        "name": "North West",
        "parent_node_id": "n_geo_south_africa",
        "country_node_id": "n_geo_south_africa",
        "point_role": "qualified_locality_or_terrain_reference_point",
        "point_place_name": "North West",
        "point_description": "province of South Africa",
        "source_url": "https://www.wikidata.org/wiki/Q165956",
        "source_coordinate_url": "https://www.wikidata.org/wiki/Special:EntityData/Q165956.json",
        "wikidata_id": "Q165956",
        "wikidata_coordinate_claim": "q165956$E2BA7C50-D547-4DA6-BB4D-C50EDE4A5313",
        "source_entity_sha256": "a2e4dfcc10b5f767df7f793450ce64ea23045c063fe363e7495a73fcce1685df",
        "coordinate_precision": 1,
        "retrieved_on": "2026-09-26",
        "license": "CC0-1.0",
        "label_note": "Reference location: North West (South African province). This qualified named locality, administrative area or terrain reference provides orientation; it is not the wine-area boundary or an official centroid."
      },
      "geometry": {
        "type": "Point",
        "coordinates": [
          26,
          -27
        ]
      }
    },
    {
      "type": "Feature",
      "properties": {
        "node": "n_geo_za_karoo_hoogland",
        "node_id": "n_geo_za_karoo_hoogland",
        "name": "Karoo-Hoogland",
        "parent_node_id": "n_geo_za_northern_cape",
        "country_node_id": "n_geo_south_africa",
        "point_role": "qualified_locality_or_terrain_reference_point",
        "point_place_name": "Karoo Hoogland Local Municipality",
        "point_description": "local municipality in the Northern Cape, South Africa",
        "source_url": "https://www.wikidata.org/wiki/Q1734288",
        "source_coordinate_url": "https://www.wikidata.org/wiki/Special:EntityData/Q1734288.json",
        "wikidata_id": "Q1734288",
        "wikidata_coordinate_claim": "q1734288$4345E5E2-0702-4438-83BC-5D12D166E5C6",
        "source_entity_sha256": "92a12e26dfc6a14e2f92e27f504b2c0e6cc522f29488f24ff8a88ac1fc1eaf5e",
        "coordinate_precision": 0.016666666666666666,
        "retrieved_on": "2026-09-26",
        "license": "CC0-1.0",
        "label_note": "Reference location: Karoo Hoogland Local Municipality. This qualified named locality, administrative area or terrain reference provides orientation; it is not the wine-area boundary or an official centroid."
      },
      "geometry": {
        "type": "Point",
        "coordinates": [
          21.25,
          -31.75
        ]
      }
    },
    {
      "type": "Feature",
      "properties": {
        "node": "n_geo_za_lower_duivenhoks_river",
        "node_id": "n_geo_za_lower_duivenhoks_river",
        "name": "Lower Duivenhoks River",
        "parent_node_id": "n_geo_cape_south_coast",
        "country_node_id": "n_geo_south_africa",
        "point_role": "qualified_locality_or_terrain_reference_point",
        "point_place_name": "Heidelberg",
        "point_description": "town in the Western Cape province, South Africa",
        "source_url": "https://www.wikidata.org/wiki/Q1021918",
        "source_coordinate_url": "https://www.wikidata.org/wiki/Special:EntityData/Q1021918.json",
        "wikidata_id": "Q1021918",
        "wikidata_coordinate_claim": "q1021918$B0FE902C-C5DD-425D-85A5-48FC3F8FD44D",
        "source_entity_sha256": "40aa82c89d620baeca6fab2228acf8cac4300de7b9f3b129f27eaeccc8903889",
        "coordinate_precision": 0.016666666666667,
        "retrieved_on": "2026-09-26",
        "license": "CC0-1.0",
        "label_note": "Reference location: Heidelberg, Western Cape. This qualified named locality, administrative area or terrain reference provides orientation; it is not the wine-area boundary or an official centroid."
      },
      "geometry": {
        "type": "Point",
        "coordinates": [
          20.95,
          -34.083333333333
        ]
      }
    },
    {
      "type": "Feature",
      "properties": {
        "node": "n_geo_za_plettenberg_bay",
        "node_id": "n_geo_za_plettenberg_bay",
        "name": "Plettenberg Bay",
        "parent_node_id": "n_geo_cape_south_coast",
        "country_node_id": "n_geo_south_africa",
        "point_role": "qualified_locality_or_terrain_reference_point",
        "point_place_name": "Plettenberg Bay",
        "point_description": "town in the Western Cape, South Africa",
        "source_url": "https://www.wikidata.org/wiki/Q922360",
        "source_coordinate_url": "https://www.wikidata.org/wiki/Special:EntityData/Q922360.json",
        "wikidata_id": "Q922360",
        "wikidata_coordinate_claim": "q922360$8F354E30-4FCB-46CA-9D79-F63B06432185",
        "source_entity_sha256": "29b7bb3dab406312f97d7791ecf383eecdc4e0e419047eb9ab912c68e19c6db8",
        "coordinate_precision": 0.016666666666667,
        "retrieved_on": "2026-09-26",
        "license": "CC0-1.0",
        "label_note": "Reference location: Plettenberg Bay. This qualified named locality, administrative area or terrain reference provides orientation; it is not the wine-area boundary or an official centroid."
      },
      "geometry": {
        "type": "Point",
        "coordinates": [
          23.366666666667,
          -34.05
        ]
      }
    },
    {
      "type": "Feature",
      "properties": {
        "node": "n_geo_za_swellendam",
        "node_id": "n_geo_za_swellendam",
        "name": "Swellendam",
        "parent_node_id": "n_geo_cape_south_coast",
        "country_node_id": "n_geo_south_africa",
        "point_role": "qualified_locality_or_terrain_reference_point",
        "point_place_name": "Swellendam",
        "point_description": "town in Western Cape, South Africa",
        "source_url": "https://www.wikidata.org/wiki/Q1023257",
        "source_coordinate_url": "https://www.wikidata.org/wiki/Special:EntityData/Q1023257.json",
        "wikidata_id": "Q1023257",
        "wikidata_coordinate_claim": "q1023257$29B29E90-5994-4BAA-AC2C-DE60651E5A01",
        "source_entity_sha256": "3819a8d2e0728168dd13a047bce5e00f8937fc9a032b3946f733948a10a89499",
        "coordinate_precision": 0.00027777777777778,
        "retrieved_on": "2026-09-26",
        "license": "CC0-1.0",
        "label_note": "Reference location: Swellendam. This qualified named locality, administrative area or terrain reference provides orientation; it is not the wine-area boundary or an official centroid."
      },
      "geometry": {
        "type": "Point",
        "coordinates": [
          20.44,
          -34.023055555556
        ]
      }
    },
    {
      "type": "Feature",
      "properties": {
        "node": "n_geo_za_still_bay",
        "node_id": "n_geo_za_still_bay",
        "name": "Still Bay",
        "parent_node_id": "n_geo_cape_south_coast",
        "country_node_id": "n_geo_south_africa",
        "point_role": "qualified_locality_or_terrain_reference_point",
        "point_place_name": "Stilbaai",
        "point_description": "place in Western Cape, South Africa",
        "source_url": "https://www.wikidata.org/wiki/Q1921038",
        "source_coordinate_url": "https://www.wikidata.org/wiki/Special:EntityData/Q1921038.json",
        "wikidata_id": "Q1921038",
        "wikidata_coordinate_claim": "q1921038$F9165970-740B-4FE8-86C0-263C5CF038D2",
        "source_entity_sha256": "b556a342b42dadb8c28ebdf66fe5d64702e1822cb1dec3c7ef6c850561b6f01a",
        "coordinate_precision": 0.0001,
        "retrieved_on": "2026-09-26",
        "license": "CC0-1.0",
        "label_note": "Reference location: Still Bay. This qualified named locality, administrative area or terrain reference provides orientation; it is not the wine-area boundary or an official centroid."
      },
      "geometry": {
        "type": "Point",
        "coordinates": [
          21.4111,
          -34.3683
        ]
      }
    },
    {
      "type": "Feature",
      "properties": {
        "node": "n_geo_za_lutzville_valley",
        "node_id": "n_geo_za_lutzville_valley",
        "name": "Lutzville Valley",
        "parent_node_id": "n_geo_coastal_region",
        "country_node_id": "n_geo_south_africa",
        "point_role": "qualified_locality_or_terrain_reference_point",
        "point_place_name": "Lutzville",
        "point_description": "town in the Western Cape, South Africa",
        "source_url": "https://www.wikidata.org/wiki/Q2011842",
        "source_coordinate_url": "https://www.wikidata.org/wiki/Special:EntityData/Q2011842.json",
        "wikidata_id": "Q2011842",
        "wikidata_coordinate_claim": "q2011842$32114146-1733-4A41-9ABE-CEDFF5C4967F",
        "source_entity_sha256": "4026ff2da3760c0479e7fe5de2d238ee12faea14b2c2a6cadcf5d9039bde9542",
        "coordinate_precision": 0.01,
        "retrieved_on": "2026-09-26",
        "license": "CC0-1.0",
        "label_note": "Reference location: Lutzville. This qualified named locality, administrative area or terrain reference provides orientation; it is not the wine-area boundary or an official centroid."
      },
      "geometry": {
        "type": "Point",
        "coordinates": [
          18.35,
          -31.55
        ]
      }
    },
    {
      "type": "Feature",
      "properties": {
        "node": "n_geo_za_langeberg_garcia",
        "node_id": "n_geo_za_langeberg_garcia",
        "name": "Langeberg-Garcia",
        "parent_node_id": "n_geo_klein_karoo_wine",
        "country_node_id": "n_geo_south_africa",
        "point_role": "qualified_locality_or_terrain_reference_point",
        "point_place_name": "Garcia's Pass",
        "point_description": "mountain pass in Western Cape, South Africa",
        "source_url": "https://www.wikidata.org/wiki/Q13034759",
        "source_coordinate_url": "https://www.wikidata.org/wiki/Special:EntityData/Q13034759.json",
        "wikidata_id": "Q13034759",
        "wikidata_coordinate_claim": "Q13034759$7BF538A8-BFE5-4850-9402-D51E7E48B28A",
        "source_entity_sha256": "934902814ab112d3ab707194d075de19c4f9566ec8ad09af96a3abeeaff848c6",
        "coordinate_precision": 0.000001,
        "retrieved_on": "2026-09-26",
        "license": "CC0-1.0",
        "label_note": "Reference location: Garcia's Pass. This qualified named locality, administrative area or terrain reference provides orientation; it is not the wine-area boundary or an official centroid."
      },
      "geometry": {
        "type": "Point",
        "coordinates": [
          21.222424,
          -33.940576
        ]
      }
    },
    {
      "type": "Feature",
      "properties": {
        "node": "n_geo_za_citrusdal_valley",
        "node_id": "n_geo_za_citrusdal_valley",
        "name": "Citrusdal Valley",
        "parent_node_id": "n_geo_olifants_river_wine",
        "country_node_id": "n_geo_south_africa",
        "point_role": "qualified_locality_or_terrain_reference_point",
        "point_place_name": "Citrusdal",
        "point_description": "town in the Western Cape, South Africa",
        "source_url": "https://www.wikidata.org/wiki/Q1003362",
        "source_coordinate_url": "https://www.wikidata.org/wiki/Special:EntityData/Q1003362.json",
        "wikidata_id": "Q1003362",
        "wikidata_coordinate_claim": "q1003362$6C273F34-3C51-4132-8450-A966B3EC8732",
        "source_entity_sha256": "6ba38f67c007bcba8ea60503764a3827f1726b03210995af1320f1b9847f3f4c",
        "coordinate_precision": 0.00027777777777778,
        "retrieved_on": "2026-09-26",
        "license": "CC0-1.0",
        "label_note": "Reference location: Citrusdal. This qualified named locality, administrative area or terrain reference provides orientation; it is not the wine-area boundary or an official centroid."
      },
      "geometry": {
        "type": "Point",
        "coordinates": [
          19.014722222222,
          -32.589444444444
        ]
      }
    },
    {
      "type": "Feature",
      "properties": {
        "node": "n_geo_za_ceres_plateau",
        "node_id": "n_geo_za_ceres_plateau",
        "name": "Ceres Plateau",
        "parent_node_id": "n_geo_western_cape",
        "country_node_id": "n_geo_south_africa",
        "point_role": "qualified_locality_or_terrain_reference_point",
        "point_place_name": "Ceres",
        "point_description": "town in the Western Cape, South Africa",
        "source_url": "https://www.wikidata.org/wiki/Q2038408",
        "source_coordinate_url": "https://www.wikidata.org/wiki/Special:EntityData/Q2038408.json",
        "wikidata_id": "Q2038408",
        "wikidata_coordinate_claim": "q2038408$80F50C0E-81B0-4EE3-9B37-51F842902BB9",
        "source_entity_sha256": "a255b753037491704bccfbfec36dcd753f966b489bee576f24912c40daf28b0b",
        "coordinate_precision": 0.016666666666667,
        "retrieved_on": "2026-09-26",
        "license": "CC0-1.0",
        "label_note": "Reference location: Ceres, South Africa. This qualified named locality, administrative area or terrain reference provides orientation; it is not the wine-area boundary or an official centroid."
      },
      "geometry": {
        "type": "Point",
        "coordinates": [
          19.316666666667,
          -33.366666666667
        ]
      }
    },
    {
      "type": "Feature",
      "properties": {
        "node": "n_geo_za_prince_albert",
        "node_id": "n_geo_za_prince_albert",
        "name": "Prince Albert",
        "parent_node_id": "n_geo_western_cape",
        "country_node_id": "n_geo_south_africa",
        "point_role": "qualified_locality_or_terrain_reference_point",
        "point_place_name": "Prince Albert",
        "point_description": "town in the Western Cape, South Africa",
        "source_url": "https://www.wikidata.org/wiki/Q1533623",
        "source_coordinate_url": "https://www.wikidata.org/wiki/Special:EntityData/Q1533623.json",
        "wikidata_id": "Q1533623",
        "wikidata_coordinate_claim": "q1533623$1F408174-2CCA-4CAA-ABDF-694CDB6CE2CD",
        "source_entity_sha256": "a83178c8bad2c2e00a52170531d8d4e8f19dca41b4d02336cc879583fe5b4ff7",
        "coordinate_precision": 0.00027777777777778,
        "retrieved_on": "2026-09-26",
        "license": "CC0-1.0",
        "label_note": "Reference location: Prince Albert, South Africa. This qualified named locality, administrative area or terrain reference provides orientation; it is not the wine-area boundary or an official centroid."
      },
      "geometry": {
        "type": "Point",
        "coordinates": [
          22.03,
          -33.225277777778
        ]
      }
    },
    {
      "type": "Feature",
      "properties": {
        "node": "n_geo_za_sutherland_karoo",
        "node_id": "n_geo_za_sutherland_karoo",
        "name": "Sutherland-Karoo",
        "parent_node_id": "n_geo_za_karoo_hoogland",
        "country_node_id": "n_geo_south_africa",
        "point_role": "qualified_locality_or_terrain_reference_point",
        "point_place_name": "Sutherland",
        "point_description": "place in Northern Cape, South Africa",
        "source_url": "https://www.wikidata.org/wiki/Q1750319",
        "source_coordinate_url": "https://www.wikidata.org/wiki/Special:EntityData/Q1750319.json",
        "wikidata_id": "Q1750319",
        "wikidata_coordinate_claim": "q1750319$30DAFC41-9499-4B7A-959D-1D2BEA9992ED",
        "source_entity_sha256": "69b03a3d191bd8b8964ff724277f63469dc08f6e8a3b802fad5943c84c2182cd",
        "coordinate_precision": 0.00027777777777778,
        "retrieved_on": "2026-09-26",
        "license": "CC0-1.0",
        "label_note": "Reference location: Sutherland, South Africa. This qualified named locality, administrative area or terrain reference provides orientation; it is not the wine-area boundary or an official centroid."
      },
      "geometry": {
        "type": "Point",
        "coordinates": [
          20.661388888889,
          -32.393611111111
        ]
      }
    },
    {
      "type": "Feature",
      "properties": {
        "node": "n_geo_za_central_orange_river",
        "node_id": "n_geo_za_central_orange_river",
        "name": "Central Orange River",
        "parent_node_id": "n_geo_za_northern_cape",
        "country_node_id": "n_geo_south_africa",
        "point_role": "qualified_locality_or_terrain_reference_point",
        "point_place_name": "Upington",
        "point_description": "town in South Africa",
        "source_url": "https://www.wikidata.org/wiki/Q575780",
        "source_coordinate_url": "https://www.wikidata.org/wiki/Special:EntityData/Q575780.json",
        "wikidata_id": "Q575780",
        "wikidata_coordinate_claim": "q575780$01B104B5-66D9-4FDF-BEE0-7A218FEB89FE",
        "source_entity_sha256": "9a88568c4b9d1d94bc879700b5fd9ee2b135bb8313e9b496090047288501e60d",
        "coordinate_precision": 0.00027777777777778,
        "retrieved_on": "2026-09-26",
        "license": "CC0-1.0",
        "label_note": "Reference location: Upington. This qualified named locality, administrative area or terrain reference provides orientation; it is not the wine-area boundary or an official centroid."
      },
      "geometry": {
        "type": "Point",
        "coordinates": [
          21.2425,
          -28.457222222222
        ]
      }
    },
    {
      "type": "Feature",
      "properties": {
        "node": "n_geo_za_douglas",
        "node_id": "n_geo_za_douglas",
        "name": "Douglas",
        "parent_node_id": "n_geo_za_northern_cape",
        "country_node_id": "n_geo_south_africa",
        "point_role": "qualified_locality_or_terrain_reference_point",
        "point_place_name": "Douglas",
        "point_description": "town in the Northern Cape, South Africa",
        "source_url": "https://www.wikidata.org/wiki/Q269474",
        "source_coordinate_url": "https://www.wikidata.org/wiki/Special:EntityData/Q269474.json",
        "wikidata_id": "Q269474",
        "wikidata_coordinate_claim": "q269474$1CF1B305-4FC4-43C0-9BC8-A7530CB9F2A9",
        "source_entity_sha256": "a208d6e707ac5103ff6d7677698c6e5d7a5b68622dc4309a179922ddd4ca379a",
        "coordinate_precision": 0.016666666666667,
        "retrieved_on": "2026-09-26",
        "license": "CC0-1.0",
        "label_note": "Reference location: Douglas, South Africa. This qualified named locality, administrative area or terrain reference provides orientation; it is not the wine-area boundary or an official centroid."
      },
      "geometry": {
        "type": "Point",
        "coordinates": [
          23.766666666667,
          -29.05
        ]
      }
    },
    {
      "type": "Feature",
      "properties": {
        "node": "n_geo_za_central_drakensberg",
        "node_id": "n_geo_za_central_drakensberg",
        "name": "Central Drakensberg",
        "parent_node_id": "n_geo_za_kwazulu_natal",
        "country_node_id": "n_geo_south_africa",
        "point_role": "qualified_locality_or_terrain_reference_point",
        "point_place_name": "Winterton",
        "point_description": "place in KwaZulu-Natal, South Africa",
        "source_url": "https://www.wikidata.org/wiki/Q8026530",
        "source_coordinate_url": "https://www.wikidata.org/wiki/Special:EntityData/Q8026530.json",
        "wikidata_id": "Q8026530",
        "wikidata_coordinate_claim": "q8026530$C11FDF17-2CBD-4A23-A78A-F2D3909B2FCA",
        "source_entity_sha256": "6647759fcf2886a9f8122201eecbe1354a6050167bcc589a73544f67179b946f",
        "coordinate_precision": 0.00027777777777778,
        "retrieved_on": "2026-09-26",
        "license": "CC0-1.0",
        "label_note": "Reference location: Winterton, South Africa. This qualified named locality, administrative area or terrain reference provides orientation; it is not the wine-area boundary or an official centroid."
      },
      "geometry": {
        "type": "Point",
        "coordinates": [
          29.536111111111,
          -28.813333333333
        ]
      }
    },
    {
      "type": "Feature",
      "properties": {
        "node": "n_geo_za_lions_river",
        "node_id": "n_geo_za_lions_river",
        "name": "Lions River",
        "parent_node_id": "n_geo_za_kwazulu_natal",
        "country_node_id": "n_geo_south_africa",
        "point_role": "qualified_locality_or_terrain_reference_point",
        "point_place_name": "Lions River",
        "point_description": "town in KwaZulu-Natal, South Africa",
        "source_url": "https://www.wikidata.org/wiki/Q13035272",
        "source_coordinate_url": "https://www.wikidata.org/wiki/Special:EntityData/Q13035272.json",
        "wikidata_id": "Q13035272",
        "wikidata_coordinate_claim": "Q13035272$354B29E8-AA6B-4829-B5EC-BA4E1C9F18DB",
        "source_entity_sha256": "711b0472d83da1c1d5ca90fb90e65324f0a336e0e745420c1b6c762c010d78d7",
        "coordinate_precision": 0.001,
        "retrieved_on": "2026-09-26",
        "license": "CC0-1.0",
        "label_note": "Reference location: Lions River. This qualified named locality, administrative area or terrain reference provides orientation; it is not the wine-area boundary or an official centroid."
      },
      "geometry": {
        "type": "Point",
        "coordinates": [
          30.155,
          -29.47
        ]
      }
    },
    {
      "type": "Feature",
      "properties": {
        "node": "n_geo_za_cederberg",
        "node_id": "n_geo_za_cederberg",
        "name": "Cederberg",
        "parent_node_id": "n_geo_western_cape",
        "country_node_id": "n_geo_south_africa",
        "point_role": "qualified_locality_or_terrain_reference_point",
        "point_place_name": "Cederberg",
        "point_description": "mountain range in the Western Cape, South Africa",
        "source_url": "https://www.wikidata.org/wiki/Q184284",
        "source_coordinate_url": "https://www.wikidata.org/wiki/Special:EntityData/Q184284.json",
        "wikidata_id": "Q184284",
        "wikidata_coordinate_claim": "q184284$2E37D5D5-6969-495C-AD47-4B3C24C85FEC",
        "source_entity_sha256": "0fd0dc5346a3bb00cfb378273662d8e9e31e75af56f33e6cf36d858c63007c61",
        "coordinate_precision": 0.0001,
        "retrieved_on": "2026-09-26",
        "license": "CC0-1.0",
        "label_note": "Reference location: Cederberg. This qualified named locality, administrative area or terrain reference provides orientation; it is not the wine-area boundary or an official centroid."
      },
      "geometry": {
        "type": "Point",
        "coordinates": [
          19.0833,
          -32.3333
        ]
      }
    },
    {
      "type": "Feature",
      "properties": {
        "node": "n_geo_za_nieuwoudtville",
        "node_id": "n_geo_za_nieuwoudtville",
        "name": "Nieuwoudtville",
        "parent_node_id": "n_geo_western_cape",
        "country_node_id": "n_geo_south_africa",
        "point_role": "qualified_locality_or_terrain_reference_point",
        "point_place_name": "Nieuwoudtville",
        "point_description": "town",
        "source_url": "https://www.wikidata.org/wiki/Q506170",
        "source_coordinate_url": "https://www.wikidata.org/wiki/Special:EntityData/Q506170.json",
        "wikidata_id": "Q506170",
        "wikidata_coordinate_claim": "q506170$06C4D50B-976B-42B1-B1C4-CD01652BC636",
        "source_entity_sha256": "d263b8f0d49c71a3799d2f284f990f401938e359c1d43d9aeb84d9f8754b4e51",
        "coordinate_precision": 0.016666666666667,
        "retrieved_on": "2026-09-26",
        "license": "CC0-1.0",
        "label_note": "Reference location: Nieuwoudtville. This qualified named locality, administrative area or terrain reference provides orientation; it is not the wine-area boundary or an official centroid."
      },
      "geometry": {
        "type": "Point",
        "coordinates": [
          19.1,
          -31.366666666667
        ]
      }
    },
    {
      "type": "Feature",
      "properties": {
        "node": "n_geo_za_malmesbury",
        "node_id": "n_geo_za_malmesbury",
        "name": "Malmesbury",
        "parent_node_id": "n_geo_swartland",
        "country_node_id": "n_geo_south_africa",
        "point_role": "qualified_locality_or_terrain_reference_point",
        "point_place_name": "Malmesbury",
        "point_description": "town in the Western Cape, South Africa",
        "source_url": "https://www.wikidata.org/wiki/Q3113320",
        "source_coordinate_url": "https://www.wikidata.org/wiki/Special:EntityData/Q3113320.json",
        "wikidata_id": "Q3113320",
        "wikidata_coordinate_claim": "q3113320$2E3DCCFB-8E6F-4390-98CF-6A17E97C209D",
        "source_entity_sha256": "356b278ac7582fdee48ebd94e8fc06d5a1f1ca2944bc8c5f11efa7bcfd093956",
        "coordinate_precision": 0.016666666666667,
        "retrieved_on": "2026-09-26",
        "license": "CC0-1.0",
        "label_note": "Reference location: Malmesbury, South Africa. This qualified named locality, administrative area or terrain reference provides orientation; it is not the wine-area boundary or an official centroid."
      },
      "geometry": {
        "type": "Point",
        "coordinates": [
          18.733333333333,
          -33.45
        ]
      }
    },
    {
      "type": "Feature",
      "properties": {
        "node": "n_geo_za_koekenaap",
        "node_id": "n_geo_za_koekenaap",
        "name": "Koekenaap",
        "parent_node_id": "n_geo_za_lutzville_valley",
        "country_node_id": "n_geo_south_africa",
        "point_role": "qualified_locality_or_terrain_reference_point",
        "point_place_name": "Koekenaap",
        "point_description": "village in the Western Cape, South Africa",
        "source_url": "https://www.wikidata.org/wiki/Q2675839",
        "source_coordinate_url": "https://www.wikidata.org/wiki/Special:EntityData/Q2675839.json",
        "wikidata_id": "Q2675839",
        "wikidata_coordinate_claim": "q2675839$44649034-9117-47C6-80C8-7417081FE225",
        "source_entity_sha256": "913d0a749d8e90512dc9b9a464843e80ad3b099ba0a3dccca147bc024712a010",
        "coordinate_precision": 0.0001,
        "retrieved_on": "2026-09-26",
        "license": "CC0-1.0",
        "label_note": "Reference location: Koekenaap. This qualified named locality, administrative area or terrain reference provides orientation; it is not the wine-area boundary or an official centroid."
      },
      "geometry": {
        "type": "Point",
        "coordinates": [
          18.2922,
          -31.5231
        ]
      }
    },
    {
      "type": "Feature",
      "properties": {
        "node": "n_geo_za_vredendal",
        "node_id": "n_geo_za_vredendal",
        "name": "Vredendal",
        "parent_node_id": "n_geo_olifants_river_wine",
        "country_node_id": "n_geo_south_africa",
        "point_role": "qualified_locality_or_terrain_reference_point",
        "point_place_name": "Vredendal",
        "point_description": "town in the Western Cape, South Africa",
        "source_url": "https://www.wikidata.org/wiki/Q1341350",
        "source_coordinate_url": "https://www.wikidata.org/wiki/Special:EntityData/Q1341350.json",
        "wikidata_id": "Q1341350",
        "wikidata_coordinate_claim": "q1341350$BD7AD97F-94E2-4CA0-99D4-6C1EC7AD36F3",
        "source_entity_sha256": "104340ef65d0aa9a91de8de77777aa8a4b69e8c66cce81672fc4b960a93303fb",
        "coordinate_precision": 0.00027777777777778,
        "retrieved_on": "2026-09-26",
        "license": "CC0-1.0",
        "label_note": "Reference location: Vredendal. This qualified named locality, administrative area or terrain reference provides orientation; it is not the wine-area boundary or an official centroid."
      },
      "geometry": {
        "type": "Point",
        "coordinates": [
          18.506111111111,
          -31.664444444444
        ]
      }
    },
    {
      "type": "Feature",
      "properties": {
        "node": "n_geo_za_stanford_foothills",
        "node_id": "n_geo_za_stanford_foothills",
        "name": "Stanford Foothills",
        "parent_node_id": "n_geo_walker_bay",
        "country_node_id": "n_geo_south_africa",
        "point_role": "qualified_locality_or_terrain_reference_point",
        "point_place_name": "Stanford, Western Cape",
        "point_description": "human settlement in South Africa",
        "source_url": "https://www.wikidata.org/wiki/Q2742675",
        "source_coordinate_url": "https://www.wikidata.org/wiki/Special:EntityData/Q2742675.json",
        "wikidata_id": "Q2742675",
        "wikidata_coordinate_claim": "q2742675$6ECE0F89-B279-41C5-A132-26F34D28FF21",
        "source_entity_sha256": "7e3d6ec9b5050183457403bf9ac6a29431bfa1766908ff1244caca5f71b79969",
        "coordinate_precision": 0.0001,
        "retrieved_on": "2026-09-26",
        "license": "CC0-1.0",
        "label_note": "Reference location: Stanford, South Africa. This qualified named locality, administrative area or terrain reference provides orientation; it is not the wine-area boundary or an official centroid."
      },
      "geometry": {
        "type": "Point",
        "coordinates": [
          19.4556,
          -34.4417
        ]
      }
    },
    {
      "type": "Feature",
      "properties": {
        "node": "n_geo_za_malgas",
        "node_id": "n_geo_za_malgas",
        "name": "Malgas",
        "parent_node_id": "n_geo_za_swellendam",
        "country_node_id": "n_geo_south_africa",
        "point_role": "qualified_locality_or_terrain_reference_point",
        "point_place_name": "Malgas",
        "point_description": "human settlement in South Africa",
        "source_url": "https://www.wikidata.org/wiki/Q13035391",
        "source_coordinate_url": "https://www.wikidata.org/wiki/Special:EntityData/Q13035391.json",
        "wikidata_id": "Q13035391",
        "wikidata_coordinate_claim": "q13035391$78A0B771-58DE-4EB2-9291-C72454B2C231",
        "source_entity_sha256": "91adef34078b13305eb3c625f6a3f3846e7277e79192b76a3594a101987ef66f",
        "coordinate_precision": 0.1,
        "retrieved_on": "2026-09-26",
        "license": "CC0-1.0",
        "label_note": "Reference location: Malgas. This qualified named locality, administrative area or terrain reference provides orientation; it is not the wine-area boundary or an official centroid."
      },
      "geometry": {
        "type": "Point",
        "coordinates": [
          20.583,
          -34.3
        ]
      }
    },
    {
      "type": "Feature",
      "properties": {
        "node": "n_geo_za_montagu",
        "node_id": "n_geo_za_montagu",
        "name": "Montagu",
        "parent_node_id": "n_geo_klein_karoo_wine",
        "country_node_id": "n_geo_south_africa",
        "point_role": "qualified_locality_or_terrain_reference_point",
        "point_place_name": "Montagu",
        "point_description": "town in the Western Cape, South Africa",
        "source_url": "https://www.wikidata.org/wiki/Q1800611",
        "source_coordinate_url": "https://www.wikidata.org/wiki/Special:EntityData/Q1800611.json",
        "wikidata_id": "Q1800611",
        "wikidata_coordinate_claim": "q1800611$F2261360-C5AE-4FB4-B78C-932F66383018",
        "source_entity_sha256": "066f592488521b69cf911253a2087aaa4d4a0cd895fbd33dc4a9c27ad0b090bb",
        "coordinate_precision": 0.016666666666667,
        "retrieved_on": "2026-09-26",
        "license": "CC0-1.0",
        "label_note": "Reference location: Montagu, South Africa. This qualified named locality, administrative area or terrain reference provides orientation; it is not the wine-area boundary or an official centroid."
      },
      "geometry": {
        "type": "Point",
        "coordinates": [
          20.116666666667,
          -33.783333333333
        ]
      }
    },
    {
      "type": "Feature",
      "properties": {
        "node": "n_geo_za_tradouw",
        "node_id": "n_geo_za_tradouw",
        "name": "Tradouw",
        "parent_node_id": "n_geo_klein_karoo_wine",
        "country_node_id": "n_geo_south_africa",
        "point_role": "qualified_locality_or_terrain_reference_point",
        "point_place_name": "Barrydale",
        "point_description": "town in the Western Cape, South Africa",
        "source_url": "https://www.wikidata.org/wiki/Q809120",
        "source_coordinate_url": "https://www.wikidata.org/wiki/Special:EntityData/Q809120.json",
        "wikidata_id": "Q809120",
        "wikidata_coordinate_claim": "q809120$FB71105F-702E-4867-91D8-0D6FC4F927B5",
        "source_entity_sha256": "680d78539c782c40510b7ce7056f65ce832a7d51c3fa51a5a6e23ab1041c1a98",
        "coordinate_precision": 0.016666666666667,
        "retrieved_on": "2026-09-26",
        "license": "CC0-1.0",
        "label_note": "Reference location: Barrydale. This qualified named locality, administrative area or terrain reference provides orientation; it is not the wine-area boundary or an official centroid."
      },
      "geometry": {
        "type": "Point",
        "coordinates": [
          20.733333333333,
          -33.9
        ]
      }
    }
  ]
}
