{
  "type": "FeatureCollection",
  "features": [
    {
      "type": "Feature",
      "properties": {
        "node": "n_geo_soave_uga_colombara",
        "name": "Colombara",
        "point_role": "settlement reference in San Giovanni Ilarione; not the UGA boundary",
        "geonames_id": "8962832",
        "source_url": "https://www.geonames.org/8962832",
        "retrieved_on": "2026-09-27",
        "license": "CC BY 4.0"
      },
      "geometry": {
        "type": "Point",
        "coordinates": [
          11.25672,
          45.51975
        ]
      }
    },
    {
      "type": "Feature",
      "properties": {
        "node": "n_geo_soave_uga_duello",
        "name": "Duello",
        "point_role": "settlement reference in Roncà; not the UGA boundary",
        "geonames_id": "8956774",
        "source_url": "https://www.geonames.org/8956774",
        "retrieved_on": "2026-09-27",
        "license": "CC BY 4.0"
      },
      "geometry": {
        "type": "Point",
        "coordinates": [
          11.2832,
          45.47649
        ]
      }
    },
    {
      "type": "Feature",
      "properties": {
        "node": "n_geo_soave_uga_fitta",
        "name": "Fittà",
        "point_role": "settlement reference in Soave; not the UGA boundary",
        "geonames_id": "8954880",
        "source_url": "https://www.geonames.org/8954880",
        "retrieved_on": "2026-09-27",
        "license": "CC BY 4.0"
      },
      "geometry": {
        "type": "Point",
        "coordinates": [
          11.25331,
          45.45326
        ]
      }
    },
    {
      "type": "Feature",
      "properties": {
        "node": "n_geo_soave_uga_ronca_monte_calvarina",
        "name": "Roncà–Monte Calvarina",
        "point_role": "Monte Calvarina summit reference for one legal unit; not the unit boundary",
        "geonames_id": "6949595",
        "source_url": "https://www.geonames.org/6949595",
        "retrieved_on": "2026-09-27",
        "license": "CC BY 4.0"
      },
      "geometry": {
        "type": "Point",
        "coordinates": [
          11.28075,
          45.5093
        ]
      }
    }
  ]
}
