{
  "type": "FeatureCollection",
  "features": [
    {
      "type": "Feature",
      "properties": {
        "node": "n_geo_soave_uga_brognoligo",
        "name": "Brognoligo",
        "point_role": "settlement reference; not the UGA boundary and not Costalunga",
        "wikidata_id": "Q3645230",
        "source_coordinate_claim": "Q3645230$AD7DF2FA-08E9-4503-B695-678670F85A9D",
        "source_url": "https://www.wikidata.org/wiki/Q3645230",
        "retrieved_on": "2026-09-27",
        "license": "CC0 1.0"
      },
      "geometry": {
        "type": "Point",
        "coordinates": [
          11.283333333333,
          45.416666666667
        ]
      }
    },
    {
      "type": "Feature",
      "properties": {
        "node": "n_geo_soave_uga_castelcerino",
        "name": "Castelcerino",
        "point_role": "settlement reference; not the UGA boundary",
        "wikidata_id": "Q18504312",
        "source_coordinate_claim": "Q18504312$7251A6E5-600F-4317-8CF4-73866056F23C",
        "source_url": "https://www.wikidata.org/wiki/Q18504312",
        "retrieved_on": "2026-09-27",
        "license": "CC0 1.0"
      },
      "geometry": {
        "type": "Point",
        "coordinates": [
          11.24032,
          45.46122
        ]
      }
    }
  ]
}
