{
  "type": "FeatureCollection",
  "features": [
    {
      "type": "Feature",
      "properties": {
        "node": "n_geo_pieve_ascianello",
        "name": "Ascianello",
        "point_role": "hamlet reference; not the Pieve boundary",
        "point_place_name": "Ascianello",
        "point_description": "human settlement in Italy, hamlet of Montepulciano",
        "wikidata_id": "Q18491433",
        "source_coordinate_claim": "Q18491433$C1AF667F-FF19-472A-81BD-FB24B7724A92",
        "source_coordinate_url": "https://www.wikidata.org/wiki/Special:EntityData/Q18491433.json",
        "source_url": "https://www.wikidata.org/wiki/Q18491433",
        "retrieved_on": "2026-09-27",
        "license": "CC0 1.0",
        "label_note": "Reference: Ascianello. Point is not the Pieve boundary."
      },
      "geometry": {
        "type": "Point",
        "coordinates": [
          11.79666,
          43.14014
        ]
      }
    },
    {
      "type": "Feature",
      "properties": {
        "node": "n_geo_pieve_badia",
        "name": "Badia",
        "point_role": "Abbadia hamlet reference for the legal unit Badia; not the Pieve boundary",
        "point_place_name": "Abbadia",
        "point_description": "hamlet of Montepulciano",
        "wikidata_id": "Q14526941",
        "source_coordinate_claim": "Q14526941$cce501e9-4e5c-fa47-ff44-28ea86985f39",
        "source_coordinate_url": "https://www.wikidata.org/wiki/Special:EntityData/Q14526941.json",
        "source_url": "https://www.wikidata.org/wiki/Q14526941",
        "retrieved_on": "2026-09-27",
        "license": "CC0 1.0",
        "label_note": "Reference: Abbadia. Point is not the Pieve boundary."
      },
      "geometry": {
        "type": "Point",
        "coordinates": [
          11.822222222222,
          43.145277777778
        ]
      }
    },
    {
      "type": "Feature",
      "properties": {
        "node": "n_geo_pieve_caggiole",
        "name": "Caggiole",
        "point_role": "hamlet reference; not the Pieve boundary",
        "point_place_name": "Caggiole",
        "point_description": "human settlement in Montepulciano, Province of Siena, Tuscany, Italy",
        "wikidata_id": "Q3649627",
        "source_coordinate_claim": "Q3649627$964B941A-4C44-4691-8C99-41C3475EE90E",
        "source_coordinate_url": "https://www.wikidata.org/wiki/Special:EntityData/Q3649627.json",
        "source_url": "https://www.wikidata.org/wiki/Q3649627",
        "retrieved_on": "2026-09-27",
        "license": "CC0 1.0",
        "label_note": "Reference: Caggiole. Point is not the Pieve boundary."
      },
      "geometry": {
        "type": "Point",
        "coordinates": [
          11.80372,
          43.11605
        ]
      }
    },
    {
      "type": "Feature",
      "properties": {
        "node": "n_geo_pieve_cervognano",
        "name": "Cervognano",
        "point_role": "Cervognano Montenero hamlet reference for the legal unit Cervognano; not the Pieve boundary",
        "point_place_name": "Cervognano Montenero",
        "point_description": "human settlement in Italy, hamlet of Montepulciano",
        "wikidata_id": "Q18491579",
        "source_coordinate_claim": "Q18491579$719298C3-F1DC-472A-8134-F0B1F14B302C",
        "source_coordinate_url": "https://www.wikidata.org/wiki/Special:EntityData/Q18491579.json",
        "source_url": "https://www.wikidata.org/wiki/Q18491579",
        "retrieved_on": "2026-09-27",
        "license": "CC0 1.0",
        "label_note": "Reference: Cervognano Montenero. Point is not the Pieve boundary."
      },
      "geometry": {
        "type": "Point",
        "coordinates": [
          11.84317,
          43.09891
        ]
      }
    },
    {
      "type": "Feature",
      "properties": {
        "node": "n_geo_pieve_gracciano",
        "name": "Gracciano",
        "point_role": "hamlet reference; not Gracciano dell'Elsa and not the Pieve boundary",
        "point_place_name": "Gracciano",
        "point_description": "hamlet of Montepulciano",
        "wikidata_id": "Q16561529",
        "source_coordinate_claim": "Q16561529$85647670-6F62-4D36-AA84-AFCCE561034D",
        "source_coordinate_url": "https://www.wikidata.org/wiki/Special:EntityData/Q16561529.json",
        "source_url": "https://www.wikidata.org/wiki/Q16561529",
        "retrieved_on": "2026-09-27",
        "license": "CC0 1.0",
        "label_note": "Reference: Gracciano. Point is not the Pieve boundary."
      },
      "geometry": {
        "type": "Point",
        "coordinates": [
          11.82638889,
          43.13166667
        ]
      }
    },
    {
      "type": "Feature",
      "properties": {
        "node": "n_geo_pieve_le_grazie",
        "name": "Le Grazie",
        "point_role": "named church reference; not the Pieve boundary",
        "point_place_name": "chiesa di Santa Maria delle Grazie",
        "point_description": "church building in Montepulciano, Italy",
        "wikidata_id": "Q3673973",
        "source_coordinate_claim": "Q3673973$7789416D-7984-4326-8515-E004C2DC80C0",
        "source_coordinate_url": "https://www.wikidata.org/wiki/Special:EntityData/Q3673973.json",
        "source_url": "https://www.wikidata.org/wiki/Q3673973",
        "retrieved_on": "2026-09-27",
        "license": "CC0 1.0",
        "label_note": "Reference: chiesa di Santa Maria delle Grazie. Point is not the Pieve boundary."
      },
      "geometry": {
        "type": "Point",
        "coordinates": [
          11.786434,
          43.108087
        ]
      }
    },
    {
      "type": "Feature",
      "properties": {
        "node": "n_geo_pieve_san_biagio",
        "name": "San Biagio",
        "point_role": "named church reference; not the Pieve boundary",
        "point_place_name": "chiesa di San Biagio",
        "point_description": "church building in Montepulciano, Italy",
        "wikidata_id": "Q1883452",
        "source_coordinate_claim": "q1883452$0FCCCB66-9FAF-4358-B027-154815370F82",
        "source_coordinate_url": "https://www.wikidata.org/wiki/Special:EntityData/Q1883452.json",
        "source_url": "https://www.wikidata.org/wiki/Q1883452",
        "retrieved_on": "2026-09-27",
        "license": "CC0 1.0",
        "label_note": "Reference: chiesa di San Biagio. Point is not the Pieve boundary."
      },
      "geometry": {
        "type": "Point",
        "coordinates": [
          11.77461,
          43.09077
        ]
      }
    },
    {
      "type": "Feature",
      "properties": {
        "node": "n_geo_pieve_sant_albino",
        "name": "Sant'Albino",
        "point_role": "hamlet reference inside Montepulciano; not the Pieve boundary",
        "point_place_name": "Sant'Albino",
        "point_description": "human settlement in Italy",
        "wikidata_id": "Q16600206",
        "source_coordinate_claim": "Q16600206$8176B8C0-14C7-4C17-B9F9-9E3DF818CD4F",
        "source_coordinate_url": "https://www.wikidata.org/wiki/Special:EntityData/Q16600206.json",
        "source_url": "https://www.wikidata.org/wiki/Q16600206",
        "retrieved_on": "2026-09-27",
        "license": "CC0 1.0",
        "label_note": "Reference: Sant'Albino. Point is not the Pieve boundary."
      },
      "geometry": {
        "type": "Point",
        "coordinates": [
          11.80583333,
          43.07111111
        ]
      }
    },
    {
      "type": "Feature",
      "properties": {
        "node": "n_geo_pieve_valiano",
        "name": "Valiano",
        "point_role": "hamlet reference; not the Pieve boundary",
        "point_place_name": "Valiano",
        "point_description": "hamlet of Montepulciano, Italy",
        "wikidata_id": "Q4007955",
        "source_coordinate_claim": "Q4007955$3CA5C37E-3B2B-4688-A7BF-B108EA87A016",
        "source_coordinate_url": "https://www.wikidata.org/wiki/Special:EntityData/Q4007955.json",
        "source_url": "https://www.wikidata.org/wiki/Q4007955",
        "retrieved_on": "2026-09-27",
        "license": "CC0 1.0",
        "label_note": "Reference: Valiano. Point is not the Pieve boundary."
      },
      "geometry": {
        "type": "Point",
        "coordinates": [
          11.902222222222,
          43.146111111111
        ]
      }
    }
  ]
}
