{
  "type": "FeatureCollection",
  "features": [
    {
      "type": "Feature",
      "properties": {
        "node": "n_geo_napa_county",
        "node_id": "n_geo_napa_county",
        "name": "Napa County",
        "parent_node_id": "n_geo_california",
        "country_node_id": "n_geo_united_states",
        "retrieved_on": "2026-09-27",
        "point_role": "qualified_administrative_orientation_reference",
        "point_place_name": "Napa County",
        "geonames_id": "5376101",
        "geonames_feature_class": "A",
        "geonames_feature_code": "ADM2",
        "geonames_modified_on": "2018-04-25",
        "source_url": "https://www.geonames.org/5376101/",
        "source_coordinate_url": "https://download.geonames.org/export/dump/US.zip",
        "source_file_sha256": "cf3630ed70667495bcaa26c787687f6f49cca3d34a3921c58ced926242e075e7",
        "license": "CC-BY-4.0",
        "attribution": "Contains GeoNames data, licensed CC BY 4.0. Original named WGS84 references; no wine boundaries are inferred.",
        "label_note": "Named reference: Napa County. This source locality or administrative reference locates the broader wine context; it is not an official appellation centroid or wine boundary."
      },
      "geometry": {
        "type": "Point",
        "coordinates": [
          -122.33053,
          38.50647
        ]
      }
    },
    {
      "type": "Feature",
      "properties": {
        "node": "n_geo_sonoma_county",
        "node_id": "n_geo_sonoma_county",
        "name": "Sonoma County",
        "parent_node_id": "n_geo_california",
        "country_node_id": "n_geo_united_states",
        "retrieved_on": "2026-09-27",
        "point_role": "qualified_administrative_orientation_reference",
        "point_place_name": "Sonoma County",
        "geonames_id": "5397100",
        "geonames_feature_class": "A",
        "geonames_feature_code": "ADM2",
        "geonames_modified_on": "2018-04-25",
        "source_url": "https://www.geonames.org/5397100/",
        "source_coordinate_url": "https://download.geonames.org/export/dump/US.zip",
        "source_file_sha256": "cf3630ed70667495bcaa26c787687f6f49cca3d34a3921c58ced926242e075e7",
        "license": "CC-BY-4.0",
        "attribution": "Contains GeoNames data, licensed CC BY 4.0. Original named WGS84 references; no wine boundaries are inferred.",
        "label_note": "Named reference: Sonoma County. This source locality or administrative reference locates the broader wine context; it is not an official appellation centroid or wine boundary."
      },
      "geometry": {
        "type": "Point",
        "coordinates": [
          -122.92254,
          38.52529
        ]
      }
    },
    {
      "type": "Feature",
      "properties": {
        "node": "n_geo_mendocino_county",
        "node_id": "n_geo_mendocino_county",
        "name": "Mendocino County",
        "parent_node_id": "n_geo_california",
        "country_node_id": "n_geo_united_states",
        "retrieved_on": "2026-09-27",
        "point_role": "qualified_administrative_orientation_reference",
        "point_place_name": "Mendocino County",
        "geonames_id": "5372163",
        "geonames_feature_class": "A",
        "geonames_feature_code": "ADM2",
        "geonames_modified_on": "2022-04-26",
        "source_url": "https://www.geonames.org/5372163/",
        "source_coordinate_url": "https://download.geonames.org/export/dump/US.zip",
        "source_file_sha256": "cf3630ed70667495bcaa26c787687f6f49cca3d34a3921c58ced926242e075e7",
        "license": "CC-BY-4.0",
        "attribution": "Contains GeoNames data, licensed CC BY 4.0. Original named WGS84 references; no wine boundaries are inferred.",
        "label_note": "Named reference: Mendocino County. This source locality or administrative reference locates the broader wine context; it is not an official appellation centroid or wine boundary."
      },
      "geometry": {
        "type": "Point",
        "coordinates": [
          -123.43155,
          39.43362
        ]
      }
    },
    {
      "type": "Feature",
      "properties": {
        "node": "n_geo_san_luis_obispo_county",
        "node_id": "n_geo_san_luis_obispo_county",
        "name": "San Luis Obispo County",
        "parent_node_id": "n_geo_california",
        "country_node_id": "n_geo_united_states",
        "retrieved_on": "2026-09-27",
        "point_role": "qualified_administrative_orientation_reference",
        "point_place_name": "San Luis Obispo County",
        "geonames_id": "5392329",
        "geonames_feature_class": "A",
        "geonames_feature_code": "ADM2",
        "geonames_modified_on": "2021-03-09",
        "source_url": "https://www.geonames.org/5392329/",
        "source_coordinate_url": "https://download.geonames.org/export/dump/US.zip",
        "source_file_sha256": "cf3630ed70667495bcaa26c787687f6f49cca3d34a3921c58ced926242e075e7",
        "license": "CC-BY-4.0",
        "attribution": "Contains GeoNames data, licensed CC BY 4.0. Original named WGS84 references; no wine boundaries are inferred.",
        "label_note": "Named reference: San Luis Obispo County. This source locality or administrative reference locates the broader wine context; it is not an official appellation centroid or wine boundary."
      },
      "geometry": {
        "type": "Point",
        "coordinates": [
          -120.4522,
          35.38742
        ]
      }
    },
    {
      "type": "Feature",
      "properties": {
        "node": "n_geo_santa_barbara_county",
        "node_id": "n_geo_santa_barbara_county",
        "name": "Santa Barbara County",
        "parent_node_id": "n_geo_california",
        "country_node_id": "n_geo_united_states",
        "retrieved_on": "2026-09-27",
        "point_role": "qualified_administrative_orientation_reference",
        "point_place_name": "Santa Barbara County",
        "geonames_id": "5392967",
        "geonames_feature_class": "A",
        "geonames_feature_code": "ADM2",
        "geonames_modified_on": "2021-03-09",
        "source_url": "https://www.geonames.org/5392967/",
        "source_coordinate_url": "https://download.geonames.org/export/dump/US.zip",
        "source_file_sha256": "cf3630ed70667495bcaa26c787687f6f49cca3d34a3921c58ced926242e075e7",
        "license": "CC-BY-4.0",
        "attribution": "Contains GeoNames data, licensed CC BY 4.0. Original named WGS84 references; no wine boundaries are inferred.",
        "label_note": "Named reference: Santa Barbara County. This source locality or administrative reference locates the broader wine context; it is not an official appellation centroid or wine boundary."
      },
      "geometry": {
        "type": "Point",
        "coordinates": [
          -120.03078,
          34.53834
        ]
      }
    },
    {
      "type": "Feature",
      "properties": {
        "node": "n_geo_coquimbo_wine",
        "node_id": "n_geo_coquimbo_wine",
        "name": "Coquimbo (wine region)",
        "parent_node_id": "n_geo_chile",
        "country_node_id": "n_geo_chile",
        "retrieved_on": "2026-09-27",
        "point_role": "qualified_administrative_orientation_reference",
        "point_place_name": "Región de Coquimbo",
        "geonames_id": "3893623",
        "geonames_feature_class": "A",
        "geonames_feature_code": "ADM1",
        "geonames_modified_on": "2026-04-16",
        "source_url": "https://www.geonames.org/3893623/",
        "source_coordinate_url": "https://download.geonames.org/export/dump/CL.zip",
        "source_file_sha256": "9640fd7bff3e7c5a42d59d44c92a6bf602140b9c616579f2d45302f26a7db372",
        "license": "CC-BY-4.0",
        "attribution": "Contains GeoNames data, licensed CC BY 4.0. Original named WGS84 references; no wine boundaries are inferred.",
        "label_note": "Named reference: Región de Coquimbo. This source locality or administrative reference locates the broader wine context; it is not an official appellation centroid or wine boundary."
      },
      "geometry": {
        "type": "Point",
        "coordinates": [
          -71,
          -30.75
        ]
      }
    },
    {
      "type": "Feature",
      "properties": {
        "node": "n_geo_aconcagua_wine",
        "node_id": "n_geo_aconcagua_wine",
        "name": "Aconcagua (wine region)",
        "parent_node_id": "n_geo_chile",
        "country_node_id": "n_geo_chile",
        "retrieved_on": "2026-09-27",
        "point_role": "qualified_administrative_orientation_reference",
        "point_place_name": "Región de Valparaíso",
        "geonames_id": "3868621",
        "geonames_feature_class": "A",
        "geonames_feature_code": "ADM1",
        "geonames_modified_on": "2026-04-16",
        "source_url": "https://www.geonames.org/3868621/",
        "source_coordinate_url": "https://download.geonames.org/export/dump/CL.zip",
        "source_file_sha256": "9640fd7bff3e7c5a42d59d44c92a6bf602140b9c616579f2d45302f26a7db372",
        "license": "CC-BY-4.0",
        "attribution": "Contains GeoNames data, licensed CC BY 4.0. Original named WGS84 references; no wine boundaries are inferred.",
        "label_note": "Named reference: Región de Valparaíso. This source locality or administrative reference locates the broader wine context; it is not an official appellation centroid or wine boundary."
      },
      "geometry": {
        "type": "Point",
        "coordinates": [
          -71.33333,
          -32.75
        ]
      }
    },
    {
      "type": "Feature",
      "properties": {
        "node": "n_geo_cotes_de_gascogne",
        "node_id": "n_geo_cotes_de_gascogne",
        "name": "Côtes de Gascogne (IGP)",
        "parent_node_id": "n_geo_southwest_france",
        "country_node_id": "n_geo_france",
        "retrieved_on": "2026-09-27",
        "point_role": "qualified_named_locality_reference",
        "point_place_name": "Eauze",
        "geonames_id": "3020584",
        "geonames_feature_class": "P",
        "geonames_feature_code": "PPL",
        "geonames_modified_on": "2020-04-08",
        "source_url": "https://www.geonames.org/3020584/",
        "source_coordinate_url": "https://download.geonames.org/export/dump/FR.zip",
        "source_file_sha256": "0f8f1d3f57320e6aabde1db8d592e8477903e2e68d2d6e6aa0f501f0e5ab299d",
        "license": "CC-BY-4.0",
        "attribution": "Contains GeoNames data, licensed CC BY 4.0. Original named WGS84 references; no wine boundaries are inferred.",
        "label_note": "Named reference: Eauze. This source locality or administrative reference locates the broader wine context; it is not an official appellation centroid or wine boundary."
      },
      "geometry": {
        "type": "Point",
        "coordinates": [
          0.10061,
          43.86071
        ]
      }
    },
    {
      "type": "Feature",
      "properties": {
        "node": "n_geo_pays_doc",
        "node_id": "n_geo_pays_doc",
        "name": "Pays d’Oc (IGP)",
        "parent_node_id": "n_geo_france",
        "country_node_id": "n_geo_france",
        "retrieved_on": "2026-09-27",
        "point_role": "qualified_administrative_orientation_reference",
        "point_place_name": "Hérault",
        "geonames_id": "3013500",
        "geonames_feature_class": "A",
        "geonames_feature_code": "ADM2",
        "geonames_modified_on": "2025-12-01",
        "source_url": "https://www.geonames.org/3013500/",
        "source_coordinate_url": "https://download.geonames.org/export/dump/FR.zip",
        "source_file_sha256": "0f8f1d3f57320e6aabde1db8d592e8477903e2e68d2d6e6aa0f501f0e5ab299d",
        "license": "CC-BY-4.0",
        "attribution": "Contains GeoNames data, licensed CC BY 4.0. Original named WGS84 references; no wine boundaries are inferred.",
        "label_note": "Named reference: Hérault. This source locality or administrative reference locates the broader wine context; it is not an official appellation centroid or wine boundary."
      },
      "geometry": {
        "type": "Point",
        "coordinates": [
          3.5,
          43.66667
        ]
      }
    },
    {
      "type": "Feature",
      "properties": {
        "node": "n_geo_delle_venezie",
        "node_id": "n_geo_delle_venezie",
        "name": "Delle Venezie (DOC)",
        "parent_node_id": "n_geo_italy",
        "country_node_id": "n_geo_italy",
        "retrieved_on": "2026-09-27",
        "point_role": "qualified_administrative_orientation_reference",
        "point_place_name": "Provincia autonoma di Trento",
        "geonames_id": "3165241",
        "geonames_feature_class": "A",
        "geonames_feature_code": "ADM2",
        "geonames_modified_on": "2023-12-03",
        "source_url": "https://www.geonames.org/3165241/",
        "source_coordinate_url": "https://download.geonames.org/export/dump/IT.zip",
        "source_file_sha256": "3ed52ee0c4d41b259db1ccb1b608beba3c89361d99668e1bbf8049d3db42c647",
        "license": "CC-BY-4.0",
        "attribution": "Contains GeoNames data, licensed CC BY 4.0. Original named WGS84 references; no wine boundaries are inferred.",
        "label_note": "Named reference: Provincia autonoma di Trento. This source locality or administrative reference locates the broader wine context; it is not an official appellation centroid or wine boundary."
      },
      "geometry": {
        "type": "Point",
        "coordinates": [
          11.12177,
          46.06966
        ]
      }
    },
    {
      "type": "Feature",
      "properties": {
        "node": "n_geo_dolcetto_d_alba",
        "node_id": "n_geo_dolcetto_d_alba",
        "name": "Dolcetto d’Alba (DOC)",
        "parent_node_id": "n_geo_piedmont",
        "country_node_id": "n_geo_italy",
        "retrieved_on": "2026-09-27",
        "point_role": "qualified_named_locality_reference",
        "point_place_name": "Alba",
        "geonames_id": "3183364",
        "geonames_feature_class": "P",
        "geonames_feature_code": "PPLA3",
        "geonames_modified_on": "2014-01-11",
        "source_url": "https://www.geonames.org/3183364/",
        "source_coordinate_url": "https://download.geonames.org/export/dump/IT.zip",
        "source_file_sha256": "3ed52ee0c4d41b259db1ccb1b608beba3c89361d99668e1bbf8049d3db42c647",
        "license": "CC-BY-4.0",
        "attribution": "Contains GeoNames data, licensed CC BY 4.0. Original named WGS84 references; no wine boundaries are inferred.",
        "label_note": "Named reference: Alba. This source locality or administrative reference locates the broader wine context; it is not an official appellation centroid or wine boundary."
      },
      "geometry": {
        "type": "Point",
        "coordinates": [
          8.0347,
          44.6999
        ]
      }
    },
    {
      "type": "Feature",
      "properties": {
        "node": "n_geo_toscana_igt",
        "node_id": "n_geo_toscana_igt",
        "name": "Toscana (IGT)",
        "parent_node_id": "n_geo_tuscany",
        "country_node_id": "n_geo_italy",
        "retrieved_on": "2026-09-27",
        "point_role": "qualified_administrative_orientation_reference",
        "point_place_name": "Toscana",
        "geonames_id": "3165361",
        "geonames_feature_class": "A",
        "geonames_feature_code": "ADM1",
        "geonames_modified_on": "2026-04-16",
        "source_url": "https://www.geonames.org/3165361/",
        "source_coordinate_url": "https://download.geonames.org/export/dump/IT.zip",
        "source_file_sha256": "3ed52ee0c4d41b259db1ccb1b608beba3c89361d99668e1bbf8049d3db42c647",
        "license": "CC-BY-4.0",
        "attribution": "Contains GeoNames data, licensed CC BY 4.0. Original named WGS84 references; no wine boundaries are inferred.",
        "label_note": "Named reference: Toscana. This source locality or administrative reference locates the broader wine context; it is not an official appellation centroid or wine boundary."
      },
      "geometry": {
        "type": "Point",
        "coordinates": [
          11,
          43.41667
        ]
      }
    },
    {
      "type": "Feature",
      "properties": {
        "node": "n_geo_sicilia_doc",
        "node_id": "n_geo_sicilia_doc",
        "name": "Sicilia (DOC)",
        "parent_node_id": "n_geo_sicily",
        "country_node_id": "n_geo_italy",
        "retrieved_on": "2026-09-27",
        "point_role": "qualified_administrative_orientation_reference",
        "point_place_name": "Sicilia",
        "geonames_id": "2523119",
        "geonames_feature_class": "A",
        "geonames_feature_code": "ADM1",
        "geonames_modified_on": "2026-04-16",
        "source_url": "https://www.geonames.org/2523119/",
        "source_coordinate_url": "https://download.geonames.org/export/dump/IT.zip",
        "source_file_sha256": "3ed52ee0c4d41b259db1ccb1b608beba3c89361d99668e1bbf8049d3db42c647",
        "license": "CC-BY-4.0",
        "attribution": "Contains GeoNames data, licensed CC BY 4.0. Original named WGS84 references; no wine boundaries are inferred.",
        "label_note": "Named reference: Sicilia. This source locality or administrative reference locates the broader wine context; it is not an official appellation centroid or wine boundary."
      },
      "geometry": {
        "type": "Point",
        "coordinates": [
          14.25,
          37.75
        ]
      }
    },
    {
      "type": "Feature",
      "properties": {
        "node": "n_geo_terre_siciliane_igt",
        "node_id": "n_geo_terre_siciliane_igt",
        "name": "Terre Siciliane (IGT)",
        "parent_node_id": "n_geo_sicily",
        "country_node_id": "n_geo_italy",
        "retrieved_on": "2026-09-27",
        "point_role": "qualified_administrative_orientation_reference",
        "point_place_name": "Sicilia",
        "geonames_id": "2523119",
        "geonames_feature_class": "A",
        "geonames_feature_code": "ADM1",
        "geonames_modified_on": "2026-04-16",
        "source_url": "https://www.geonames.org/2523119/",
        "source_coordinate_url": "https://download.geonames.org/export/dump/IT.zip",
        "source_file_sha256": "3ed52ee0c4d41b259db1ccb1b608beba3c89361d99668e1bbf8049d3db42c647",
        "license": "CC-BY-4.0",
        "attribution": "Contains GeoNames data, licensed CC BY 4.0. Original named WGS84 references; no wine boundaries are inferred.",
        "label_note": "Named reference: Sicilia. This source locality or administrative reference locates the broader wine context; it is not an official appellation centroid or wine boundary."
      },
      "geometry": {
        "type": "Point",
        "coordinates": [
          14.25,
          37.75
        ]
      }
    },
    {
      "type": "Feature",
      "properties": {
        "node": "n_geo_navarra_do",
        "node_id": "n_geo_navarra_do",
        "name": "Navarra (DO)",
        "parent_node_id": "n_geo_navarra_region",
        "country_node_id": "n_geo_spain",
        "retrieved_on": "2026-09-27",
        "point_role": "qualified_administrative_orientation_reference",
        "point_place_name": "Navarra",
        "geonames_id": "3115609",
        "geonames_feature_class": "A",
        "geonames_feature_code": "ADM1",
        "geonames_modified_on": "2026-04-16",
        "source_url": "https://www.geonames.org/3115609/",
        "source_coordinate_url": "https://download.geonames.org/export/dump/ES.zip",
        "source_file_sha256": "f5f48c784a6dbe59bd919c056a88871e5582119f972c1ff779a4b7bf0f20c448",
        "license": "CC-BY-4.0",
        "attribution": "Contains GeoNames data, licensed CC BY 4.0. Original named WGS84 references; no wine boundaries are inferred.",
        "label_note": "Named reference: Navarra. This source locality or administrative reference locates the broader wine context; it is not an official appellation centroid or wine boundary."
      },
      "geometry": {
        "type": "Point",
        "coordinates": [
          -1.66667,
          42.75
        ]
      }
    },
    {
      "type": "Feature",
      "properties": {
        "node": "n_geo_calatayud",
        "node_id": "n_geo_calatayud",
        "name": "Calatayud (DO)",
        "parent_node_id": "n_geo_spain",
        "country_node_id": "n_geo_spain",
        "retrieved_on": "2026-09-27",
        "point_role": "qualified_named_locality_reference",
        "point_place_name": "Calatayud",
        "geonames_id": "3127047",
        "geonames_feature_class": "P",
        "geonames_feature_code": "PPLA3",
        "geonames_modified_on": "2025-07-29",
        "source_url": "https://www.geonames.org/3127047/",
        "source_coordinate_url": "https://download.geonames.org/export/dump/ES.zip",
        "source_file_sha256": "f5f48c784a6dbe59bd919c056a88871e5582119f972c1ff779a4b7bf0f20c448",
        "license": "CC-BY-4.0",
        "attribution": "Contains GeoNames data, licensed CC BY 4.0. Original named WGS84 references; no wine boundaries are inferred.",
        "label_note": "Named reference: Calatayud. This source locality or administrative reference locates the broader wine context; it is not an official appellation centroid or wine boundary."
      },
      "geometry": {
        "type": "Point",
        "coordinates": [
          -1.64318,
          41.35353
        ]
      }
    },
    {
      "type": "Feature",
      "properties": {
        "node": "n_geo_catalunya_do",
        "node_id": "n_geo_catalunya_do",
        "name": "Catalunya (DO)",
        "parent_node_id": "n_geo_spain",
        "country_node_id": "n_geo_spain",
        "retrieved_on": "2026-09-27",
        "point_role": "qualified_administrative_orientation_reference",
        "point_place_name": "Catalunya",
        "geonames_id": "3336901",
        "geonames_feature_class": "A",
        "geonames_feature_code": "ADM1",
        "geonames_modified_on": "2026-04-16",
        "source_url": "https://www.geonames.org/3336901/",
        "source_coordinate_url": "https://download.geonames.org/export/dump/ES.zip",
        "source_file_sha256": "f5f48c784a6dbe59bd919c056a88871e5582119f972c1ff779a4b7bf0f20c448",
        "license": "CC-BY-4.0",
        "attribution": "Contains GeoNames data, licensed CC BY 4.0. Original named WGS84 references; no wine boundaries are inferred.",
        "label_note": "Named reference: Catalunya. This source locality or administrative reference locates the broader wine context; it is not an official appellation centroid or wine boundary."
      },
      "geometry": {
        "type": "Point",
        "coordinates": [
          1.86768,
          41.82046
        ]
      }
    },
    {
      "type": "Feature",
      "properties": {
        "node": "n_geo_penedes",
        "node_id": "n_geo_penedes",
        "name": "Penedès (DO)",
        "parent_node_id": "n_geo_spain",
        "country_node_id": "n_geo_spain",
        "retrieved_on": "2026-09-27",
        "point_role": "qualified_named_locality_reference",
        "point_place_name": "Vilafranca del Penedès",
        "geonames_id": "3105600",
        "geonames_feature_class": "P",
        "geonames_feature_code": "PPLA3",
        "geonames_modified_on": "2024-09-05",
        "source_url": "https://www.geonames.org/3105600/",
        "source_coordinate_url": "https://download.geonames.org/export/dump/ES.zip",
        "source_file_sha256": "f5f48c784a6dbe59bd919c056a88871e5582119f972c1ff779a4b7bf0f20c448",
        "license": "CC-BY-4.0",
        "attribution": "Contains GeoNames data, licensed CC BY 4.0. Original named WGS84 references; no wine boundaries are inferred.",
        "label_note": "Named reference: Vilafranca del Penedès. This source locality or administrative reference locates the broader wine context; it is not an official appellation centroid or wine boundary."
      },
      "geometry": {
        "type": "Point",
        "coordinates": [
          1.69713,
          41.34618
        ]
      }
    },
    {
      "type": "Feature",
      "properties": {
        "node": "n_geo_valencia_do",
        "node_id": "n_geo_valencia_do",
        "name": "Valencia (DO)",
        "parent_node_id": "n_geo_valencian_community",
        "country_node_id": "n_geo_spain",
        "retrieved_on": "2026-09-27",
        "point_role": "qualified_named_locality_reference",
        "point_place_name": "Valencia",
        "geonames_id": "2509954",
        "geonames_feature_class": "P",
        "geonames_feature_code": "PPLA",
        "geonames_modified_on": "2025-10-22",
        "source_url": "https://www.geonames.org/2509954/",
        "source_coordinate_url": "https://download.geonames.org/export/dump/ES.zip",
        "source_file_sha256": "f5f48c784a6dbe59bd919c056a88871e5582119f972c1ff779a4b7bf0f20c448",
        "license": "CC-BY-4.0",
        "attribution": "Contains GeoNames data, licensed CC BY 4.0. Original named WGS84 references; no wine boundaries are inferred.",
        "label_note": "Named reference: Valencia. This source locality or administrative reference locates the broader wine context; it is not an official appellation centroid or wine boundary."
      },
      "geometry": {
        "type": "Point",
        "coordinates": [
          -0.37966,
          39.47391
        ]
      }
    },
    {
      "type": "Feature",
      "properties": {
        "node": "n_geo_yecla",
        "node_id": "n_geo_yecla",
        "name": "Yecla (DO)",
        "parent_node_id": "n_geo_spain",
        "country_node_id": "n_geo_spain",
        "retrieved_on": "2026-09-27",
        "point_role": "qualified_named_locality_reference",
        "point_place_name": "Yecla",
        "geonames_id": "2509402",
        "geonames_feature_class": "P",
        "geonames_feature_code": "PPLA3",
        "geonames_modified_on": "2012-03-04",
        "source_url": "https://www.geonames.org/2509402/",
        "source_coordinate_url": "https://download.geonames.org/export/dump/ES.zip",
        "source_file_sha256": "f5f48c784a6dbe59bd919c056a88871e5582119f972c1ff779a4b7bf0f20c448",
        "license": "CC-BY-4.0",
        "attribution": "Contains GeoNames data, licensed CC BY 4.0. Original named WGS84 references; no wine boundaries are inferred.",
        "label_note": "Named reference: Yecla. This source locality or administrative reference locates the broader wine context; it is not an official appellation centroid or wine boundary."
      },
      "geometry": {
        "type": "Point",
        "coordinates": [
          -1.11468,
          38.61365
        ]
      }
    },
    {
      "type": "Feature",
      "properties": {
        "node": "n_geo_la_mancha_do",
        "node_id": "n_geo_la_mancha_do",
        "name": "La Mancha (DO)",
        "parent_node_id": "n_geo_castilla_la_mancha",
        "country_node_id": "n_geo_spain",
        "retrieved_on": "2026-09-27",
        "point_role": "qualified_named_locality_reference",
        "point_place_name": "Alcázar de San Juan",
        "geonames_id": "2522131",
        "geonames_feature_class": "P",
        "geonames_feature_code": "PPLA3",
        "geonames_modified_on": "2025-07-29",
        "source_url": "https://www.geonames.org/2522131/",
        "source_coordinate_url": "https://download.geonames.org/export/dump/ES.zip",
        "source_file_sha256": "f5f48c784a6dbe59bd919c056a88871e5582119f972c1ff779a4b7bf0f20c448",
        "license": "CC-BY-4.0",
        "attribution": "Contains GeoNames data, licensed CC BY 4.0. Original named WGS84 references; no wine boundaries are inferred.",
        "label_note": "Named reference: Alcázar de San Juan. This source locality or administrative reference locates the broader wine context; it is not an official appellation centroid or wine boundary."
      },
      "geometry": {
        "type": "Point",
        "coordinates": [
          -3.20827,
          39.39011
        ]
      }
    },
    {
      "type": "Feature",
      "properties": {
        "node": "n_geo_valdepenas",
        "node_id": "n_geo_valdepenas",
        "name": "Valdepeñas (DO)",
        "parent_node_id": "n_geo_castilla_la_mancha",
        "country_node_id": "n_geo_spain",
        "retrieved_on": "2026-09-27",
        "point_role": "qualified_named_locality_reference",
        "point_place_name": "Valdepeñas",
        "geonames_id": "2509982",
        "geonames_feature_class": "P",
        "geonames_feature_code": "PPLA3",
        "geonames_modified_on": "2013-11-13",
        "source_url": "https://www.geonames.org/2509982/",
        "source_coordinate_url": "https://download.geonames.org/export/dump/ES.zip",
        "source_file_sha256": "f5f48c784a6dbe59bd919c056a88871e5582119f972c1ff779a4b7bf0f20c448",
        "license": "CC-BY-4.0",
        "attribution": "Contains GeoNames data, licensed CC BY 4.0. Original named WGS84 references; no wine boundaries are inferred.",
        "label_note": "Named reference: Valdepeñas. This source locality or administrative reference locates the broader wine context; it is not an official appellation centroid or wine boundary."
      },
      "geometry": {
        "type": "Point",
        "coordinates": [
          -3.38483,
          38.76211
        ]
      }
    },
    {
      "type": "Feature",
      "properties": {
        "node": "n_geo_castilla_y_leon_igp",
        "node_id": "n_geo_castilla_y_leon_igp",
        "name": "Castilla y León (IGP)",
        "parent_node_id": "n_geo_castilla_y_leon",
        "country_node_id": "n_geo_spain",
        "retrieved_on": "2026-09-27",
        "point_role": "qualified_administrative_orientation_reference",
        "point_place_name": "Castilla y León",
        "geonames_id": "3336900",
        "geonames_feature_class": "A",
        "geonames_feature_code": "ADM1",
        "geonames_modified_on": "2026-04-16",
        "source_url": "https://www.geonames.org/3336900/",
        "source_coordinate_url": "https://download.geonames.org/export/dump/ES.zip",
        "source_file_sha256": "f5f48c784a6dbe59bd919c056a88871e5582119f972c1ff779a4b7bf0f20c448",
        "license": "CC-BY-4.0",
        "attribution": "Contains GeoNames data, licensed CC BY 4.0. Original named WGS84 references; no wine boundaries are inferred.",
        "label_note": "Named reference: Castilla y León. This source locality or administrative reference locates the broader wine context; it is not an official appellation centroid or wine boundary."
      },
      "geometry": {
        "type": "Point",
        "coordinates": [
          -4.25,
          41.66667
        ]
      }
    },
    {
      "type": "Feature",
      "properties": {
        "node": "n_geo_alentejano_igp",
        "node_id": "n_geo_alentejano_igp",
        "name": "Alentejano (IGP)",
        "parent_node_id": "n_geo_portugal",
        "country_node_id": "n_geo_portugal",
        "retrieved_on": "2026-09-27",
        "point_role": "qualified_named_locality_reference",
        "point_place_name": "Évora",
        "geonames_id": "2268406",
        "geonames_feature_class": "P",
        "geonames_feature_code": "PPLA",
        "geonames_modified_on": "2026-04-14",
        "source_url": "https://www.geonames.org/2268406/",
        "source_coordinate_url": "https://download.geonames.org/export/dump/PT.zip",
        "source_file_sha256": "16db78e69e1e4be281b61575f0576bd365e5e73946e0b536facc86647e6a86ed",
        "license": "CC-BY-4.0",
        "attribution": "Contains GeoNames data, licensed CC BY 4.0. Original named WGS84 references; no wine boundaries are inferred.",
        "label_note": "Named reference: Évora. This source locality or administrative reference locates the broader wine context; it is not an official appellation centroid or wine boundary."
      },
      "geometry": {
        "type": "Point",
        "coordinates": [
          -7.90405,
          38.56587
        ]
      }
    },
    {
      "type": "Feature",
      "properties": {
        "node": "n_geo_schlossbockelheim",
        "node_id": "n_geo_schlossbockelheim",
        "name": "Schlossböckelheim",
        "parent_node_id": "n_geo_nahe",
        "country_node_id": "n_geo_germany",
        "retrieved_on": "2026-09-27",
        "point_role": "qualified_named_locality_reference",
        "point_place_name": "Schloßböckelheim",
        "geonames_id": "2838316",
        "geonames_feature_class": "P",
        "geonames_feature_code": "PPLA4",
        "geonames_modified_on": "2011-04-25",
        "source_url": "https://www.geonames.org/2838316/",
        "source_coordinate_url": "https://download.geonames.org/export/dump/DE.zip",
        "source_file_sha256": "5955008e8c1457d2105d44c60a075787b85804be43b587273f97ed930e74c759",
        "license": "CC-BY-4.0",
        "attribution": "Contains GeoNames data, licensed CC BY 4.0. Original named WGS84 references; no wine boundaries are inferred.",
        "label_note": "Named reference: Schloßböckelheim. This source locality or administrative reference locates the broader wine context; it is not an official appellation centroid or wine boundary."
      },
      "geometry": {
        "type": "Point",
        "coordinates": [
          7.75,
          49.8
        ]
      }
    },
    {
      "type": "Feature",
      "properties": {
        "node": "n_geo_nierstein",
        "node_id": "n_geo_nierstein",
        "name": "Nierstein",
        "parent_node_id": "n_geo_rheinhessen",
        "country_node_id": "n_geo_germany",
        "retrieved_on": "2026-09-27",
        "point_role": "qualified_named_locality_reference",
        "point_place_name": "Nierstein",
        "geonames_id": "2862485",
        "geonames_feature_class": "P",
        "geonames_feature_code": "PPLA4",
        "geonames_modified_on": "2017-04-26",
        "source_url": "https://www.geonames.org/2862485/",
        "source_coordinate_url": "https://download.geonames.org/export/dump/DE.zip",
        "source_file_sha256": "5955008e8c1457d2105d44c60a075787b85804be43b587273f97ed930e74c759",
        "license": "CC-BY-4.0",
        "attribution": "Contains GeoNames data, licensed CC BY 4.0. Original named WGS84 references; no wine boundaries are inferred.",
        "label_note": "Named reference: Nierstein. This source locality or administrative reference locates the broader wine context; it is not an official appellation centroid or wine boundary."
      },
      "geometry": {
        "type": "Point",
        "coordinates": [
          8.33647,
          49.87003
        ]
      }
    },
    {
      "type": "Feature",
      "properties": {
        "node": "n_geo_forst_pfalz",
        "node_id": "n_geo_forst_pfalz",
        "name": "Forst an der Weinstraße",
        "parent_node_id": "n_geo_pfalz",
        "country_node_id": "n_geo_germany",
        "retrieved_on": "2026-09-27",
        "point_role": "qualified_named_locality_reference",
        "point_place_name": "Forst",
        "geonames_id": "2925846",
        "geonames_feature_class": "P",
        "geonames_feature_code": "PPL",
        "geonames_modified_on": "2018-12-04",
        "source_url": "https://www.geonames.org/2925846/",
        "source_coordinate_url": "https://download.geonames.org/export/dump/DE.zip",
        "source_file_sha256": "5955008e8c1457d2105d44c60a075787b85804be43b587273f97ed930e74c759",
        "license": "CC-BY-4.0",
        "attribution": "Contains GeoNames data, licensed CC BY 4.0. Original named WGS84 references; no wine boundaries are inferred.",
        "label_note": "Named reference: Forst. This source locality or administrative reference locates the broader wine context; it is not an official appellation centroid or wine boundary."
      },
      "geometry": {
        "type": "Point",
        "coordinates": [
          8.1897,
          49.42567
        ]
      }
    },
    {
      "type": "Feature",
      "properties": {
        "node": "n_geo_deidesheim",
        "node_id": "n_geo_deidesheim",
        "name": "Deidesheim",
        "parent_node_id": "n_geo_pfalz",
        "country_node_id": "n_geo_germany",
        "retrieved_on": "2026-09-27",
        "point_role": "qualified_named_locality_reference",
        "point_place_name": "Deidesheim",
        "geonames_id": "2938465",
        "geonames_feature_class": "P",
        "geonames_feature_code": "PPL",
        "geonames_modified_on": "2015-09-05",
        "source_url": "https://www.geonames.org/2938465/",
        "source_coordinate_url": "https://download.geonames.org/export/dump/DE.zip",
        "source_file_sha256": "5955008e8c1457d2105d44c60a075787b85804be43b587273f97ed930e74c759",
        "license": "CC-BY-4.0",
        "attribution": "Contains GeoNames data, licensed CC BY 4.0. Original named WGS84 references; no wine boundaries are inferred.",
        "label_note": "Named reference: Deidesheim. This source locality or administrative reference locates the broader wine context; it is not an official appellation centroid or wine boundary."
      },
      "geometry": {
        "type": "Point",
        "coordinates": [
          8.18445,
          49.40782
        ]
      }
    },
    {
      "type": "Feature",
      "properties": {
        "node": "n_geo_cote_de_sezanne",
        "node_id": "n_geo_cote_de_sezanne",
        "name": "Côte de Sézanne",
        "parent_node_id": "n_geo_champagne",
        "country_node_id": "n_geo_france",
        "retrieved_on": "2026-09-27",
        "point_role": "qualified_named_locality_reference",
        "point_place_name": "Sézanne",
        "geonames_id": "2974640",
        "geonames_feature_class": "P",
        "geonames_feature_code": "PPL",
        "geonames_modified_on": "2016-02-18",
        "source_url": "https://www.geonames.org/2974640/",
        "source_coordinate_url": "https://download.geonames.org/export/dump/FR.zip",
        "source_file_sha256": "0f8f1d3f57320e6aabde1db8d592e8477903e2e68d2d6e6aa0f501f0e5ab299d",
        "license": "CC-BY-4.0",
        "attribution": "Contains GeoNames data, licensed CC BY 4.0. Original named WGS84 references; no wine boundaries are inferred.",
        "label_note": "Named reference: Sézanne. This source locality or administrative reference locates the broader wine context; it is not an official appellation centroid or wine boundary."
      },
      "geometry": {
        "type": "Point",
        "coordinates": [
          3.72339,
          48.72047
        ]
      }
    }
  ]
}
