{
  "type": "FeatureCollection",
  "features": [
    {
      "type": "Feature",
      "properties": {
        "node": "n_geo_st_helena",
        "node_id": "n_geo_st_helena",
        "name": "St. Helena",
        "parent_node_id": "n_geo_napa_valley",
        "country_node_id": "n_geo_united_states",
        "point_role": "source_polygon_interior_reference_point",
        "point_place_name": "St. Helena AVA",
        "source_url": "https://raw.githubusercontent.com/UCDavisLibrary/ava/7af5b29d45aee5e6c6ce3889e9b1de19085d7107/avas/st__helena.geojson",
        "source_coordinate_url": "https://raw.githubusercontent.com/UCDavisLibrary/ava/7af5b29d45aee5e6c6ce3889e9b1de19085d7107/avas_aggregated_files/avas.geojson",
        "source_commit": "7af5b29d45aee5e6c6ce3889e9b1de19085d7107",
        "source_file_sha256": "c90068f7154764519f0a7c6fb2788e597b7c56bf7581e8c0faa979554d984926",
        "source_feature_id": "st__helena",
        "derivation": "widest verified interior horizontal scanline interval midpoint; 63 evenly spaced scanlines per polygon",
        "retrieved_on": "2026-09-27",
        "license": "CC0-1.0",
        "attribution": "UC Davis Library and DataLab American Viticultural Areas Project, with UCSB Library and Virginia Tech contributors.",
        "label_note": "Reference marker derived from the pinned community digitized AVA polygon; not an official centroid or legal boundary."
      },
      "geometry": {
        "type": "Point",
        "coordinates": [
          -122.45052882142787,
          38.505404759571555
        ]
      }
    }
  ]
}
